Name,Address,City/Province,Postal Code,Country,Telephone,Email
A & O: Support Services for Older Adults,200 - 280 Smith Street ,"Winnipeg, Manitoba",R3C 1K2,Canada,Telephone: 204-956-6440,amacrae@ageopportunity.mb.ca
Accès emploi Alberta,202-8627 Marie-Anne-Gaboury ST,"Edmonton, Alberta",T6C 3N1,Canada,Telephone: 780-490-6975,ae@accesemploi.net
ACCES Employment,2001 Sheppard Ave E. Suite 201,"Toronto, Ontario",M2J 4Z8,Canada,Telephone: 416-443-9008, 
Acces Employment,"2085 Hurontario Street, Suite 210","Mississauga, Ontario",L5A 4G1,Canada,Telephone: 905-361-2522, 
ACCES Employment,"2100 Ellesmere Road, Suite 250","Toronto, Ontario",M1H 3B7,Canada,Telephone: 416-431-5326, 
Acces Employment,"44 Peel Centre Drive, Suite 201","Brampton, Ontario",L6T 4BS,Canada,Telephone: 905-454-2316, 
ACCES Employment,"489 College Street, Suite 100","Toronto, Ontario",M6G 1A5,Canada,Telephone: 416-921-1800, 
Access Alliance Multicultural Health & Community Services,3079 Danforth Avenue,"Toronto, Ontario",M1L 1A8,Canada,Telephone: 416-693-8677, 
Access Alliance Multicultural Health & Community Services,"340 College Street, Suite 500","Toronto, Ontario",M5T 3A9,Canada,Telephone: 416-324-8801, 
Access Alliance Multicultural Health & Community Services,"761 Jane Street, 2nd Floor","Toronto, Ontario",M6N 4B4,Canada,Telephone: 416-760-8677, 
Achēv,1003 Giffard Street,"Whitby, Ontario",L1N 2S4,Canada,Telephone: 905-666-1255,info@achev.ca
Achēv,"1400 Bayly Street, Unit 5","Pickering, Ontario",L1W 3R2,Canada,Telephone: 1-877-761-1155,info@achev.ca
Achēv,16655 Yonge Street,"Newmarket, Ontario",L3X 1V6,Canada,Telephone: 289-841-3032,info@achev.ca
Achēv,"263 Queen Street East, Unit 14","Brampton, Ontario",L6W 3J3,Canada,Telephone: 905-595-0722,info@achev.ca
Achēv,272 King Street East,"Oshawa, Ontario",L1H 1C9,Canada,Telephone: 905-579-1821,info@achev.ca
Achēv,320 Bayfield Street,"Barrie, Ontario",L4M 3C1,Canada,Telephone: 705-725-8990 ext. 45200,info@achev.ca
Achēv,425 Holland Street West,"Bradford, Ontario",L3Z 0J2,Canada,Telephone: 905-775-3328,info@achev.ca
Achēv,458 Fairall Street,"Ajax, Ontario",L1S 1R6,Canada,Telephone: 1-877-761-1155,info@achev.ca
Achēv,"50 Burnhamthorpe Road West, Suite 300","Mississauga, Ontario",L5B 3C2,Canada,Telephone: 905-949-0049,info@achev.ca
Achēv,"690 Dorval Drive, Suite 100","Oakville, Ontario",L6K 3X9,Canada,Telephone: 905-875-3851,info@achev.ca
Achēv,7220 Kennedy Road,"Markham, Ontario",L3R 7P2,Canada,Telephone: 905-479-7926,info@achev.ca
Achēv,"7420 Airport Road, Suite 104","Malton, Ontario",L4T 4E5,Canada,Telephone: 905-677-0007,info@achev.ca
Achēv,8400 Woodbine Avenue,"Markham, Ontario",L3R 4N7,Canada,Telephone: 1-877-761-1155,info@achev.ca
Achēv,9100 Jane Street,"Vaughan, Ontario",L4K 0A4,Canada,Telephone: 1-877-761-1155,info@achev.ca
Achēv,9325 Yonge Street,"Richmond Hill, Ontario",L4C 0A8,Canada,Telephone: 1-877-761-1155,info@achev.ca
Achēv,"Doncrest Market Place, 420 Highway 7 East","Richmond Hill, Ontario",L4B 3K2,Canada,Telephone: 1-855-330-8655,info@achev.ca
Action for Healthy Communities Society of Edmonton,200-10578 113 St NW,"Edmonton, Alberta",T5H 3H5,Canada,Telephone: 780-944-4687, 
Actions interculturelles de développement et d'éducation (AIDE) inc.,465 Rue Lawford  ,"Sherbrooke , Quebec",J1G 2C2,Canada,Telephone: 819-822-4180,aide@aide.org
Adult Language and Learning,16 George Street,"Blenheim, Ontario",N0P 1A0,Canada,Telephone: 519-676-3174, 
Adult Language and Learning,187 Brown Street,"Dresden, Ontario",N0P 1M0,Canada,Telephone: 519-354-2940, 
Adult Language and Learning,2 Queen Street,"Tilbury, Ontario",N0P 2L0,Canada,Telephone: 519-354-7424, 
Adult Language and Learning,209 James Street,"Wallaceburg, Ontario",N8A 2N4,Canada,Telephone: 519-354-7424, 
Adult Language and Learning,240 King Street West,"Chatham, Ontario",N7M 1E7,Canada,Telephone: 519-354-7424, 
Adult Language and Learning,285 McNaughton Avenue West,"Chatham, Ontario",N7L 2G7,Canada,Telephone: 519-354-7424, 
Adult Language and Learning,35 Talbot Road West,"Wheatley, Ontario",N0P 1A0,Canada,Telephone: 519-354-2940, 
Adult Language and Learning,54 Main Street,"Ridgetown, Ontario",N0P 2C0,Canada,Telephone: 519-948-5545, 
Afghan Women's Counselling and Integration Community Support Organization,"2555 Eglinton Avenue East, Unit 211","Toronto, Ontario",M1K 5J1,Canada,Telephone: 416-266-2936,aniazi@afghanwomen.org
Afghan Women's Counselling and Integration Community Support Organization,"747 Don Mills Road, Unit 30","Mississauga, Ontario",M3C 1T2,Canada,Telephone: 416-422-2225,aniazi@afghanwomen.org
Afghan Women's Counselling and Integration Community Support Organization,"789 Don Mills Road, Suite 700","Toronto, Ontario",M3C 1T5,Canada,Telephone: 416-588-3585,aniazi@afghanwomen.org
Afghan Women's Organization,"3050 Confederation Parkway, Unit 302","Mississauga, Ontario",L5B 3Z6,Canada,Telephone: 905-279-3679, 
Agape Language Centre,16 Bermuda Drive NW,"Calgary, Alberta",T3K 1H7,Canada,Telephone: 403-516-1846,nwoodburn@agapelanguagecentre.com
Agincourt Community Services Association,1911 Kennedy Road,"Scarborough, Ontario",M1P 2L9,Canada,Telephone: 416-321-6912, 
Agincourt Community Services Association,2219 Lawrence Avenue East,"Scarborough, Ontario",M1P 2P5,Canada,Telephone: 416-321-6912, 
Agincourt Community Services Association,3030 Lawrence Avenue East,"Scarborough, Ontario",M1P 2T7,Canada,Telephone: 416-321-6912, 
Agincourt Community Services Association,545 Markham Road,"Scarborough, Ontario",M1H 2A1,Canada,Telephone: 416-321-6912, 
Alberta International Medical Graduate School,"1409 Edmonton Trail NE, Suite 202","Calgary, Alberta",T2E 3K8,Canada,Telephone: 587-524-2750,calgary@aimga.ca
Alberta International Medical Graduate School,420-10055 106 Street NW ,"Edmonton, Alberta",T5J 2Y2,Canada,Telephone: 587-524-2750,edmonton@aimga.ca
Alberta Somali Community Centre,Unit 101 - 9219 111 Avenue  ,"Edmonton, Alberta",T5G 0A2,Canada,Telephone: 780-757-3334,albertasomalicommunitycentre@gmail.com
Algonquin and Lakeshore Catholic District School Board ,151 Dairy Avenue,"Napanee, Ontario",K7R 4B2,Canada,Telephone: 613-354-2255,info@alcdsb.on.ca
Algonquin Lakeshore Catholic District School Board,161 Bridge Street West,"Belleville, Ontario",K8P 1K2,Canada,Telephone: 613-544-3361, 
Alliance for South Asian AIDs Prevention,"120 Carlton Street, Unit 315","Toronto, Ontario",M5A 4K3,Canada,Telephone: 416-420-9577,settlementmanager@asaap.ca
Alliance for South Asian AIDs Prevention,315-120 Carlton Street,"Toronto, Ontario",M5A 4K3,Canada,Telephone: 416-420-9577,settlementmanager@asaap.ca
Altered Minds Inc.,400-259 Portage Avenue ,"Winnipeg, Manitoba",R3B 2A9,Canada,Telephone: 204-944-0133,information@entryprogram.ca
Archway Community Services Society,2420 Montrose Avenue,"Abbotsford, British Columbia",V2S 3S9,Canada,Telephone: 604-859-7681,hello@archway.ca
Assemblée communautaire fransaskoise (A.C.F.) Inc.,"29 11 Street East, 2nd floor","Prince Albert, Saskatchewan",S6V 0Z8,Canada, ,acf@fransaskois.sk.ca 
Assemblée communautaire fransaskoise (A.C.F.) Inc.,403 3rd Ave NW,"Moose Jaw, Saskatchewan",S6H 1K4,Canada,Telephone: 306-500-5304,acf@fransaskois.sk.ca 
Assiniboine Community College,1430 Victoria Avenue East,"Brandon, Manitoba",R7A 2A9,Canada,Telephone: 204-725-8744,esl@assiniboine.net
ASSIST Community Services Centre,2-810 Saddleback Road NW,"Edmonton, Alberta",T6J 4W4,Canada,Telephone: 780-429-3119, 
Association canadienne-française de l'Ontario - Conseil régional des Mille-Îles (ACFOMI),760 Highway 15,"Kingston, Ontario",K7I 0C3,Canada,Telephone: 613-546-7863,info@acfomi.org
Association des francophones de la région de York,90 Walton Drive  ,"Aurora, Ontario",L4G3K4,Canada,Telephone: 289-552-4297,info@afry.ca
Association des francophones du Nord-Ouest,"234, Van Norman Street","Thunder Bay, Ontario",P7A 4B8,Canada,Telephone: 888-248-1712, 
Association for New Canadians (ANC),118 Humphrey Road,"Labrador City, Newfoundland and Labrador",A2V 2L3,Canada,Telephone: 709-722-9680,settlement@nfld.net
Association for New Canadians (ANC),144 Military Road,"St. John's, Newfoundland and Labrador",A1C 2E6,Canada,Telephone: 709-722-9680,settlement@nfld.net
Association for New Canadians (ANC),28 Hardy Avenue,"Grand Falls-Windsor, Newfoundland and Labrador",A2A 2P8,Canada,Telephone: 709-722-9680,settlement@nfld.net
Association for New Canadians (ANC),32 Main Street,"Forteau, Newfoundland and Labrador",A0K 2P0,Canada,Telephone: 709-722-9680,settlement@nfld.net
Association for New Canadians (ANC),6 Hillcrest Road,"Happy Valley-Goose Bay, Newfoundland and Labrador",A0P 1E0,Canada,Telephone: 709-722-9680,settlement@nfld.net
Association for New Canadians (ANC),"9 Main Street, Suite 203","Corner Brook, Newfoundland and Labrador",A2H 1C2,Canada,Telephone: 709-722-9680,settlement@nfld.net
Association franco-yukonnaise,302 Strickland Street,"Whitehorse, Yukon",Y1A 2K1,Canada,Telephone: 867-668-2663, 
Atlantic Region Association of Immigrant Serving Agencies (ARAISA),2132B-6960 Mumford Road,"Halifax, Nova Scotia",B3L 4P1,Canada,Telephone: 902-431-3203,INFO@ARAISA.CA
Aurora College,4509 Franklin Avenue,"Yellowknife, Northwest Territories",X1A 2B9,Canada,Telephone: 867-920-3279,info@auroracollege.nt.ca
Aurora Family Therapy Centre Inc.,515 Portage Avenue  ,"Winnipeg, Manitoba",R3B 2E9,Canada,Telephone: 204-786-9251,aurora@uwinnipeg.ca
Back in Motion,110 - 7525 King George Highway,"Surrey, British Columbia",V3W 5A8,Canada,Telephone: Inquiries Line: 604-575-3800; Reception: 604-575-3800, 
Battlefords Immigration Resource Centre,761C 106th Street,"North Battleford, Saskatchewan",S9A 1V9,Canada,Telephone: 306-446-0622,immigration2@accesscomm.ca
Big Brothers Big Sisters of Peel,"71 West Drive, Unit 23","Brampton, Ontario",L6T 5E2,Canada,Telephone: 905-457-7288, 
Bilingual Economic Development Network of Newfoundland and Labrador,"65 Ridge Road, Unit 245","St. John's, Newfoundland and Labrador",A1B 4P5,Canada,Telephone: 709-726-5976,info@rdeetnl.ca
Black Coalition for AIDS Prevention,"20 Victoria Street, 4th Floor","Toronto, Ontario",M5C 2N8,Canada,Telephone: 416-977-9955, 
Board of Education of School District No 43,1195 Lansdowne Drive,"Coquitlam, British Columbia",V3B 7Y8,Canada,Telephone: 604-937-8054, 
Board of Education of School District No 43,1600 King Albert Ave,"Coquitlam, British Columbia",V3J 1Y5,Canada,Telephone: 604-936-4201, 
Board of Education of School District No 43,3000 Pinewood Avenue,"Coquitlam, British Columbia",V3B 7Y7,Canada,Telephone: 604-464-2513, 
Board of Education of School District No 43,380 Montgomery Street,"Coquitlam, British Columbia",V3K 5G2,Canada,Telephone: 604-936-4261, 
Board of Governors of Red River College,339 River Road,"Arborg, Manitoba",R0C 0A0,Canada,Telephone: 204-793-1104,kbedard106@rrc.ca
Board of Governors of Red River College,430 Third Street,"Steinbach, Manitoba",R5G0K5,Canada,Telephone: 204-793-1104,steinbach-ltc@rrc.ca
Board of Governors of Red River College,"436 7 St E, The Pas","Thompson, Manitoba",R9A 1T4,Canada,Telephone: 204-793-1104,thompsonLTC@rrc.ca
Board of Governors of Red River College,C212-2055 Notre Dame Avenue ,"Winnipeg, Manitoba",R3H 0J9,Canada,Telephone: 204-632-2288,cle@rrc.ca
Bow Valley College,121 - 104 1st Avenue North West,"Calgary, Alberta",T4B 0R2,Canada,Telephone: 403-355-1910,bvcairdrie@bowvalleycollege.ca
Bow Valley College,229 Bear Street,"Calgary, Alberta",T1L 1A9,Canada,Telephone: 403-760-2485, 
Bow Valley College,2nd Floor 710 Centre Street SE ,"Calgary, Alberta",T1V 0H3,Canada,Telephone: 403-441-2399, 
Bow Valley College,335 - 6th Avenue South East,"Calgary, Alberta",T2G 4S6,Canada,Telephone: 403-410-3413,info@bowvalleycollege.ca
Boys & Girls Club of Moncton,15 Everett Street,"Moncton, New Brunswick",E1C 3Z6,Canada,Telephone: 506-858-0949, 
Boys and Girls Clubs Big Brothers & Big Sisters Society of Edmonton & Area,9425 109A Avenue NW,"Edmonton, Alberta",T5H 1G1,Canada,Telephone: 780-424-8181, 
Boys and Girls Clubs of Calgary,731 13th Avenue NE,"Calgary, Alberta",T2E 1C8,Canada,Telephone: 403-276-9981,info@bgcc.ab.ca
Bradford Immigrant & Community Services,"11 Holland Street East, PO Box 1564","Bradford, Ontario",L3Z 2B8,Canada,Telephone: 905-775-3343,inquiries@bradfordimmigrant.ca
Brampton Multicultural Community Centre,"197 County Court Boulevard, Suite 303","Brampton, Ontario",L6W 4P6,Canada,Telephone: 905-790-8482, 
Brampton Multicultural Community Centre,"4120 Ridgeway Drive, Unit 43","Mississauga, Ontario",L5L 5S9,Canada,Telephone: 905-790-8482, 
Brampton Multicultural Community Centre,"Civic Centre, 150 Central Park Drive, Suite 107","Brampton, Ontario",L6T 2T9,Canada,Telephone: 905-790-8482, 
Bredin Centre for Career Advancement Bredin Institute,"500, 9707 110 Street NW","Edmonton, Alberta",T5K 2L9,Canada,Telephone: 780-425-3730, 
Bredin Centre for Learning,500 - 5010 43 Street ,"Red Deer, Alberta",T4N 6H2,Canada,Telephone: 780-425-3730, 
British Columbia Construction Association,405-655 Tyee Road  ,"Victoria, British Columbia",V9A 6X5,Canada,Telephone: 250-475-1077,chris.atchison@bccassn.com
Brooks and County Immigration Services (BCIS) - CCIS is Umbrella organization,Unit 2 - 500 Cassils Road E,"Brooks, Alberta",T1R 1M6,Canada,Telephone: 403-362-0235, 
Burnaby Neighbourhood House,"4460 Beresford St, Burnaby, BC","Vancouver, British Columbia",V5H 0B8,Canada,Telephone: 604-431-0400,info@burnabynh.ca
Caledon Community Services,18 King Street East,"Caledon, Ontario",L7E 1E8,Canada,Telephone: 905-584-9460,engage@ccs4u.org
Calgary Bridge Foundation for Youth - Country Hills Library,"5920 Macleod Trail SW, Suite 620","Calgary, Alberta",T3K 6E3,Canada,Telephone: 403-260-2600,ureddy@cbfy.ca
Calgary Bridge Foundation For Youth - Education Centre CBE,1221 8 Street SW,"Calgary, Alberta",T2R 0L4,Canada,Telephone: 403-230-7745, 
Calgary Bridge Foundation for Youth - Macleod Place 1,5920 Macleod Trail SW,"Calgary, Alberta",T2H 0K2,Canada,Telephone: 403-230-7745,ureddy@cbfy.ca
Calgary Bridge Foundation for Youth - St. John Reception,15 12 Street NW ,"Calgary, Alberta",T2N IY4,Canada,Telephone: 403-230-7745,ureddy@cbfy.ca
Calgary Bridge Foundation for Youth - Village Square Library,2623 56 Street NE ,"Calgary, Alberta",T1Y 6E7,Canada,Telephone: 403-260-2600,ureddy@cbfy.ca
Calgary Catholic Immigration Society,"2nd Floor, 609 Centre Street","High River, Alberta",T1V 1R7,Canada,Telephone: 403-362-0236, 
Calgary Catholic Immigration Society,Bay 2 – 500 Cassils Road East,"Brooks, Alberta",T1R 1M6,Canada,Telephone: 403-362-0404,info@bcisbrooks.ca
Calgary Catholic Immigration Society,"87 Elizabeth Street, Bay 2","Okotoks, Alberta",T1S 1B3,Canada,Telephone: 403-362-0235, 
Calgary Catholic Immigration Society (CCIS),"1111 11 Avenue SW, 5th Floor","Calgary, Alberta",T2R 0G5,Canada,Telephone: 403-262-2006,contact@ccisab.ca
Calgary Catholic Immigration Society (CCIS),501 400 Crowfoot Crescent NW,"Calgary, Alberta",T3G 5H6,Canada,Telephone: 587-391-3386, 
Calgary Catholic Immigration Society (CCIS) - High River Branch (FCIS),"2nd Floor, 9A 710 Centre Street SE","High River, Alberta",T1V 0H3,Canada,Telephone: 403-652-5325, 
Calgary Catholic Immigration Society (CCIS) - Okotoks Branch (FCIS),"Office 4, Bay 2 87 Elizabeth Street","Okotoks, Alberta",T1S 1B3,Canada,Telephone: 403-938-4699, 
Calgary Immigrant Women's Association (CIWA),"138 - 4th Avenue SE, Suite 200","Calgary, Alberta",T2G 4Z6,Canada,Telephone: 403-263-4414, 
Calgary Region Immigrant Employment Council,880 105 12 Avenue SE ,"Calgary, Alberta",T2G 1A1,Canada,Telephone: 587-894-7580, 
Camosun College,"3100 Foul Bay Road, Victoria, BC ","Victoria, British Columbia",V8P 5J2,Canada,Telephone: 250-370-4683,plant@camosun.bc.ca
"Canadian Centre for Language and Cultural Studies, Inc.",1921 Eglinton Avenue East 2nd floor,"Toronto, Ontario",M1L 2L6,Canada,Telephone: 416-755-0406, 
"Canadian Centre for Language and Cultural Studies, Inc.","5734 Yonge Street, 2nd Floor","Toronto, Ontario",M2M 4E7,Canada,Telephone: 416-223-6613, 
"Canadian Centre for Language and Cultural Studies, Inc.","635 Markham Street, 2nd Floor","Toronto, Ontario",M6G 2M1,Canada,Telephone: 416-588-3900, 
Canadian Centre for Victims of Torture,1527 Victoria Park Avenue East,"Toronto, Ontario",M1L 2T3,Canada,Telephone: 416-750-9600, 
Canadian Centre for Victims of Torture,"194 Jarvis Street, 12th Floor","Toronto, Ontario",M5B 2B7,Canada,Telephone: 416-363-1066, 
Canadian Centre for Victims of Torture,"2401 Eglinton Avenue East, Unit 310","Toronto, Ontario",M1K 2N8,Canada,Telephone: 416-750-3045, 
Canadian Mental Health Association ,1101 Nicholson Rd Unit 5,"Newmarket, Ontario",L3Y9C3,Canada,Telephone: 905-841-3977,yorkregion@cmha-yr.on.ca
Canadian Mothercraft Society,646 St.Clair Avenue West,"Toronto, Ontario",M6C 1A9,Canada,Telephone: 416-483-0511, 
Canadian Tourism Human Resource Council,4-71 Bank Street,"Ottawa, Ontario",K1P 5N2,Canada,Telephone: 613-231-6949,info@tourismhr.ca
Canadian Ukrainian Immigrant Aid Society,"2383 Bloor Street, 2nd Floor","Toronto, Ontario",M6S 1P6,Canada,Telephone: 416-767-4595,cuias@cuias.org
Canadian Ukrainian Immigrant Aid Society,"540 Finch Avenue West, Unit 131","Toronto, Ontario",M2R 1N7,Canada,Telephone: 416-225-0511,cuias@cuias.org
Canus Trading Ltd.,202 - 7337 137 St.  ,"Surrey, British Columbia",V3W 1A4,Canada,Telephone: 604-507-4150, 
Canus Trading Ltd.,202 - 7337 137th Street,"Surrey, British Columbia",V3W 1A6,Canada,Telephone: 604-507-4150, 
Canus Trading Ltd.,208 – 2525 Commercial Drive,"Vancouver, British Columbia",V5N 4C1,Canada,Telephone: 604-876-5756, 
Cape Breton Regional Library,50 Falmouth Street,"Sydney, Nova Scotia",B1P 6X9,Canada,Telephone: 902-562-3279,info@cbrl.ca
Capilano University: Pemberton Welcome Centre,7390A Cottonwood Street,"Pemberton, British Columbia",V0N 2L1,Canada,Telephone: 604-698-5960,info@welcomepemberton.ca
Capilano University: Squamish Welcome Centre,38027 Cleveland Ave.,"Squamish, British Columbia",V8B 0B8,Canada,Telephone: 604-567-2222, 
Capilano University: Sunshine Coast Welcoming Communities,5627 Inlet Avenue,"Sechelt, British Columbia",V0N 3A0,Canada,Telephone: 604-212-2716,info@welcoming-communities.ca
Capilano University: Whistler Welcome Centre,4329 Main Street,"Whistler, British Columbia",V8E 1B2,Canada,Telephone: 604-698-5960, 
Cariboo Chilcotin Partners for Literacy Society,"#100 – 475 Birch Avenue, P.O. Box 1067","100 Mile House, British Columbia",V0K2E0,Canada,Telephone: 250-395-0655, 
Cariboo Chilcotin Partners for Literacy Society,118 C 1st Ave North,"WILLIAMS LAKE, British Columbia",V2G1Y8,Canada,Telephone: 250-392-7833, 
Carizon Family and Community Services,400 Queen Street South,"Kitchener, Ontario",N2G 1W7,Canada,Telephone: 519-743-6333, 
Carlton Trail College,"611- 17th Street, Box 720 ","Humboldt, Saskatchewan",S0K 2A0,Canada,Telephone: 306-682-2623,information@carltontrailcollege.com
Carrefour Nunavut,"Bldg, 723, P.O. Box 909","Iqaluit, Nunavut",X0A0H0,Canada,Telephone: 867-979-2800,info@carrefournunavut.ca
Catholic Centre for Immigrants,"219 Argyle Avenue, Suite 500","Ottawa, Ontario",K2P 2H4,Canada,Telephone: 613-232-9634, 
Catholic Centre for Immigrants- Reception House,204 Boteler Street,"Ottawa, Ontario",K1N 5A7,Canada,Telephone: 613-232-9634, 
Catholic Community Services of York Region,1 Atkinson Street,"Richmond Hill, Ontario",L4C 0H5,Canada,Telephone: 1-877-761-1155,info@welcomecentre.ca
Catholic Community Services of York Region,"16655 Yonge Street, Unit 26","Markham, Ontario",L3X 1V6,Canada,Telephone: 1-877-761-1155,info@welcomecentre.ca
Catholic Community Services of York Region,21 Dunlop Street,"Richmond Hill, Ontario",L4C 2M6,Canada,Telephone: 905-770-7040,counselling@ccsyr.org
Catholic Community Services of York Region,320 Bloomington Road West,"Aurora, Ontario",L4G 0M1,Canada,Telephone: 1-877-761-1155,info@welcomecentre.ca
Catholic Community Services of York Region,475 Brownridge Drive,"Thornhill, Ontario",L4J 5Y6,Canada,Telephone: 1-877-761-1155,info@welcomecentre.ca
Catholic Community Services of York Region,"60 Wellington Street West, Box 40","Aurora, Ontario",L4G 2V3,Canada,Telephone: 1-877-761-1155,info@welcomecentre.ca
Catholic Community Services of York Region,7220 Kennedy Road,"Markham, Ontario",L3R 4N7,Canada,Telephone: 1-877-761-1155,info@welcomecentre.ca
Catholic Community Services of York Region,"8400 Woodbine Avenue, Suite 102-103","Markham, Ontario",L3R 4N7,Canada,Telephone: 1-877-761-1155,info@welcomecentre.ca
Catholic Community Services of York Region,9325 Yonge Street,"Richmond Hill, Ontario",L4C 0A8,Canada,Telephone: 1-877-761-1155,inp@ccsyr.org
Catholic Community Services of York Region,"Angus Glen Library, 3990 Major Mackenzie Drive East","Markham, Ontario",L6P 1P8,Canada,Telephone: 1-877-761-1155,info@welcomecentre.ca
Catholic Crosscultural Services,"1081 Progress Ave, Burrows Hall Library         ","Toronto, Ontario",M1B 5Z6,Canada,Telephone: 416-396-8742, 
Catholic Crosscultural Services,"1200 Markham Road, Suite 503","Toronto, Ontario",M1H 3C3,Canada,Telephone: 416-289-6766, 
Catholic Crosscultural Services,1477 Mississauga Valley Blvd,"Mississauga, Ontario",L5A 3Y4,Canada,Telephone: 905-232-7010, 
Catholic Crosscultural Services,164 Queen Street East,"Brampton, Ontario",L6V 1B4,Canada,Telephone: 905-457-7740, 
Catholic Crosscultural Services,"2206 Eglinton Avenue East, Suite 124","Toronto, Ontario",M1L 4S7,Canada,Telephone: 416-759-8800, 
Catholic Crosscultural Services,"3227 Eglinton Avenue East, Suite 135","Toronto, Ontario",M1J 3M5,Canada,Telephone: 416-266-7200, 
Catholic Crosscultural Services,"3660 Hurontario Street, 7th Floor","Mississauga, Ontario",L5B 3C4,Canada,Telephone: 905-273-4140, 
Catholic Crosscultural Services,"4557 Hurontario Street, Unit B11","Mississauga, Ontario",L4Z 3x3,Canada,Telephone: 905-272-1703, 
Catholic Crosscultural Services,"55 Town Centre Court, Suite 401","Toronto, Ontario",M1P 4X4,Canada,Telephone: 416-290-1700, 
Catholic Crosscultural Services,"ACCES Brampton, 44 Peel Centre Dr., Suite 201       ","Brampton, Ontario",L6T 4B5,Canada,Telephone: 905-454-2316, 
Catholic Crosscultural Services,"ACCES Mississauga, 151 City Centre Dr., Suite 600       ","Mississauga, Ontario",L5B 1M8,Canada,Telephone: 905-361-2522, 
Catholic Crosscultural Services,"Agincourt District Library, 155 Bonis Avenue        ","Toronto, Ontario",M1T 3W6,Canada,Telephone: 416-396-8943, 
Catholic Crosscultural Services,"Albert Campbell Library, 496 Birchmount Rd        ","Toronto, Ontario",M1K1N8,Canada,Telephone: 416-396-8911, 
Catholic Crosscultural Services,"Cedarbrea Library, 545 Markham Rd        ","Toronto, Ontario",M1H 2A2,Canada,Telephone: 416-396-8867, 
Catholic Crosscultural Services,"Dr. Roz's Healing Place Shelter, 21 Brimley Road        ","Toronto, Ontario",M1M 1H3,Canada,Telephone: 416-264-0823, 
Catholic Crosscultural Services,East Scarborough Storefront 4040 Lawrence Ave East        ,"Toronto, Ontario",M1E 2R5,Canada,Telephone: 416-208-4421, 
Catholic Crosscultural Services,"Goldhawk Park Library, 295 Alton Tower        ","Toronto, Ontario",M1V 4P1,Canada,Telephone: 416-396-8965, 
Catholic Crosscultural Services,"Maryvale Library, 85 Ellesmere Rd, Unit 16        ","Toronto, Ontario",M1R 4B9,Canada,Telephone: 416-396-8931, 
Catholic Crosscultural Services,"Newcomer Information Centre Brampton East, 263 Queen St E Suite 14      ","Brampton, Ontario",L6W 4K6,Canada,Telephone: 905-595-0722, 
Catholic Crosscultural Services,"Newcomer Information Centre Brampton South, 7700 Hurontario St Suite 100      ","Brampton, Ontario",L6Y 4M3,Canada,Telephone: 905-457-4747, 
Catholic Crosscultural Services,"Newcomer Information Centre Malton, 7420 Airport Rd Unit 104       ","Mississauga, Ontario",L4T 4E5,Canada,Telephone: 905-677-0007, 
Catholic Crosscultural Services,"Newcomer Information Centre, 50 Burhamthorpe Rd W Suite 300       ","Mississauga, Ontario",L5B 3C2,Canada,Telephone: 905-949-0049, 
Catholic Crosscultural Services,"Ontario Early Years Centre (OEYC), 4218 Lawrence Ave E        ","Toronto, Ontario",M1E 4X9,Canada,Telephone: 416-282-7284, 
Catholic Crosscultural Services,SCoP 60 West Drive        ,"Brampton, Ontario",L6T 3T6,Canada,Telephone: 905-450-4650, 
Catholic Crosscultural Services,"Woodside Square Library, 1571 Sandhurst Circle        ","Toronto, Ontario",M1V 1V2,Canada,Telephone: 416-396-8980, 
Catholic Social Services Edmonton,8212 118 Avenue NW,"Edmonton, Alberta",T5B 0S3,Canada,Telephone: 780-424-3545, 
Catholic Social Services Lloydminster,6612 - 35 Street,"Lloydminster, Alberta",T9V 0H9,Canada,Telephone: 780-875-9084,shauna.godin@cssalberta.ca
Catholic Social Services Red Deer,"5000 Gaetz Avenue, Suite 202","Red Deer, Alberta",T4N 6C2,Canada,Telephone: 403-346-8818, 
Central Alberta Immigrant Women's Association (CAIWA),#1-4910 45th Street  ,"Red Deer, Alberta",T4N 1K6,Canada,Telephone: 403-341-3553, 
Central Alberta Refugee Effort (CARE) Committee,"5000 Gaetz Avenue, Suite 202","Red Deer, Alberta",T4N 6C2,Canada,Telephone: 403-346-8818 ext. 228, 
Central Vancouver Island Multicultural Society,"101, 319 Selby Street","Nanaimo, British Columbia",V9R 2R4,Canada,Telephone: 250-753-6911, 
Centre Communautaire Francophone Windsor-Essex-Kent,1775 Totten Street,"Windsor, Ontario",N9B 1X4,Canada,Telephone: 519-948-5545, 
Centre Communautaire Francophone Windsor-Essex-Kent,1799 Ottawa Street,"Windsor, Ontario",N8Y 1R4,Canada,Telephone: 519-948-5545, 
Centre Communautaire Francophone Windsor-Essex-Kent,2520 CabanaWest,"Windsor, Ontario",N8X 1E4,Canada,Telephone: 519-948-5545, 
Centre Communautaire Francophone Windsor-Essex-Kent,2716 route 42,"St.Joachim, Ontario",N0R 1S0,Canada,Telephone: 519-948-5545, 
Centre Communautaire Francophone Windsor-Essex-Kent,395 Tecumseh Road West,"Windsor, Ontario",N8X 1X4,Canada,Telephone: 519-948-5545, 
Centre Communautaire Francophone Windsor-Essex-Kent,5305 Tecumseh Road East,"Windsor, Ontario",N8T 1C5,Canada,Telephone: 519-948-5545, 
Centre Communautaire Francophone Windsor-Essex-Kent,6200 Edgar Street,"Windsor, Ontario",N8S 2A6,Canada,Telephone: 519-948-5545, 
Centre Communautaire Francophone Windsor-Essex-Kent,633 Ouellette Avenue,"Windsor, Ontario",N9E 1A5,Canada,Telephone: 519-948-5545, 
Centre Communautaire Francophone Windsor-Essex-Kent,890 Walker Road,"Windsor, Ontario",N8Y 2N5,Canada,Telephone: 519-948-5545, 
Centre communautaire régional de London,"920, rue Huron","London, Ontario",N5Y4K4,Canada,Telephone: 519-673-1977, 
Centre communautaire Sainte-Anne (CCSA),715 Priestman Street,"Fredericton, New Brunswick",E3B 5W7,Canada,Telephone: 506-453-2731,info@ccsafredericton.ca
Centre d'Accueil pour Nouveaux Arrivants Francophones de Calgary - CANAF,"9909 102 Street, Suite 100","Grand Prairie, Alberta",T8V 2VA,Canada,Telephone: 780-760-5300 or 1-855-512-2623,info@canaf.ca
Centre d'Accueil pour Nouveaux Arrivants Francophones de Calgary - CANAF,,"Lethbridge, Alberta",Canada,Canada,Telephone: 403-532-6334 or 1-855-512-2623,info@canaf.ca
Centre d'Accueil pour Nouveaux Arrivants Francophones de Calgary - CANAF,,"Medicine Hat, Alberta",Canada,Canada,Telephone: 403-532-6334 or 1-855-512-2623,info@canaf.ca
Centre d'Accueil pour Nouveaux Arrivants Francophones de Calgary - CANAF,,"Brooks, Alberta",Canada,Canada,Telephone: 403-532-6334 or 1-855-512-2623,info@canaf.ca
Centre d'Accueil pour Nouveaux Arrivants Francophones de Calgary - CANAF,110-5017 49th Street ,"Red Deer, Alberta",T4N 1V4,Canada,Telephone: 403-532-6334 or 1-855-512-2623,info@canaf.ca
Centre de Santé Communautaire du Grand Sudbury,"19, Frood Road","Sudbury, Ontario",P3C 4Y0,Canada,Telephone: 705-670-2274, 
Centre de santé communautaire Hamilton/Niagara,1320 Barton Street East,"Hamilton, Ontario",L8H 2W1,Canada,Telephone: 905-528-0163, 
Centre de santé communautaire Hamilton/Niagara,810 Main Street East,"Welland, Ontario",L3B 3Y4,Canada,Telephone: 905-734-1141, 
Centre for Addiction and Mental Health,100 Stokes Street ,"Toronto, Ontario",M6J 1H4,Canada,Telephone: 416-535-8501,info@camh.ca
Centre For Addiction and Mental Health,100 Stokes Street 4th Floor,"Toronto, Ontario",M6J 1H4,Canada,Telephone: 416-535-8501, 
Centre for Canadian Language Benchmarks,294 Albert Street  Suite 400  ,"Ottawa, Ontario",K1P6E6,Canada,Telephone: 613-230-7729,cpepin@language.ca
Centre for Immigrant and Community Services,7220 Kennedy Road,"Markham, Ontario",L3R 7P2,Canada,Telephone: 416-292-7510,info@cicscanada.com
Centre for Immigrant and Community Services ,"1571 Sandhurst Circle, Unit 202","Toronto, Ontario",M1V 1V2,Canada,Telephone: 416-293-4565, 
Centre for Immigrant and Community Services ,1761 Sheppard Avenue East,"Toronto, Ontario",M2J 0A5,Canada,Telephone: 416-292-7510, 
Centre for Immigrant and Community Services ,2330 Midland Avenue,"Toronto, Ontario",M1S 5G5,Canada,Telephone: 416-292-7510, 
Centre for Immigrant and Community Services ,2900 Warden Avenue,"Toronto, Ontario",M1W 2S8,Canada,Telephone: 416-316-3803, 
Centre for Immigrant and Community Services ,"3850 Finch Avenue, Suite 403","Toronto, Ontario",M1T 3T6,Canada,Telephone: 416-293-4565, 
Centre for Immigrant and Community Services ,"4002 Sheppard Avenue East, Suite 501","Toronto, Ontario",M1S 4R5,Canada,Telephone: 416-299-8118, 
Centre for Immigrant and Community Services ,"5284 Highway 7 East, Unit 2","Markham, Ontario",L3P 1B9,Canada,Telephone: 905-294-8868, 
Centre for Immigrant and Community Services ,"7220 Kennedy Road, Unit 8","Markham, Ontario",L3R 7P2,Canada,Telephone: 905-479-7926, 
Centre for Immigrant and Community Services - Fairview Library,35 Fairview Mall Drive,"Toronto, Ontario",M2J 4S4,Canada,Telephone: 416-292-7510,info@cicscanada.com
Centre for Newcomers Society of Calgary,"1010-999, 36 Street NE","Calgary, Alberta",T2A 7X6,Canada,Telephone: 403-569-3325, 
Centre for Newcomers Society of Calgary (formerly Calgary Mennonite Centre for Newcomers),"1010-999, 36 Street NE","Calgary, Alberta",T2A 7X6,Canada,Telephone: 403-569-3325, 
Centre Francophone du Grand Toronto ,20 Lower Spadina,"Toronto, Ontario",M5V 2Z1,Canada,Telephone: 416-203-1220, 
Centre Francophone du Grand Toronto ,27 Tapscott Road,"Toronto, Ontario",M1B 4Y7,Canada,Telephone: 416-922-2672, 
Centre Francophone du Grand Toronto ,4040 Lawrence Avenue East,"Scarborough, Ontario",M1E 2R6,Canada,Telephone: 416-922-2672, 
Centre Francophone du Grand Toronto ,"555 Richmond Street West, Suite 303","Toronto, Ontario",M5V 3B1,Canada,Telephone: 416-922-2672, 
Centre Francophone du Grand Toronto ,6464 Yonge Street,"North York, Ontario",M2M 3X4,Canada,Telephone: 416-221-4442, 
Centre Francophone du Grand Toronto ,7585 Financial Drive,"Brampton, Ontario",L6Y 5P4,Canada,Telephone: 905-450-1106, 
Centre Francophone du Grand Toronto (Ecole secondaire College francais),100 Carlton Street,"Toronto, Ontario",M5B 1M3,Canada,Telephone: 416-922-2672, 
Centre Francophone du Grand Toronto (Ecole secondaire College francais),110 Drewry Avenue,"Toronto, Ontario",M2M 1C8,Canada,Telephone: 416-922-2672, 
Centre Francophone du Grand Toronto (Ecole secondaire College francais),300 Banbury Street,"Toronto, Ontario",M2L 2V3,Canada,Telephone: 416-922-2672, 
Centre Francophone du Grand Toronto (Ecole secondaire College francais),330 Lansdowne Avenue,"Toronto, Ontario",M6H 3Y1,Canada,Telephone: 416-922-2672, 
Centre Francophone du Grand Toronto (Mississauga),"3660 Hurontario Street, Suite 601","Mississauga, Ontario",L5B 3C4,Canada,Telephone: 437-317-5648, 
Cercle Canadiens Francais de PG,"1752 Fir Street, Prince George ","Prince George, British Columbia",V2L 1E7,Canada,Telephone: 250-561-2565,directionccfpg@gmail.com
Chilliwack Community Services,45938 Wellington Avenue,"Chilliwack, British Columbia",V2P 2C7,Canada,Telephone: 604-792-4267, 
Chimo Community Services,120-7000 Minoru Boulevard,"Richmond, British Columbia",V6Y3Z5,Canada,Telephone: 604-279-7077, 
Chinese Association of Mississauga,"1177 Central Parkway West, Unit 16","Mississauga, Ontario",L5C 4P3,Canada,Telephone: 905-275-8558, 
Church of the Epiphany,85 Larch Street,"Sudbury, Ontario",P3E 1B8,Canada,Telephone: 705-675-8405, 
Circle of Friends for Newcomers,155 Queen Street North,"Hamilton, Ontario",L8R 2V6,Canada,Telephone: 905-529-1840, 
Collège Boréal,"1 Yonge Street, Suite 300","Toronto, Ontario",M5E 1E5,Canada,Telephone: 416-289-5130 ext. 512, 
Collège Boréal,"120 King Street West, Plaza level","Hamilton, Ontario",L8P 4V2,Canada,Telephone: 905-544-9824, 
Collège Boréal,161 King Street West,"Chatham, Ontario",N7M 1E4,Canada,Telephone: 519-948-6019,info@collegeboreal.ca
Collège Boréal,"21, Lasalle Boulevard","Sudbury, Ontario",P3A 6B1,Canada,Telephone: 705-560-6673,info@collegeboreal.ca
Collège Boréal,41-660 Oakdale Avenue,"Sarnia, Ontario",N7V 2A9,Canada,Telephone: 519-383-7782,info@collegeboreal.ca
Collège Boréal,"633 Ouellette Avenue, Suite 300","Windsor, Ontario",N9A 4J4,Canada,Telephone: 519-253-1525,info@collegeboreal.ca
Collège Boréal,7515 Forest Glade Dr.,"Windsor, Ontario",N8T 3P5,Canada,Telephone: 519-948-6019,info@collegeboreal.ca
Collège Boréal,"Galleria Mall, Unit 279, 355 Wellington Road","London, Ontario",N6A 3N7,Canada,Telephone: 519-451-5194,info@collegeboreal.ca
Collège Boréal (PEEL),"50 Burnhamthorpe Road West, Office 300","Mississauga, Ontario",L5B 3C2,Canada,Telephone: 905-306-1562, 
Collège Boréal (Timmins),330 Second Ave -Suite 104,"Timmins, Ontario",P4N 8a4,Canada,Telephone: 705-268-3800, 
Collège Boréal (Timmins),395 Theriault Blvd,"Timmins, Ontario",P4N 5B6,Canada,Telephone: 705-267-5850, 
Collège communautaire du Nouveau-Brunswick - Campus de Bathurst (CCNB),725 College Road PO Box 266,"Bathurst, New Brunswick",E2A 3Z2,Canada,Telephone: 506-547-2145,bathurst@ccnb.ca
Collège Éducacentre College,301-7380 King George Blvd,"Surrey, British Columbia",V3W 5A5,Canada,Telephone: 778-565-6690, 
Collège Éducacentre College,842 Thurlow Street,"Vancouver, British Columbia",V6E 1W2,Canada,Telephone: 604-708-5100, 
Collège Mathieu ,201-308 4th Avenue North ,"Saskatoon, Saskatchewan",S7K 2L7,Canada,Telephone: 306-384-2722,education.saskatoon@collegemathieu.sk.ca
Collège Mathieu ,3304 Dewdney Avenue ,"Regina , Saskatchewan",S4T 7V1,Canada,Telephone: 306-565-3525,education.saskatoon@collegemathieu.sk.ca
College Nordique Francophone,"4921 49th Street, 2nd floor, P.O. Box 986","Yellowknife, Northwest Territories",X1A 2N7,Canada,Telephone: 867-920-7027,info@college-nordique.com
Colleges and Institutes Canada,701-1 Rideau St  ,"Ottawa, Ontario",K1N 8S7,Canada,Telephone: 613-746-2222,HSkelton@collegesinstitutes.ca
Colleges Ontario,130 Queens Quay East  ,"Toronto, Ontario",M5A 0P6,Canada,Telephone: 647-258-7693, 
Collingwood Neighbourhood House,5288 Joyce Street,"Vancouver, British Columbia",V1N 3K3,Canada,Telephone: 604-435-0323, 
Columbia Basin Alliance for Literacy,#203 421 9th Ave. N,"Golden, British Columbia",V0A 1H0,Canada,Telephone: 250-344-8392,info@cbal.org
Columbia Basin Alliance for Literacy,1160 Cedar Avenue,"Trail, British Columbia",V1R 4B7,Canada,Telephone: 250-368-6770,info@cbal.org
Columbia Basin Alliance for Literacy,19A 9th Avenue South,"Castlegar, British Columbia",V1C 2L8,Canada,Telephone: 250-581-2112,info@cbal.org
Columbia Basin Alliance for Literacy,370 B Wallinger Ave,"Kimberley, British Columbia",V1A 1S1,Canada,Telephone: 250-427-6027,info@cbal.org
Columbia Basin Alliance for Literacy,44 Mt. Washburn Street,"Fernie, British Columbia",V0B 1G0,Canada,Telephone: 250-946-6474,info@cbal.org
Columbia Basin Alliance for Literacy,486 72nd Avenue,"Grand Forks (Boundary region), British Columbia",V0H 1H5,Canada,Telephone: 250-442-2704 ext. 229,info@cbal.org
Columbia Basin Alliance for Literacy,521 4th Avenue,"Creston, British Columbia",V0B 1G0,Canada,Telephone: 250-946-6474,info@cbal.org
Columbia Basin Alliance for Literacy,5-223 16th Avenue North,"Cranbrook, British Columbia",V0B 1G5,Canada,Telephone: 250-402-9448,info@cbal.org
Columbia Basin Alliance for Literacy,608 Lake street,"Nelson, British Columbia",V1L 4C8,Canada,Telephone: 250-551-5498,info@cbal.org
Columbia Basin Alliance for Literacy,712B 10th Street,"Invermere, British Columbia",V0A 1K4,Canada,Telephone: 250-341-7188,info@cbal.org
Columbia Basin Alliance for Literacy,98 6th Avenue ,"Nakusp, British Columbia",V0G 1R0,Canada,Telephone: 250-265-3736, 
Columbia College,802 Manning Road North East,"Calgary, Alberta",T2E 7N8,Canada,Telephone: 403-235-9300,columbia@columbia.ab.ca
Communauté francophone accueillante de Clare - Municipalité de Clare,1185 Highway 1,"Little Brook, Nova Scotia",B0W 1M0,Canada,Telephone: 902-769-2031, 
Community Development Council Durham,458 Fairall Street,"Ajax, Ontario",L1S 1R6,Canada,Telephone: 905-686-2661,info@cdcd.org
Community Development Council Durham (Durham Catholic District School Board),650 Rossland Rd West ,"Oahawa, Ontario",L1J 7C4,Canada,Telephone: 905-686-2661,info@cdcd.org
Community Development Council Durham (Durham District School Board),400 Taunton Road E,"Whitby, Ontario",L1R 2K6,Canada,Telephone: 905-686-2661,info@cdcd.org
Community Development Council Durham (E A Lowell School),120 Centre Street South,"Oshawa, Ontario",L1H 4A3,Canada,Telephone: 905-440-4489,info@cdcd.org
Community Development Council Durham (Gifford Centre),1003 Gifford Street,"Whitby, Ontario",L1N 2S3,Canada,Telephone: 905-666-1255,info@cdcd.org
Community Development Council Durham (Welcome Centre Immigrant Services),1400 Bayly Avenue ,"Pickering, Ontario",L1W 3R2,Canada,Telephone: 905-686-2661,info@cdcd.org
Community Futures North Central Development,P.O. Box 1208   ,"Thompson, Manitoba",R8N 1P1,Canada,Telephone: 204-677-1490,tdj@northcentraldevelopment.ca
Compas - Fédération des francophones de Terre-Neuve et du Labrador (FFTNL),"95 avenue Bonaventure Avenue, suite 101","St. John's, Newfoundland and Labrador",A1B 4P5,Canada,Telephone: 709-800-6590,Compas@fftnl.ca
Conestoga College,"145 Lincoln Road, 2nd Floor","Waterloo, Ontario",N2L 4C7,Canada,Telephone: 519-886-6749, 
Conestoga College,"150 Main Street, 1st Floor","Cambridge, Ontario",N1R 6P9,Canada,Telephone: 519-740-8797, 
Conestoga College,299 Doon Valley Drive,"Kitchener, Ontario",N2G 4M4,Canada,Telephone: 519-748-5220, 
Conestoga College,"800 King Street West, 3rd Floor","Kitchener, Ontario",N2G 1E8,Canada,Telephone: 519-886-3300, 
Confederation Court Community House,2483-A Walkley Road,"Ottawa, Ontario",K1G 3H2,Canada,Telephone: 613-521-6807, 
Connecture Canada,"1030 KAMATO ROAD , SUITE 201  ","Mississauga, Ontario",L4W 4B6,Canada,Telephone: 905-366-1021, 
Conseil de dévelopment économique de l'Alberta,Unit 140 - 8627 91 Street,"Edmonton, Alberta",T6C 3N1,Canada,Telephone: 780-414-6125,Edmonton@lecdea.ca
Conseil de développement des municipalites bilingue de Manitoba,200 - 614 Des Meurons St,"Winnipeg , Manitoba",R2H 2P9,Canada,Telephone: 204-925-2320,cdem@cdem.com
Conseil de developpement economique des Territoires du Nord-Ouest,"5204, 50th Avenue, suite 102","Yellowknife, Northwest Territories",X1A 1E2,Canada,Telephone: 867-873-5962, 
Conseil des organismes francophones de la région de Durham,4101 Baldwin Street South,"Whitby, Ontario",L1R 2W6,Canada,Telephone: 905-434-7676,cbazinet@cofrd.org
Conseil des organismes francophones de la région de Durham,"57 Simcoe Street South, Suite 2D","Oshawa, Ontario",L1H 4G4,Canada,Telephone: 905-434-7676,cbazinet@cofrd.org
Conseil Économique du Nouveau-Brunswick Inc.,"236 St. George Street, Suite 314","Moncton, New Brunswick",E1C 1W1,Canada,Telephone: 506-857-3143,cenb@cenb.com
Conseil Économique et Coopératif de la Saskatchewan (CÉCS) formerly known as  Conseil de la Coopération de la Saskatchewan,#205 - 1440 9th Avenue N,"Regina, Saskatchewan",S4R 8B1,Canada,Telephone: 306-566-6001, 
Conseil Économique et Coopératif de la Saskatchewan (CÉCS) formerly known as  Conseil de la Coopération de la Saskatchewan,102-308 4th Ave North,"Saskatoon, Saskatchewan",S7K 2L7,Canada,Telephone: 306-244-4916, 
Conseil jeunesse provincial inc.,(234-236) 340 Provencher Boulevard,"Winnipeg, Manitoba",R2H 0G7,Canada,Telephone: 204-237-8947,direction@conseil-jeunesse.mb.ca
Conseil pour le développement de l'alphabétisme et des compétences des adultes du Nouveau-Brunswick (CODAC NB),"236 Saint-George Street, Suite 425","Moncton, New Brunswick",E1C 1W1,Canada,Telephone: 866-473-4404, 
Conseil scolaire catholique MonAvenir,110 Drewry Avenue,"Toronto, Ontario",M2M 1C8,Canada,Telephone: 416-397-6564, 
Conseil scolaire catholique MonAvenir,1780 Meadowvale Boulevard,"Mississauga, Ontario",L5N 7L4,Canada,Telephone: 905-820-7460,info@cdcd.org
"Conseil scolaire francophone de la Colombie-Britannique, École Anne-Hébert",7051 Killarney St,"Vancouver, British Columbia",V5S 2Y5,Canada,Telephone: 604-437-4849, 
"Conseil scolaire francophone de la Colombie-Britannique, École des Colibris",590 W 65th Avenue,"Vancouver, British Columbia",V6P 2P8,Canada,Telephone: 604-214-2710, 
"Conseil scolaire francophone de la Colombie-Britannique, École des Navigateurs",8580 Kilgour place,"Richmond, British Columbia",V7C 3R1,Canada,Telephone: 604-295-4056, 
"Conseil scolaire francophone de la Colombie-Britannique, École des Pionniers-de-Maillardville",1618 Patricia Avenue,"Port Coquitlam, British Columbia",V3B 4A8,Canada,Telephone: 604-552-7915, 
"Conseil scolaire francophone de la Colombie-Britannique, École Gabrielle-Roy",6887 132 street,"Surrey, British Columbia",V3W 4L9,Canada,Telephone: 604-599-6688, 
"Conseil scolaire francophone de la Colombie-Britannique, École Jules-Verne ",5445 Baillie street,"Vancouver, British Columbia",V5Z 3M6,Canada,Telephone: 604-731-8378,patricia_garvey@csf.bc.ca
"Conseil scolaire francophone de la Colombie-Britannique, École Rose-des-vents",380 West Kings Rd,"North Vancouver, British Columbia",V7N 2L9,Canada,Telephone: 604-980-6040,patricia_garvey@csf.bc.ca
Coopération Intégration Canada Inc,404 MacArthur Ave,"Ottawa, Ontario",K1K 1G8,Canada,Telephone: 613-805-3437,info@cican.ca
COSTI Immigrant Services,"10 Gillingham Drive, Suite 300","Brampton, Ontario",L6X 5A5,Canada,Telephone: 905-459-3584,info@costi.org
COSTI Immigrant Services,100 Lippincott Street,"Toronto, Ontario",M5S 2P1,Canada,Telephone: 647-827-1429,info@costi.org
COSTI Immigrant Services,"16655 Yonge Street, Unit 26","Newmarket, Ontario",L3X 1V6,Canada,Telephone: 1-877-761-1155,info@welcomecentre.ca
COSTI Immigrant Services,"1700 Wilson Avenue, Suite 206","Toronto, Ontario",M3L 1A3,Canada,Telephone: 647-827-1292,info@costi.org
COSTI Immigrant Services,1710 Dufferin Street,"Toronto, Ontario",M6E 3P2,Canada,Telephone: 416-658-1600,info@costi.org
COSTI Immigrant Services,"227 Vodden Street East, Unit 3","Brampton, Ontario",L6V 1N2,Canada,Telephone: 905-459-6700,info@costi.org
COSTI Immigrant Services,"6750 Winston Churchill Blvd, Unit A","Brampton, Ontario",L5N 4C4,Canada,Telephone: 905-567-0482,info@costi.org
COSTI Immigrant Services,7220 Kennedy Road,"Markham, Ontario",L3R 7P2,Canada,Telephone: 1-877-761-1155,info@welcomecentre.ca
COSTI Immigrant Services,760 College Street,"Toronto, Ontario",M6G 4A7,Canada,Telephone: 416-534-7400,info@costi.org
COSTI Immigrant Services,"9100 Jane Street, Building H","Vaughan, Ontario",L4K OA4,Canada,Telephone: 1-877-761-1155,info@welcomecentre.ca
COSTI Immigrant Services,9325 Yonge Street,"Richmond Hill, Ontario",L4C 0A8,Canada,Telephone: 1-877-761-1155,info@welcomecentre.ca
County of Wellington,321 St. Andrew Street West,"Fergus, Ontario",L8E 1G7,Canada,Telephone: 519-837-2670 ext. 4819, 
Cowichan Valley Intercultural and Immigrant Aid Society,205 - 394 Duncan Street,"Duncan, British Columbia",V9L 3W4,Canada,Telephone: 250-748-3112, 
Cultural Chats BC Association,"6670 Stanley Street, Burnaby, BC","Burnaby, British Columbia",V5E 1T8,Canada,Telephone: 604-600-9846,culturechats@gmail.com
CultureLink (Alexander Muir/Gladstone Junior and Senior Public School),108 Gladstone Ave.,"Toronto, Ontario",M6J 3L2,Canada,Telephone: 416-393-9140, 
Culturelink (Archbishop Romero Catholic Secondary School),99 Humber Blvd,"Toronto, Ontario",M6N 2H4,Canada,Telephone: 416-393-5555, 
Culturelink (Bishop Marrocco/Thomas Merton Catholic Secondary School),1515 Bloor Street West,"Toronto, Ontario",M6P 1A3,Canada,Telephone: 416-393-5545, 
Culturelink (Bloor Collegiate Institute),1141 Bloor Street West,"Toronto, Ontario",M6H 1M9,Canada,Telephone: 416-393-1420, 
CultureLink (Brock Junior Public School),388 Brock Ave.,"Toronto, Ontario",M6H3N3,Canada,Telephone: 416-393-9245, 
Culturelink (Central Technical School),725 Bathurst Street,"Toronto, Ontario",M5S 2R5,Canada,Telephone: 416-393-0060, 
Culturelink (Central Toronto Academy),570 Shaw Street,"Toronto, Ontario",M6G 3L6,Canada,Telephone: 416-393-0030, 
Culturelink (Charles G Fraser Junior Public School),79 Manning Avenue,"Toronto, Ontario",M6J 2K6,Canada,Telephone: 416-393-1830, 
Culturelink (Church Street Junior Public School),83 Alexander Street,"Toronto, Ontario",M4Y 1B7,Canada,Telephone: 416-393-1250, 
Culturelink (City Hall),100 Queen St W,"Toronto, Ontario",M5H 2N2,Canada,Telephone: 416-392-2489, 
CultureLink (COSTI/ Ralph Chiodo Family Immigrant Reception Centre),100 Lippincott St. ,"Toronto, Ontario",M5S 2P1,Canada,Telephone: 416-922-6688, 
CultureLink (Culturelink),2340 Dundas Street West ,"Toronto, Ontario",M6P 4A9,Canada,Telephone: 416-588-6288, 
CultureLink (David Hornell Junior School),32 Victoria St.,"Toronto, Ontario",M8V 1M6,Canada,Telephone: 416-394-7690, 
CultureLink (Dundas Junior Public School),935 Dundas St. E,"Toronto, Ontario",M4M 1R4,Canada,Telephone: 416-393-9565, 
Culturelink (Eatonville Library),430 Burnhamthorpe Road,"Toronto, Ontario",M9B 2B1,Canada,Telephone: 416-394-5270, 
CultureLink (Etienne Brule Junior School),50 Cloverhill Rd.,"Toronto, Ontario",M8Y 1T3,Canada,Telephone: 416-394-7850, 
Culturelink (Harbord Collegiate Institute,286 Harbord  Street,"Toronto, Ontario",M6G 1G5,Canada,Telephone: 416-393-1650, 
CultureLink (Holy Family/St.Josaphat),141 Close Ave. ,"Toronto, Ontario",M6K 2V6,Canada,Telephone: 416-393-5212, 
Culturelink (Housing Connections),176 Elm Street,"Toronto, Ontario",M5T 3M4,Canada,Telephone: 416-397-7400, 
CultureLink (Huron St Public School),541 Huron St. ,"Toronto, Ontario",M5R2R6,Canada,Telephone: 416-393-1570, 
CultureLink (Islington Junior Middle School),44 Cordova Ave,"Toronto, Ontario",M9A 2H5,Canada,Telephone: 416-394-7870, 
Culturelink (Jarvis Collegiate Institute),495 Jarvis Street,"Toronto, Ontario",M4Y 2G8,Canada,Telephone: 416-393-0140, 
CultureLink (Jesse Ketchum Junior and Senior Public School),61 Davenport Road,"Toronto, Ontario",M5R 1H4,Canada,Telephone: 416-393-1530, 
CultureLink (John English JM),95 Mimico Ave,"Toronto, Ontario",M8V 1R4,Canada,Telephone: 416-394-7660, 
Culturelink (Keele Street Junior Public School),99 Mountview Avenue,"Toronto, Ontario",M6P 2L5,Canada,Telephone: 416-393-9035, 
Culturelink (Lakeshore Collegiate Institute),350 Kippling Avenue,"Toronto, Ontario",MSV 3L1,Canada,Telephone: 416-394-7650, 
Culturelink (Lillian H Smith Library),239 College Street,"Toronto, Ontario",M5T 1R5,Canada,Telephone: 416-393-7746, 
Culturelink (Lord Dufferin Junior and Senior Public School),350 Parliament Street,"Toronto, Ontario",M5A 2Z7,Canada,Telephone: 416-393-1760, 
CultureLink (Market Lane Junior and Senior Public School),246 The Esplanade,"Toronto, Ontario",M5A 4J6,Canada,Telephone: 416-393-1300, 
CultureLink (Michael Power/St. Joseph High School),105 Eringate Drive,"Toronto, Ontario",M9C 3Z7,Canada,Telephone: 416-393-5529, 
Culturelink (Mimico Library),47 Station Road,"Toronto, Ontario",M8V 2R1,Canada,Telephone: 416-394-5330, 
Culturelink (Monsignor Fraser Orientation Centre),700 Markham Street,"Toronto, Ontario",M6G 2M3,Canada,Telephone: 416-393-5500, 
Culturelink (Monsignor Fraser-Isabella Campus),146 Isabella Street ,"Toronto, Ontario",M4Y 1P6,Canada,Telephone: 416-393-5533, 
Culturelink (Nelson Mendela Park Public School),440 Shuter Street,"Toronto, Ontario",M5A 1X6,Canada,Telephone: 416-393-1620, 
CultureLink (Ogden Public School),33 Phoebe St. ,"Toronto, Ontario",M5T 1A8,Canada,Telephone: 416-393-9110, 
Culturelink (Orde Street Junior Public School),18 Orde Street,"Toronto, Ontario",M5T 1N7,Canada,Telephone: 416-393-1900, 
Culturelink (Our Lady of Lourdes Catholic School),444 Sherboune Street,"Toronto, Ontario",M4T 1K2,Canada,Telephone: 416-393-5221, 
Culturelink (Our Lady of Victory Separate School),70 Guestville ,"Toronto, Ontario",M6N 4N3,Canada,Telephone: 416-393-5247, 
Culturelink (Parkdale Collegiate Institute),209 Jameson Avenue,"Toronto, Ontario",M6K 2T3,Canada,Telephone: 416-393-9000, 
Culturelink (Parkdale Junior and Senior Public School ),78 Seaforth Avenue,"Toronto, Ontario",M6K 3L2,Canada,Telephone: 416-393-1280, 
Culturelink (Parklawn Junior Middle Public School),71 Ballacaine Drive,"Toronto, Ontario",M8Y 4B6,Canada,Telephone: 416-394-7120, 
CultureLink (Perth Avenue Public School),14 Ruskin Ave. ,"Toronto, Ontario",M6P 3P8,Canada,Telephone: 416-393-1410, 
Culturelink (Queen Victoria Public School),100 Close Avenue,"Toronto, Ontario",M6K 2V3,Canada,Telephone: 416-393-9200, 
CultureLink (Rose Avenue Junior Public School),675 Ontario St. ,"Toronto, Ontario",M4X 1N4,Canada,Telephone: 416-393-1260, 
Culturelink (Rose Avenue Junior Public School),675 Ontario Street,"Toronto, Ontario",M4X 1N4,Canada,Telephone: 416-393-1260, 
Culturelink (Ryerson Community School ),96 Denison Avenue,"Toronto, Ontario",M5T 1E4,Canada,Telephone: 416-393-1340, 
Culturelink (Sprucecourt Junior Public School),70 Spruce Street,"Toronto, Ontario",M5A 2J1,Canada,Telephone: 416-393-1522, 
Culturelink (St Joseph's College School),74 Wellesley Street,"Toronto, Ontario",M5S 1C4,Canada,Telephone: 416-393-5514, 
Culturelink (St Mary's Catholic Secondary School),66 Dufferin Park Avenue,"Toronto, Ontario",M6H 1J6,Canada,Telephone: 416-393-5528, 
CultureLink (St. Helen's Catholic School),1196 College St. ,"Toronto, Ontario",M6H 1B8,Canada,Telephone: 416-393-5208, 
CultureLink (St. Marcellus),15 Denfield St,"Toronto, Ontario",M9R 3H2,Canada,Telephone: 416-393-5311, 
CultureLink (St. Mary of the Angels,1477 Dufferin Street,"Toronto, Ontario",M6H 4C7,Canada,Telephone: 416-393-5228, 
CultureLink (St. Mathew Catholic School),18 Lavendar Rd.,"Toronto, Ontario",M6N 2B5,Canada,Telephone: 416-393-5240, 
CultureLink (St. Michael Catholic School),"50 George St., South","Toronto, Ontario",M5A 4B2,Canada,Telephone: 416-393-5387, 
Culturelink (Wellesley Community Centre),495 Sherbourne Street,"Toronto, Ontario",M4X 1K7,Canada,Telephone: 416-392-0227, 
CultureLink (Wellesley Place Employment and Social Services),111 Wellesley St E,"Toronto, Ontario",M4Y 3A7,Canada,Telephone: 416-699-7215, 
Culturelink (West End Reception Centre),777 Bloor Street West,"Toronto, Ontario",M6G 1L6,Canada,Telephone: 416-393-0542, 
Culturelink (Western Technical & Commercial School),125 Evelyn Crescent,"Toronto, Ontario",M6P 3E3,Canada,Telephone: 416-393-0500, 
CultureLink Children and Youth Centre,3535 Dundas St. W. ,"Toronto, Ontario",M6S 2S7,Canada,Telephone: 416-766-6288,ngouda@culturelink.ca
Cumberland College,"503 - 2nd Street East, PO Box 2225","Nipawin, Saskatchewan",S0E 1E0,Canada,Telephone: 306-873-3844,clamma@cumberlandcollege.sk.ca
CutlureLink (St. Joseaphat),110 Tenth St. ,"Toronto, Ontario",M8W 3P1,Canada,Telephone: 416-393-5291, 
Dawson Creek Literacy Society ,929 – 102 Avenue,"Dawson Creek, British Columbia",V1G 2B5,Canada,Telephone: 250-782-4211, 
Decoda Literacy Solutions Society,1329 Duchess Avenue,"West Vancouver, British Columbia",V7T 1H5,Canada,, 
Decoda Literacy Solutions Society,13359 81 Ave,"Surrey, British Columbia",V3W 3C5,Canada,, 
Decoda Literacy Solutions Society,1750 E. 22nd Avenue,"Vancouver, British Columbia",V5N 2P7,Canada,, 
Decoda Literacy Solutions Society,307-2632 Library Lane,"North Vancouver, British Columbia",V7J 0B8,Canada,, 
Decoda Literacy Solutions Society,31321 Blueridge Dr,"Abbotsford, British Columbia",V2T 6W2,Canada,Telephone: 604-852-9665, 
Decoda Literacy Solutions Society,3417 Euclid Street,"Vancouver, British Columbia",V5R 6H2,Canada,Telephone: 604-713-5340, 
Decoda Literacy Solutions Society,4440 Blundell Road,"Richmond, British Columbia",V7C 1G9,Canada,Telephone: 604-668-7890, 
Decoda Literacy Solutions Society,4567 Imperial Street,"Burnaby, British Columbia",V5J 1B7,Canada,Telephone: 604-664-8344, 
Decoda Literacy Solutions Society,5409-206 Street,"Langley, British Columbia",V3A 2C5,Canada,, 
Decoda Literacy Solutions Society,7651 18th Avenue,"Burnaby, British Columbia",V3N 1J1,Canada,, 
Decoda Literacy Solutions Society,800 East Broadway,"Vancouver, British Columbia",V5T 1Y1,Canada,, 
Decoda Literacy Solutions Society,980-1125 Howe St,"Vancouver, British Columbia",V6Z 2K8,Canada,Telephone: 604-681-4199, 
Delta School District No. 37 - Delview Adult Learning Centre,9115 - 116 Street,"North Delta , British Columbia",V4C 5W8,Canada,Telephone: 604-594-6100, 
District scolaire francophone Sud,425 Champlain Street,"Dieppe, New Brunswick",E1A 1P2,Canada,Telephone: 506-856-3333,DSF-SInfo@nbed.nb.ca
District scolaire francophone Sud,67 Ragged Point Road,"Saint John, New Brunswick",E2K 5C3,Canada,Telephone: 506-658-4613,DSF-SInfo@nbed.nb.ca
District scolaire francophone Sud,715 Priestman Street,"Fredericton, New Brunswick",E3B 5W7,Canada,Telephone: 506-453-3991,DSF-SInfo@nbed.nb.ca
DIVERSEcity,1107 - 7330 137th Street,"Surrey, British Columbia",V3W 1A3,Canada,Telephone: 604-547-1203,info@dcrs.ca
DIVERSEcity,13455 76th Avenue,"Surrey, British Columbia",V3W 2W3,Canada,Telephone: 604-547-1200,info@dcrs.ca
DIVERSEcity,201 - 7330 King George Boulevard,"Surrey, British Columbia",V3W 5A5,Canada,Telephone: 604-547-1200,info@dcrs.ca
Diversis ,"5 Hill Street, 2nd Floor","Edmundston, New Brunswick",E3V 1H7,Canada,Telephone: 506-737-9602,info@talentnb.ca
Dixie Bloor Neighbourhood Centre,3415 Dixie Road,"Mississauga, Ontario",L4Y 2A9,Canada,Telephone: 905-206-0755, 
Dixie Bloor Neighbourhood Centre,3431 Fieldgate Drive ,"Mississauga, Ontario",L4X 2J4,Canada,Telephone: 905-629-3553, 
Dixie Bloor Neighbourhood Centre,"3650 Dixie Road, Suite 103","Mississauga, Ontario",L4Y 3V9,Canada,Telephone: 905-629-1873, 
Dixon Hall,190 Carlton Street,"Toronto, Ontario",M5A 2K8,Canada,Telephone: 416-863-0499 ext. 3225, 
"DLS Consulting, Inc., o/a Winnipeg English Language Assessment and Referral Centre",400 - 275 Portage Avenue   ,"Winnipeg, Manitoba",R3B 2B3,Canada,Telephone: 204-943-5387,info@welarc.net
Douglas College,13769 104 Avenue,"Surrey, British Columbia",V3T 2W4,Canada,Telephone: 604-438-3045, 
Douglas College,350-9801 King George Boulevard,"Surrey, British Columbia",V3T 5H5,Canada,Telephone: 604-582-7479, 
Douglas College,A1410-1250 Pinetree Way ,"Coquitlam, British Columbia",V3B 7X3,Canada,Telephone: 604-777-6099, 
Dufferin-Peel Catholic District School Board,300 Great Lakes Drive,"Brampton, Ontario",L6R 2W7,Canada,Telephone: 905-361-2344 ext. 60679, 
Dufferin-Peel Catholic District School Board,40 Matheson Blvd.,"Mississauga, Ontario",L5R1C5,Canada,Telephone: 905-890-0708, 
Dufferin-Peel Catholic District School Board,680 Novo Star Drive,"Mississauga, Ontario",L5W 1C7,Canada,Telephone: 905-890-1221, 
Durham Catholic District School Board,1003 Gifford Street,"Whitby, Ontario",L1N 2S4,Canada,Telephone: 905-666-1255 ext. 2800, 
Durham Catholic District School Board,"458 Fairall Street, Unit 7","Ajax, Ontario",L1S 1R6,Canada,Telephone: 905-683-7713, 
Durham District School Board - Continuing Education,120 Centre Street South,"Oshawa, Ontario",L4G 1K1,Canada,Telephone: 905-831-3118,DCEInfo@ddsb.ca
Durham District School Board - Continuing Education,"1400 Bayly Street, Unit # 1","Pickering, Ontario",L1W 3R2,Canada,Telephone: 905-831-3118,DCEInfo@ddsb.ca
Durham Region Unemployed Help Centre  ,"1400 Bayly Street, Unit 5 & 16B","Pickering, Ontario",L1W 3R2,Canada,Telephone: 905-420-4010,careadmin@unemployedhelp.on.ca 
Durham Region Unemployed Help Centre  ,272 King Street East,"Oshawa, Ontario",L1H 1C8,Canada,Telephone: 905-579-1821,info@unemployedhelp.on.ca 
East Central Newcomer Welcome Centre Inc.,"H, 132 Broadway Street West  ","Yorkton, Saskatchewan",S3N 0M4,Canada,Telephone: 306-783-2777, 
East York East Toronto Family Resources Org.,1108 Greenwod Avenue,"Toronto, Ontario",M4J 1M9,Canada,Telephone: 416-686-3390, 
East York East Toronto Family Resources Org.,2 Cedarcrest Boulevard,"Toronto, Ontario",M4B 2N9,Canada,Telephone: 416-686-3390, 
East York East Toronto Family Resources Org.,269 Gerrard Street East,"Toronto, Ontario",M5A 2G1,Canada,Telephone: 416-686-3390, 
East York East Toronto Family Resources Org.,3079 Danforth Avenue,"Toronto, Ontario",M1L 1A9,Canada,Telephone: 416-686-3390, 
East York East Toronto Family Resources Org.,4 Massey Square,"Toronto, Ontario",M4V 5M9,Canada,Telephone: 416-686-3390, 
East York East Toronto Family Resources Org.,495 Sherbourne Street,"Toronto, Ontario",M4X 1K7,Canada,Telephone: 416-686-3390, 
East York East Toronto Family Resources Org.,555 Richmond Street West,"Toronto, Ontario",M5V 3B1,Canada,Telephone: 416-686-3390, 
East York East Toronto Family Resources Org.,80 Sackville Avevenue,"Toronto, Ontario",M5A 3E5,Canada,Telephone: 416-686-3390, 
East York East Toronto Family Resources Organization,101 Barrington Ave. 4 Massey Square 2 Cedarcrest Blvd. 70 Spruce Street 675 Ontario Street     ,"Toronto, Ontario",M4C 4Z2,Canada,Telephone: 416-686-5153, 
Economic and Social Council of Ottawa-Carleton,"130 rue Slater, suite 1220","Ottawa, Ontario",K1P6E2,Canada,Telephone: 613-321-1080,info@cesoc.ca
Economic and Social Council of Ottawa-Carleton,"134 Main St E, suite 303","Hawkesbury, Ontario",K6A 1A3,Canada,Telephone: 613-248-1343,info@cesoc.ca
Economic and Social Council of Ottawa-Carleton,"255 Carling Ave, Suite 300","Ottawa, Ontario",K2B7Z5,Canada,Telephone: 613-248-1343,info@cesoc.ca
Economic and Social Council of Ottawa-Carleton,"2720, Richmond rd, suite 310","Ottawa, Ontario",K2B 6S2,Canada,Telephone: 613-248-1343,info@cesoc.ca
Economic and Social Council of Ottawa-Carleton,"55 Water St, suite 110","Cornwall, Ontario",K6J 1A1,Canada,Telephone: 613-248-1343,info@cesoc.ca
Economic and Social Council of Ottawa-Carleton,"815 St. Laurent Blvd, suite 107","Ottawa, Ontario",K1K 3A7,Canada,Telephone: 613-248-1343,info@cesoc.ca
Economic and Social Council of Ottawa-Carleton,"841, Sydney St, suite 203","Cornwall, Ontario",K6H 3J7,Canada,Telephone: 613-248-1343,info@cesoc.ca
Edge Skills Centre Inc.,511 St. Anne's Road   ,"Winnipeg, Manitoba",R2M 3E5,Canada,Telephone: 204-255-5390,eslinfo@edgeinc.ca
Edmonton Immigrant Services Association (EISA),"10720 - 113th Street, Suite 201","Edmonton, Alberta",T5H 3H8,Canada,Telephone: 780-474-8445, 
Edmonton Mennonite Centre for Newcomers,11713 - 82nd Street,"Edmonton, Alberta",T5B 2V9,Canada,Telephone: 780-424-7709, 
Edmonton Public Schools - Metro Continuing Education,7835 76 Avenue NW,"Edmonton, Alberta",T6C 2N1,Canada,Telephone: 780-428-1111, 
Edmonton Region Immigrant Employment Council,304-10209 97 Street NW,"Edmonton, Alberta",T5J 0L5,Canada,Telephone: 780-497-8866, 
Edson and District Community Learning Society,"111-54 Street, Suite 105 ","Edson, Alberta",T7E 1T2,Canada,Telephone: 780-723-6247,settlementservices@edsonlearning.ca
Elmwood Community Resource Centre and Area Association,545 Watt Street,"Winnipeg, Manitoba",R2K 2S2,Canada,Telephone: 204-982-1720,ncondo@elmwoodcrc.ca
EmployAbilities Society of Alberta,402-10909 Jasper Ave NW,"Edmonton, Alberta",T5J 3L9,Canada,Telephone: 780-423-4106, 
Employment Services Centre of prescott-Russell,201-134 Main St. East,"Hawkesbury, Ontario",K6A 1A3,Canada,Telephone: 1-800-668-5950 or 613-632-0179 for headquarters,info@csepr.ca
Employment Solutions for Immigrants Inc. (Manitoba Start),271 Portage Avenue,"Winnipeg, Manitoba",R3B 0A8,Canada,Telephone: 204-944-8787,judith.hayes@manitoba start.com
English at First,16 William Street West,"Waterloo, Ontario",N2L 1J3,Canada,Telephone: 519-571-0360, 
English Language Tutoring for the Ottawa Community (ELTOC) - Home Tutoring,"404 McArthur Avenue, Suite 108. Heartwood House","Ottawa, Ontario",K1K 1G8,Canada,Telephone: 613-232-8566,admin@eltoc.ca
English Online,Suite 610-294 Portage Avenue,"Winnipeg, Manitoba",R3C 0B9,Canada,Telephone: 204-946-5140,info@myenglishonline.ca
Environics Institute for Survey Research,"33 Bloor Street East, Suite 900  ","Toronto, Ontario",M4W3H1,Canada,Telephone: 416-969-2457,keith.neuman@environics.ca
Equilibrium International Education Institute,707 14th Street North West,"Calgary, Alberta",T2N 2A4,Canada,Telephone: 403-283-1111,school@equilibrium.ab.ca
Families Canada,"150 Isabella St, Suite 149 (Phase 2)  ","Ottawa, Ontario",K1S 1V7,Canada,Telephone: 613-237-7667 ext. 223,info@familiescanada.ca
Family Dynamics Inc.,401-393 Portage Avenue   ,"Winnipeg, Manitoba",R3B 3H6,Canada,Telephone: 204-947-1401,mbarchyn@familydynamics.ca
Family Service Toronto,3600 Kingston Rd ,"Toronto, Ontario",M1M 1R9,Canada,Telephone: 905-420-4010, 
Family Service Toronto ,1527 Victoria Park,"Toronto, Ontario",M1L 2T3,Canada,Telephone: 905-420-4010, 
Family Service Toronto (Bathurst - Finch HUB),540 Finch Ave West,"Toronto, Ontario",M2R 1N7,Canada,Telephone: 647-436-0385, 
Family Service Toronto (c/o Women for Change),"720 Trethewey Drive, Suite 201.","Toronto, Ontario",M6M 5A5,Canada,Telephone: 647-201-5765, 
Family Service Toronto (Fairview Public Library),"Fairview Mall, Don Mills Road ","Toronto, Ontario",M2J 5A7,Canada,Telephone: 905-420-4010, 
Fast Track - Centre for Skills Development and Training,11 Guelph Street,"Georgetown, Ontario",L7G 3Z1,Canada,Telephone: 905-702-7311, 
Fast Track - Centre for Skills Development and Training,1395 Abbeywood Drive,"Oakville, Ontario",L6M 3B2,Canada,Telephone: 905-847-8345, 
Fast Track - Centre for Skills Development and Training,2020 Appleby Line,"Burlington, Ontario",L7L 6M6,Canada,Telephone: 905-336-5444, 
Fast Track - Centre for Skills Development and Training,208-550 Ontario Street,"Milton, Ontario",L9T 3M9,Canada,Telephone: 905-693-8458, 
Fast Track - Centre for Skills Development and Training,3335 North Service Road,"Burlington, Ontario",L7N 3G2,Canada,Telephone: 905-333-3499, 
Fast Track - Centre for Skills Development and Training,860 Harrington Court,"Burlington, Ontario",L7N 3N4,Canada,Telephone: 905-878-1240, 
"Fast Track – Community Centre for Skills, Development and Training",3350 South Service Road,"Burlington, Ontario",L7N 3M6,Canada,Telephone: 905-333-3499, 
Fédération acadienne de la Nouvelle-Écosse,54 Queen Street,"Dartmouth, Nova Scotia",B2Y 1G3,Canada,Telephone: 902-433-2028,khowlett@immigrationfrancophonene.ca
Fédération acadienne de la Nouvelle-Écosse (FANE),6090 Mumford Road,"Halifax, Nova Scotia",B3L 4P1,Canada,Telephone: 902-433-2099,info@immigrationfrancophonene.ca
Fédération des associations de juristes d'expression française de common law inc. (FAJEF),1-242 Goulet St,"Winnipeg, Manitoba",R2H 0S2,Canada,Telephone: 204-291-1939,bureau@ajefa.ca
Fédération des communautés francophones et acadienne (FCFA) du Canada,450 Rideau St,"Ottawa, Ontario",K1N 5Z4,Canada,Telephone: 613-241-7600,info@fcfa.ca
Fédération des francophones de la Colombie-Britannique,101-1575 7th Avenue West,"Vancouver, British Columbia",V6J 1S1,Canada,Telephone: 604-732-1420,direction@ffcb.ca
Fédération franco-ténoise,5016 48 Street,"Yellowknife, Northwest Territories",X1A 1N3,Canada,Telephone: 867-920-2919 ext. 262,immigrationtno@franco-nord.com
Flexibility Learning Systems,506 - 4th Avenue S,"Lethbridge, Alberta",T1J 0N5,Canada,Telephone: 403-320-2057,flexilearning@shaw.ca
Folk Arts Council of St. Catharines Multicultural Centre,570 King Street,"Welland, Ontario",L3B 3L2,Canada,Telephone: 905-685-6589, 
Folk Arts Council of St. Catharines Multicultural Centre,8123 Lundy’s Lane,"Niagara Falls, Ontario",L2H 1H3,Canada,Telephone: 289-296-7369, 
Folk Arts Council of St. Catharines Multicultural Centre,85 Church Street,"St. Catharines, Ontario",L2R 3C7,Canada,Telephone: 905-685-6589, 
For Youth Initiative,1652 Keele Street,"Toronto, Ontario",M6M 3W3,Canada,Telephone: 416-653-3311, 
Fort Erie Multicultural Centre,150 Jarvis Street,"Fort Erie, Ontario",L2A 2S4,Canada,Telephone: 905-871-3641, 
Fort Erie Multicultural Centre,54 Jarvis St,"Fort Erie, Ontario",L2A 2S4,Canada,Telephone: 905-991-8951, 
Fort Erie Multicultural Centre - Peace Bridge Newcomer Centre,80 Queen St,"Fort Erie, Ontario",L2A 6M4,Canada,Telephone: 905-871-3641, 
Fort Nelson Community Literacy Society,"#17 Landmark Plaza, 4903 51 Ave W P.O. Box 91","Fort Nelson, British Columbia",V0C 1R0,Canada,Telephone: 250-774-4415,coordinator@fncls.com
Fort St. John Literacy Society,201-10136 100 Avenue,"Fort St. John, British Columbia",V1J 1Y6,Canada,Telephone: 250-785-2110, 
Francophone Association of Brooks,"707, 2nd Avenue E. PO BOX 1765","Brooks, Alberta",T1R 1L2,Canada,Telephone: 403-362-0405,afbrooks2014@gmail.com
FrancoQueer,"543 Yonge St, 4th floor","Toronto, Ontario",M4Y 1Y5,Canada,Telephone: 647-709-2600,immigration@francoqueer.ca
Frog Hollow Neighbourhood House,2131 Renfrew Street,"Vancouver, British Columbia",V5M 4M5,Canada,Telephone: 604-251-1225, 
Georgian College (Job Finding Club for Immigrants),48 Collier Street ,"Barrie, Ontario",L4M 1G8,Canada,Telephone: 705-722-1505,iawantjob@georgiancollege.ca
Global Gathering Place,100 5th Avenue North,"Saskatoon, Saskatchewan",S7K 2N7,Canada,Telephone: 306-665-0268, 
Global Gathering Place,506-25 Street,"Saskatoon, Saskatchewan",S7K 4A7,Canada,Telephone: 306-665-0268, 
Grand Erie District School Board,347 Erie Avenue,"Brantford, Ontario",N3S 2H7,Canada,Telephone: 519-753-6079, 
Grande Prairie Centre for Newcomers - Edmonton Immigrant Service Association (EISA) is the umbrella organization,#505 10014 99 Street,"Grande Prairie, Alberta",T8V 3N4,Canada,Telephone: 780-538-4452, 
Grande Prairie Council for Lifelong Learning Society,9625 Prairie Road,"Grand Prairie, Alberta",T8V 6G5,Canada,Telephone: 780-539-6077, 
Graybridge International Consulting Inc.,"1309 Carling Avenue, Suite 5","Ottawa, Ontario",K1Z 7L3,Canada,Telephone: 613-761-7440,info@graybridgemalkam.com
Great Plains College,129 2nd Avenue NE,"Swift Current, Saskatchewan",S9H 2C6,Canada,Telephone: 306-773-1531,info@greatplainscollege.ca
Greater Charlottetown Area Chamber of Commerce,"134 Kent Street, Suite 230, PO Box 67","Charlottetown, Prince Edward Island",C1A 7K2,Canada,Telephone: 902-628-2000,chamber@charlottetownchamber.com
Greater Essex County District School Board (Language Assessment & Resource Centre),1410 Ouellette Avenue,"Windsor, Ontario",N8X 5B2,Canada,Telephone: 519-253-2724,Larc@publicboard.ca
Halifax Public Libraries,60 Alderney Drive,"Dartmouth, Nova Scotia",B2Y 4P8,Canada,Telephone: 902-490-5753,asklib@halifax.ca
Halifax Regional Business and Community Economic Development Association,"1969 Upper Water Street, Suite 2101  ","Halifax, Nova Scotia",B3J 3R7,Canada,Telephone: 902-490-6018,twalters@halifaxpartnership.com
Halton Catholic District School Board,255 Morden Road,"Oakville, Ontario",L6K 2S2,Canada,Telephone: 905-849-7555,info@mertoncentre.com
Halton Catholic District School Board,2800 Highpoint drive,"Milton, Ontario",L9T 6P4,Canada,Telephone: 905-693-6676,info@mertoncentre.com
Halton Catholic District School Board,460  Brant street,"Burlington, Ontario",L7R 4B6,Canada,Telephone: 905-632-5858 ext. 221,info@mertoncentre.com
Halton District School Board,240 Wyecroft Road,"Oakville, Ontario",L6K 2G7,Canada, ,linc-esl@hdsb.ca
Halton District School Board,3250 New Street,"Burlington, Ontario",L7N 1M8,Canada,Telephone: 905-632-2944,linc-esl@hdsb.ca
Halton District School Board,96 Guelph Street,"Georgetown, Ontario",L7G 4N5,Canada, ,linc-esl@hdsb.ca
Halton District School Board (Welcome Centre),215 Ontario Street South,"Milton, Ontario",L9T 4N9,Canada,Telephone: 905-335-3665 ext. 3440,linc-esl@hdsb.ca
Halton Multicultural Council,1092 Speers Road,"Oakville, Ontario",L6L 2X4,Canada,Telephone: 905-842-2486,info@hmcconnections.com
Halton Multicultural Council,"360 Guelph Street, Unit 33","Georgetown, Ontario",L7G 4B5,Canada,Telephone: 905-873-6502 ext. 174,info@hmcconnections.com
Halton Multicultural Council,"380 Dundas Street East, D-11","Oakville, Ontario",L6H 2Z9,Canada,Telephone: 905-257-1555,info@hmcconnections.com
Halton Multicultural Council,55 Ontario Street South,"Milton, Ontario",L9T 2M3,Canada,Telephone: 905-842-2486 ext. 281,info@hmcconnections.com
Halton Multicultural Council,760 Brant Street,"Burlington, Ontario",L7S 1X7,Canada,Telephone: 905-842-2486 ext. 291,info@hmcconnections.com
Hamilton East Kiwanis Boys' and Girls' Club,705 Main St E,"Hamilton, Ontario",L8M 1K8,Canada,Telephone: 905-544-0050, 
Hamilton Public Library,55 York Boulevard,"Hamilton, Ontario",L8R 3K1,Canada,Telephone: 905-546-3444, 
Hamilton Urban Core Community Health Centre,71 Rebecca Street,"Hamilton, Ontario",L8R 1B6,Canada,Telephone: 905-522-3233, 
Hamilton-Wentworth Catholic District School Board,150 East 5th Street,"Hamilton, Ontario",L9A 2Z8,Canada,Telephone: 905-577-0555, 
Hamilton-Wentworth Catholic District School Board,45 Young Street,"Hamilton, Ontario",L8N 1V1,Canada,Telephone: 905-577-0555, 
Hamilton-Wentworth Catholic District School Board,60 Barlake Avenue,"Hamilton, Ontario",L8E 1G7,Canada,Telephone: 905-577-0555, 
Hamilton-Wentworth Catholic District School Board,770 Main St East,"Hamilton, Ontario",L8M 1L1,Canada,Telephone: 905-577-0555, 
Hamilton-Wentworth District School Board,"City Learning Centre, 110 King Street West","Hamilton, Ontario",L8P 4S6,Canada,Telephone: 905-525-8833, 
Hamilton-Wentworth District School Board,"Hill Park Learning Centre, 465 East 16th St","Hamilton, Ontario",L9A 4K6,Canada,Telephone: 905-561-2582, 
Hamilton-Wentworth District School Board,"Parkway Learning Centre, 140 Centennial Parkway North","Hamilton, Ontario",L8E 1H9,Canada,Telephone: 905-573-0941, 
Hardin Street YMCA,106B-9816 Hardin Street,"Fort McMurray, Alberta",T9H 4K3,Canada,Telephone: 780-743-9600,contactcentre@northernalberta.ymca.ca
Hecate Strait Employment Development Society,208 First Avenue East,"Prince Rupert, British Columbia",V8J 4M8,Canada,Telephone: 250-624-9498 or 1-800-808-3988,shauna@hseds.ca
HIPPY Oakville Home-Based Program Inc,1124 Argyle Drive  ,"Oakville, Ontario",L6J 1A7,Canada, ,ed@hippyhalton.org
HIV Network of Edmonton Society,9702 111 Avenue NW,"Edmonton, Alberta",T5G0B1,Canada,Telephone: 780-488-5742, 
Holland College,140 Weymouth Street  ,"Charlottetown, Prince Edward Island",C1A 4Z1,Canada,Telephone: 902-629-4217, 
Humber College Institute of Technology and Advanced Learning,205 Humber College Blvd  ,"Toronto, Ontario",M9W5L7,Canada,Telephone: 416-675-6622, 
Immigrant & Refugee Services Association PEI Inc.,49 Water Street,"Charlottetown, Prince Edward Island",C1A 1A3,Canada,Telephone: 902-628-6009, 
Immigrant and Multicultural Services society of Prince George,1270 – 2nd Avenue,"Prince George, British Columbia",V2L 3B3,Canada,Telephone: 250-562-2900,imss.pg@imss.ca
Immigrant and Refugee Community Organization of Manitoba Inc. (IRCOM),215 Isabel Street,"Winnipeg , Manitoba",R3A 1R5,Canada,Telephone: 204-943-8765,info@ircom.ca
Immigrant and Refugee Community Organization of Manitoba Inc. (IRCOM),95 Ellen Street   ,"Winnipeg, Manitoba",R3A 1S8,Canada,Telephone: 204-943-8765,nfo@ircom.ca
Immigrant Centre Manitoba Inc.,100 Adelaide Street  ,"Winnipeg, Manitoba",R3A 0W2,Canada,Telephone: 204-943-9158,jfernandez@icmanitoba.com
Immigrant Employment Council of BC Society,720 - 750 West Pender Street  ,"Vancouver, British Columbia",V6C 2T7,Canada,Telephone: 604-629-5364,patrick.mackenzie@iecbc.ca
Immigrant Services Association of Nova Scotia (ISANS),"6960 Mumford Road, Suite 2120","Halifax, Nova Scotia",B3L 4P1,Canada,Telephone: 902-423-3607,info@isans.ca
Immigrant Services Calgary Society,"910 - 7th Avenue SW, Suite 1200","Calgary, Alberta",T2P 3N8,Canada,Telephone: 403-265-1120,info@immigrantservicescalgary.ca
Immigrant Services Guelph-Wellington Incorporated ,"104 Dawson Rd., Unit 102  ","Guelph, Ontario",N1H 1A6,Canada,Telephone: 519-836-2222, 
Immigrant Services Society,240A - 3020 Lincoln Ave,"Coquitlam, British Columbia",V3B 6B4,Canada,Telephone: 604-684-2561 ext. 2123,info@issbc.org
Immigrant Services Society,501 - 333 Terminal Ave,"Vancouver, British Columbia",V6A 4C1,Canada,Telephone: 604-684-2561 ext. 2123,info@issbc.org
Immigrant Services Society of BC (ISS),#101 - 38085 Second Avenue,"Squamish, British Columbia",V8B 0C3,Canada,Telephone: 604-567-4490,info@issbc.org
Immigrant Services Society of BC (ISS),136-3030 Lincoln Avenue,"Coquitlam, British Columbia",V3B 6B4,Canada,Telephone: 604-942-1777 ext. 1552 or 1551,info@issbc.org
Immigrant Services Society of BC (ISS),150-8400 Alexandra Road,"Richmond, British Columbia",V6X 3L4,Canada,Telephone: 604-233-7077 ext. 1352 or 1353,info@issbc.org
Immigrant Services Society of BC (ISS),200C-504 Cottonwood Avenue,"Coquitlam, British Columbia",V3J 2R5,Canada,Telephone: 778-383-1438,info@issbc.org
Immigrant Services Society of BC (ISS),20430 Fraser Highway,"Langley, British Columbia",V3A 4G2,Canada,Telephone: 604-510-5136, 
Immigrant Services Society of BC (ISS),204-3242 Westwood Street ,"Port Coquitlam, British Columbia",V3C 3L8,Canada,Telephone: 778-372-6560,info@issbc.org
Immigrant Services Society of BC (ISS),207-7355 Canada Way,"Burnaby, British Columbia",V3N 4Z6,Canada,Telephone: 604-395-8000,info@issbc.org
Immigrant Services Society of BC (ISS),240A-3020 Lincoln Avenue,"Coquitlam, British Columbia",V3A 7R3,Canada,Telephone: 778-284-7026,info@issbc.org
Immigrant Services Society of BC (ISS),2610 Victoria Drive,"Vancouver, British Columbia",V5N 4L2,Canada,Telephone: 604-684-2561,info@issbc.org
Immigrant Services Society of BC (ISS),280 - 610 Sixth Street,"New Westminster, British Columbia",V3L 3C2,Canada,Telephone: 604-522-5902,info@issbc.org
Immigrant Services Society of BC (ISS),110-22638 119 Ave,"Maple Ridge, British Columbia",V2X 4L1,Canada,Telephone: 778-372-6567,info@issbc.org
Immigrant Services Society of BC (ISS),601-333 Terminal Avenue,"Vancouver, British Columbia",V6B 2H3,Canada,Telephone: 604-684-3599,info@issbc.org
Immigrant Women Services Ottawa,"219 Argyle Avenue, Suite 400","Ottawa, Ontario",K2P 2H4,Canada,Telephone: 613-729-3145,infomail@immigrantwomenservices.com
Immigrants Working Centre,"1119 Fennell Avenue East, Suite 236","Hamilton, Ontario",L8T 1S2,Canada,Telephone: 905-387-1100, 
Immigrants Working Centre,160 Centennial Parkway North #7,"Hamilton, Ontario",L8E 1H9,Canada,Telephone: 905-662-9160, 
Immigrants Working Centre,182 Rebecca Street,"Hamilton, Ontario",L8R 1C1,Canada,Telephone: 905-525-9676, 
Immigrants Working Centre,"8 Main Street East, Suite 101","Hamilton, Ontario",L8N 1E8,Canada,Telephone: 905-529-5209, 
Impact North Shore,207—123 East 15th Street,"North Vancouver, British Columbia",V7L 2P7,Canada,Telephone: 604-988-2931, 
Impact North Shore,706 Main St.,"West Vancouver, British Columbia",V7T 2Y5,Canada,Telephone: 604-988-2931, 
Indus Community Services,"180-B Sandalwood Parkway East, Ste. 3000","Brampton, Ontario",L6Z 1Y4,Canada,Telephone: 905-840-6666, 
Indus Community Services,"3038 Hurontario Street, Unit 206","Mississauga, Ontario",L5B 3B9,Canada,Telephone: 905-275-2369, 
Indus Community Services,"483 Dundas Street West, Suite 209","Oakville, Ontario",L6M 1L9,Canada,Telephone: 289-295-0765, 
Indus Community Services,"60 Gillingham Drive, Suite 500","Brampton, Ontario",L6X 0G6,Canada,Telephone: 905-459-4776, 
Institute for Canadian Citizenship,"260 Spadina Avenue, Suite 500","Toronto, Ontario",M5T2E4,Canada,Telephone: 416-593-6998, 
Inter-Cultural Association of Greater Victoria,102-808 Douglas Street,"Victoria, British Columbia",V8W 2B6,Canada,Telephone: 250-388-4728, 
NewToBC c/o Burnaby Public Library,6100 Willingdon Avenue,"Burnaby, British Columbia",V5H 4N5,Canada,Telephone: 604-436-5400,info@newtobc.ca
NewToBC c/o City Centre Library - Surrey,10350 University Drive,"Surrey, British Columbia",V3T 4B8,Canada,Telephone: 604-598-7420,info@newtobc.ca
NewToBC c/o Coquitlam Public Library,575 Poirier Street,"Coquitlam, British Columbia",V3J 6A9,Canada,Telephone: 604-937-4141,info@newtobc.ca
NewToBC c/o Fraser Valley Regional Library,8440-112th Street,"Delta, British Columbia",V4C 4W9,Canada,Telephone: 604-594-8155,info@newtobc.ca
NewToBC c/o New Westminster Public Library,716 6th Avenue,"New Westminster, British Columbia",V3M 2B3,Canada,Telephone: 604-527-4660,info@newtobc.ca
NewToBC c/o North Vancouver City Library,120 West 14th Street,"North Vancouver, British Columbia",V7M 1N9,Canada,Telephone: 604-998-3450,info@newtobc.ca
NewToBC c/o North Vancouver City Library,1277 Lynn Valley Road,"North Vancouver, British Columbia",V7J 0A2,Canada,Telephone: 604-984-0286,info@newtobc.ca
NewToBC c/o Richmond Public Library,100-7700 Minoru Gate,"Richmond, British Columbia",V6Y 1R8,Canada,Telephone: 604-231-6404,info@newtobc.ca
NewToBC c/o Vancouver Public Library,350 West Georgia Street,"Vancouver, British Columbia",V6B 6B1,Canada,Telephone: 604-331-3603,info@newtobc.ca
NewToBC c/o West Vancouver Memorial Library,1950 Marine Drive,"West Vancouver, British Columbia",V7V 1J8,Canada,Telephone: 604-925-7400,info@newtobc.ca
International Women of Saskatoon  - LARC,336 5th Avenue North,"Saskatoon, Saskatchewan",S7K 2P4,Canada,Telephone: 306-978-6614, 
International Women of Saskatoon - LEAD,336 5th Avenue North,"Saskatoon, Saskatchewan",S7K 2P4,Canada,Telephone: 306-978-6611, 
Jane/Finch Community and Family Centre,1  Yorkgate Blvd,"Toronto, Ontario",M3N 3A1,Canada,Telephone: 416-661-3010,thespot@janefinchcentre.org
Jane/Finch Community and Family Centre,1911 Finch Avenue West,"Toronto, Ontario",M3N 2V2,Canada,Telephone: 416-663-2733, 
Jane/Finch Community and Family Centre,4400 Jane Street,"Toronto, Ontario",M3N 2K4,Canada,Telephone: 416-663-2733, 
Jane/Finch Community and Family Centre - Emery Collegiate Institute,3395 Weston Road,"North York, Ontario",M9M 2V9,Canada,Telephone: 416-633-1240, 
Jane/Finch Community and Family Centre - John Booth Arena,230 Gosford Boulevard,"North York, Ontario",M3N 2H1,Canada,Telephone: 416-663-2733, 
Jane/Finch Community and Family Centre Westview Centennial Secondary School ,755 Oakdale Road,"Toronto, Ontario",M3N 1W7,Canada,Telephone: 416-663-2733, 
Jangles Productions Limited,51 Parfield Drive,"Toronto, Ontario",M2J 1C2,Canada,Telephone: 416-537-9411,markjacot@jangles.ca
Jewish Child and Family Service,C200 - 123 Doncaster Street    ,"Winnipeg, Manitoba",R3N 2B2,Canada,Telephone: 204-477-7430,jcfs@jcfswinnipeg.org
Jewish Family Services of Ottawa,"2255 Carling Avenue, Suite 300","Ottawa, Ontario",K2B 7Z5,Canada,Telephone: 613-722-2225,info@jfsottawa.com
Jewish Immigrant  Aid Services,"1520 Steeles Avenue West, Unit 112-114","Vaughan, Ontario",L4G 1K1,Canada,Telephone: 905-761-5116,english-yr@jiaslinc.org
Jewish Immigrant  Aid Services,"9600 Bathurst St., Unit 242 ","Vaughan, Ontario",L6A 3Z8,Canada,Telephone: 416-630-6481,info@jiastoronto.org
Jewish Vocational Service of Metropolitan Toronto ,"1280 Finch Avenue West, Suite 607","Toronto, Ontario",M3J 3K6,Canada,Telephone: 416-661-3010,services@jvstoronto.org
Jewish Vocational Service of Metropolitan Toronto ,"1530 Albion Road, Unit 41","Toronto, Ontario",M9V 1B4,Canada,Telephone: 647-276-5111,services@jvstoronto.org
Jewish Vocational Service of Metropolitan Toronto ,540 Finch Avenue West,"Toronto, Ontario",M3K 3G4,Canada,Telephone: 416-633-1240,services@jvstoronto.org
Jewish Vocational Service of Metropolitan Toronto ,74 Tycos Drive,"Toronto, Ontario",M6B 1V9,Canada,Telephone: 416-782-3976,services@jvstoronto.org
Jewish Vocational Service of Metropolitan Toronto ,9600 Bathurst Street,"Vaughan , Ontario",L6A 3Z8,Canada,Telephone: 905-303-5838,services@jvstoronto.org
JIAS (Jewish Immigrant Aid Services) Toronto,1003 Steeles Ave West,"Toronto, Ontario",M2R 3T6,Canada,Telephone: 416-225-2112,services@jvstoronto.org
JIAS (Jewish Immigrant Aid Services) Toronto,15 Hove Street,"Toronto, Ontario",M3H 4Y8,Canada,Telephone: 416-635-7044,services@jvstoronto.org
JIAS (Jewish Immigrant Aid Services) Toronto,4300 Bathurst Street,"Toronto, Ontario",M3H 6A4,Canada,Telephone: 416-635-7044,services@jvstoronto.org
JIAS (Jewish Immigrant Aid Services) Toronto,"4600 Bathurst Street, Suite 325","Toronto, Ontario",M2R 3V3,Canada,Telephone: 416-253-2711,services@jvstoronto.org
Job Skills - Employment & Business Programs & Supports,"16655 Yonge Street, Unit 26","Newmarket, Ontario",L3X 1V6,Canada,Telephone: 1-877-761-1155, 
Job Skills - Employment & Business Programs & Supports,"8400 Woodbine Avenue, Suite 102-103","Markham, Ontario",L3R 4N7,Canada,Telephone: 1-877-761-1155, 
Job Skills - Employment & Business Programs & Supports,"9100 Jane Street, Building H, Units 56-67","Vaughan, Ontario",L4K OA4,Canada,Telephone: 1-877-761-1155, 
Job Skills - Employment & Business Programs & Supports (Markham South Welcome Centre),7220 Kennedy Road,"Markham, Ontario",L3R 7P2,Canada,Telephone: 1-877-761-1155,info@welcomecentre.ca
Job Skills - Employment & Business Programs & Supports (Richmond Hill Welcome Centre),"9325 Yonge Street, Unit 31A","Richmond Hill, Ontario",L4C 0A8,Canada,Telephone: 1-877-761-1155,info@welcomecentre.ca
JobStart,219 Dufferin Street,"Toronto, Ontario",M6K 3J1,Canada,Telephone: 416-231-2295,info@jobstart.org
JobStart,2930 Lake Shore Boulevard West,"Toronto, Ontario",M8V 1J4,Canada,Telephone: 416-231-2295,info@jobstart.org
JobStart,41 Chauncey Avenue,"Toronto, Ontario",M8Z 2Z2,Canada,Telephone: 416-231-2295,info@jobstart.org
Kababayan Community Service Centre Inc.,"1313 Queen Street West,  Suite 133","Toronto, Ontario",M6K 1L8,Canada,Telephone: 416-532-3888, 
Kababayan Community Service Centre Inc. (Bathurst Finch HUB),540 Finch Avenue West ,"Toronto, Ontario",M2R 1N7,Canada,Telephone: 416-633-5056, 
Kababayan Community Service Centre Inc. (LSP - Parkdale Public Library),1303 Queen Street West (TPL),"Toronto, Ontario",M6K 1L6,Canada,Telephone: 416-532-3888, 
Kamloops Cariboo Regional Immigrants Society,448 Tranquille Road,"Kamloops, British Columbia",V2B 3H2,Canada,Telephone: 778-470-6101 or 1-866-672-0855, 
KCWA Family Services,"5075 Yonge Street, Suite 401","Toronto, Ontario",M2N 6C6,Canada,Telephone: 416-340-1234, 
KCWA Family Services,540 Finch Avenue West,"Toronto, Ontario",M2R 1N7,Canada,Telephone: 416-340-1234, 
Kelowna Community Resources Society,620 Leon Avenue         ,"Kelowna, British Columbia",V1Y 9T2,Canada,Telephone: 250-763-8008,info@kcr.ca
Keyano College,8115 Franklin Avenue ,"Fort McMurray, Alberta",T9H 2H7,Canada,Telephone: 780-791-4800, 
Ki-Low-Na Friendship Society,442 Leon Avenue,"Kelowna, British Columbia",V1Y 6J3,Canada,Telephone: 250-763-4905, 
Kingston Community Health Centres,263 Weller Avenue,"Kingston, Ontario",K7K 2V4,Canada,Telephone: 613-542-2949,info@kchc.ca 
Kingston Employment & Youth Services (KEYS),182 Sydenham Street,"Kingston, Ontario",K7K 3M2,Canada,Telephone: 613-546-5559,info@keys.ca
Kingston Literacy and Skills,16 Bath Road,"Kingston, Ontario",K7L 1C4,Canada,Telephone: 613-547-2255, 
Kitchener-Waterloo Multicultural Centre,102 King Street West,"Kitchener, Ontario",N2G 1A6,Canada,Telephone: 519-745-2531, 
Kitimat Community Services Society,102 - 370 City Centre,"Kitimat, British Columbia",V8C 1T6,Canada,Telephone: 250-632-9107, 
Kiwassa Neighbourhood Services Association,2425 Oxford Street,"Vancouver, British Columbia",V5K 1M7,Canada,Telephone: 604-254-5401, 
La Cité collégiale,801 Aviation Parkway,"Ottawa, Ontario",K1K 4R3,Canada,Telephone: 613-742-2483, 
La Cité collégiale,801 Aviation Parkway,"Ottawa, Ontario",K1K 4R3,Canada,Telephone: 613-742-2483, 
La coopérative d'immigration Le Relais francophone de la Colombie-Britannique,"1555, West 7th Avenue, office 228","Vancouver, British Columbia",V6J 1S1,Canada,Telephone: 604-630-0316, 
La Coopérative d'intégration francophone de l'Île-du-Prince-Édouard,"149 Kent Street, Suite 202","Charlottetown, Prince Edward Island",C1A 1N5,Canada,Telephone: 888-954-5888,services@cifipe.ca
La Coopérative d'intégration francophone de l'Île-du-Prince-Édouard,48 chemin Mill,"Wellington, Prince Edward Island",C0B 2E0,Canada,Telephone: 902-854-3439,services@cifipe.ca
La Francophonie Albertaine Plurielle (FRAP),"8627 91 Street, Suite 108","Edmonton, Alberta",T6C 3N1,Canada,Telephone: 780-540-8682, 
La Maison,306 Main St,"Toronto, Ontario",M4C 4X6,Canada,Telephone: 647-777-6419,info@lamaison-toronto.org
Labrador Friendship Centre,"P.O.Box 767, 49 Grenfell Street ","Happy Valley-Goose Bay, Newfoundland and Labrador",A0P 1E0,Canada,Telephone: 709-896-8302 ext. 222, 
Lakeshore Area Multi-Services Project (LAMP) Inc.,150 Berry Road,"Toronto, Ontario",M8Y 4H6,Canada,Telephone: 416-231-7070,info@lampchc.org
Lakeshore Area Multi-Services Project (LAMP) Inc.,185 Fifth Street,"Toronto, Ontario",M8V 2Z5,Canada,Telephone: 416-252-6471 ext. 280 or 283,info@lampchc.org
Lakeshore Area Multi-Services Project (LAMP) Inc.,2275 Lakeshore Boulevard West,"Toronto, Ontario",M8V 3Y3,Canada,Telephone: 416-252-6471,info@lampchc.org
Langley Community Service Society,5339 207th Street,"Langley, British Columbia",V3A 2E6,Canada,Telephone: 604-533-7989, 
Langley Community Services Society (Langley Early Years Centre),20766 80 Avenue,"Langley, British Columbia",V2Y 1X6,Canada,Telephone: 604-882-0732,earlyyearscoordinator@langleycdc.com
Language Assessment Services,263 Weller Avenue,"Kingston, Ontario",K7K 2V4,Canada,Telephone: 613-453-8144, 
Le CAFI (Le Centre d'accueil et d'accompagnement francophone des immigrants du Sud-Est du Nouveau-Brunswick),140 Champlain Street,"Dieppe, New Brunswick",E1A 1N8,Canada,Telephone: 506-382-7494,info@cafi-nb.org
Le Carrefour francophone de Sudbury,14 Beech Street,"Sudbury, Ontario",P3C 1Z2,Canada,Telephone: 705-675-6493,info@carrefour.ca 
Le Conseil de développement économique de la Nouvelle-Écosse (CDÉNÉ),"1809 Barrington Street, Office 902","Halifax, Nova Scotia",B3J 3K8,Canada,Telephone: 902-424-7230,info@cdene.ns.ca
Le Groupe Innovanor,60 9th Street,"Hearst, Ontario",P0L 1N0,Canada,Telephone: 705-335-2626, 
Learn English Nova Scotia Testing and Counselling Centre,"6169 Quinpool Road, Suite 221","Halifax, Nova Scotia",B3L 4P8,Canada,Telephone: 902-401-4366,applications@lasns.info
Learning Disabilities Association of Toronto District,121 Willowdale Avenue  ,"Toronto, Ontario",M2N6A3,Canada,Telephone: 416-229-1680, 
Lebanese and Arab Social Services Agency of Ottawa,2410 Holy Lane,"Ottawa, Ontario",K1V 7P1,Canada,Telephone: 613-236-0003,fawada@lassa.ca
Lethbridge College,3000 College Drive S,"Lethbridge, Alberta",T1K 1L6,Canada,Telephone: 403-329-7269, 
Lethbridge Family Services,1107 – 2 Avenue A North,"Lethbridge, Alberta",T1H 0E6,Canada,Telephone: 403-320-1589, 
Lift Community Services,218 - 6975 Alberni Street ,"Powell River, British Columbia",V8A 5P4,Canada,Telephone: 604-485-2004,stuart@liftcommunityservices.org
Lift Community Services,218-6975 Alberni Street,"Powell River, British Columbia",V8A 5P4,Canada,Telephone: 604-414-3630, 
Literacy Alberni Society,5100 Tebo Ave,"Port Alberni, British Columbia",V9Y 5Y6,Canada,Telephone: 250-723-7323, 
Little Mountain Neighbourhood House Society,3981 Main Street,"Vancouver, British Columbia",V5V 3P3,Canada,Telephone: 604-879-7104, 
London Cross Cultural Learner Centre - Settlement Services,505 Dundas Street,"London, Ontario",N6B 1W4,Canada,Telephone: 519-432-1133, 
Louis Riel School Division,900 St. Mary's Road,"Winnipeg, Manitoba",R2M 3R3,Canada,Telephone: 204-257-7827,tim.mackay@lrsd.net
LUSO Community Services - Beacock Branch Library ,1280 Huron Street,"London, Ontario",N5Y 4M2,Canada,Telephone: 519-451-8140, 
LUSO Community Services - Settlement Services,"1193 Oxford Street, E. Unit 2","London, Ontario",N5Y 3M2,Canada,Telephone: 519-452-1466, 
Lutherwood,"89 Wyndham Street North, 3rd Floor","Guelph, Ontario",N1H 4E9,Canada,Telephone: 519-822-5119, 
MABELLEarts,5005 Dundas Street West,"Toronto, Ontario",M9A 4Y6,Canada,Telephone: 416-239-4900,info@mabellearts.ca
Madison Community Services,"355 Church St., 2nd Floor","Toronto, Ontario",M5B 0B2,Canada,Telephone: 416-977-1333, 
Making Changes Employment Association of Alberta,6516 1a Street SW,"Calgary, Alberta",T2H 0G6,Canada,Telephone: 403-262-5776, 
Malton Neighbourhood Services,3540 Morning Star Drive,"Malton, Ontario",L4T 1Y2,Canada,Telephone: 905-677-6270, 
Malton Neighbourhood Services,"3975 Cottrelle Boulevard, Units 8, 9, 10","Brampton, Ontario",L6P 2P9,Canada,Telephone: 905-794-7111, 
Malton Neighbourhood Services,7205 Goreway Drive,"Malton, Ontario",L4T 1Y2,Canada,Telephone: 905-612-0350,info@mnsinfo.org
Malvern Family Resource Centre,1321 Neilson Road,"Scarborough, Ontario",M1B3C2,Canada,Telephone: 416-281-1376, 
Manitoba Institute of Trades and Technology,130 Henlow Bay,"Winnipeg, Manitoba",R3Y 1G4,Canada,, 
Manitoba Institute of Trades and Technology,1551 Pembina Hwy,"Winnipeg, Manitoba",R3T 2E5,Canada,, 
Manitoba Institute of Trades and Technology,609 Erin St,"Winnipeg, Manitoba",R3G 2W1,Canada,, 
Manitoba Institute of Trades and Technology,7 Fultz Blvd,"Winnipeg, Manitoba",R3Y 1G4,Canada,, 
Manitoba Possible,285 Pembina Highway,"Winnipeg, Manitoba",R3L 2E1,Canada,Telephone: 204-975-3010,info@manitobapossible.ca
Manitoba School Improvement Program Inc.,1008 Watt Street ,"Winnipeg, Manitoba",R3G 2V3,Canada,Telephone: 204-949-1856,office@msip.ca
Manitoba School Improvement Program Inc.,1900 Portage Ave,"Winnipeg, Manitoba",R3J 0J1,Canada,Telephone: 204-949-1856,office@msip.ca
Manitoba School Improvement Program Inc.,3 Borrowman Pl,"Winnipeg, Manitoba",R3G 1M6,Canada,Telephone: 204-949-1856,office@msip.ca
Manitoba School Improvement Program Inc.,567 Bannatyne Ave,"Winnipeg, Manitoba",R3A 0G8,Canada,Telephone: 204-949-1856,office@msip.ca
Manitoba School Improvement Program Inc.,"770 St Mary's Rd, Winnipeg","Winnipeg, Manitoba",R2M 3N7,Canada,Telephone: 204-949-1856,office@msip.ca
Manitoba School Improvement Program Inc.,"99 Killarney Ave, Winnipeg","Winnipeg, Manitoba",R3T 3B3,Canada,Telephone: 204-949-1856,office@msip.ca
Maple Leaf Academy,"731 - 6th Avenue SW, Suite 200","Calgary, Alberta",T2P 0T9,Canada,Telephone: 403-262-8851, 
Mennonite Community Services of Southern Ontario,16 Talbot Street East,"Aylmer, Ontario",N5H 1H4,Canada,Telephone: 519-765-3020, 
Mennonite New Life Centre of Toronto,2737 Keele Street,"North York, Ontario",M3M 2E9,Canada,Telephone: 647-776-2057,sdmello@mnlct.org
Mennonite New Life Centre of Toronto,"3570 Victoria Park Ave, Suite 204","Scarborough, Ontario",M2H 3S2,Canada,Telephone: 416-291-3248,sdmello@mnlct.org
Merrymount Children's Centre,1119 Jalna Boulevard,"London, Ontario",N6A 4B3,Canada,Telephone: 519-434-6848,contact@merrymount.on.ca
MetroWorks,"7071 Bayers Road, Suite LL05","Halifax, Nova Scotia",B3L 2C2,Canada,Telephone: 902-453-6246,info@mymetroworks.ca
MFCW Education & Training Trust Fund (operating as UFCW Training Centre),530 Richmond Avenue East,"Brandon, Manitoba",R3G 0P1,Canada,Telephone: 204-775-8329,wmcgorum@ufcwtraining.mb.ca
MFL-Occupational Health Centre,167 Sherbrook Street,"Winnipeg, Manitoba",R3C 2B7,Canada,Telephone: 204-926-7905,khamilton@mflohc.mb.ca
Mission Community Services Society,33179 2nd Avenue,"Mission, British Columbia",V2V 1J9,Canada,Telephone: 604-826-3634, 
Mohawk College of Applied Arts and Technology,135 Fennell Avenue West ,"Hamilton, Ontario",L9C 1E9,Canada,Telephone: 905-575-2303, 
Moose Jaw Multicultural Council Inc.,60 Athabasca Street East  ,"Moose Jaw, Saskatchewan",S6H 0L2,Canada,Telephone: 306-693-4677,reception@mjmcinc.ca
MOSAIC - Multilingual Orientation Service Association for Immigrant Communities,1899 Willingdon Ave,"Burnaby, British Columbia",V5C 6E3,Canada,Telephone: 604-298-8201,info@mosaicbc.org
MOSAIC - Multilingual Orientation Service Association for Immigrant Communities,200A-7134 King George Bvld. ,"Surrey, British Columbia",V3W 5A3,Canada,Telephone: 778-591-9334,info@mosaicbc.org
MOSAIC - Multilingual Orientation Service Association for Immigrant Communities,206-2555 Commercial Drive,"Vancouver , British Columbia",V5N 4C1,Canada,Telephone: 604-708-3905,info@mosaicbc.org
MOSAIC - Multilingual Orientation Service Association for Immigrant Communities,304-2730 Commercial Drive,"Vancouver , British Columbia",V5N 5P4,Canada,Telephone: 604-684-8825,info@mosaicbc.org
MOSAIC - Multilingual Orientation Service Association for Immigrant Communities,5575 Boundary Road ,"Vancouver, British Columbia",V5R 2P9,Canada,Telephone: 604-522-3722,info@mosaicbc.org
MOSAIC - Multilingual Orientation Service Association for Immigrant Communities,5902 Kingsway,"Burnaby, British Columbia",V5J 1H2,Canada,Telephone: 604-438-8214,careerpaths@mosaicbc.org
MOSAIC - Multilingual Orientation Service Association for Immigrant Communities,7009 Kingsway,"Burnaby, British Columbia",V5E 1E5,Canada,Telephone: 604-636-0120,info@mosaicbc.org
MOSAIC - Multilingual Orientation Service Association for Immigrant Communities (VIPP Moving Ahead program),310-7155 Kingsway,"Burnaby, British Columbia",V5E 2V1,Canada,Telephone: 604-636-4712,info@mosaicbc.org
MOSAIC - Newcomer Family Resource Network Incorporated,397 Carlton Street,"Winnipeg, Manitoba",R3B 2K9,Canada,Telephone: 204-774-7311,vcavers@mosaicnet.ca
MOSAIC at School District 40 (Fraserside Community Services),"519 7th Street, 2nd floor Suites 245-246","New Westminster, British Columbia",V3M 6A7,Canada,Telephone: 604-254-0244, 
Mothers Matter Centre,508 - 1190 Melville Street,"Vancouver, British Columbia",V6E 3W1,Canada,Telephone: 604-676-8250,info@hippycanada.ca
Mount Carmel Clinic,886 Main Street   ,"Winnipeg, Manitoba",R2W 5L4,Canada,Telephone: 204-582-0311,bshoffner@mountcarmel.ca
Mount Pleasant Family Centre Society,2910 George Street,"Vancouver, British Columbia",V5T 4L9,Canada,Telephone: 604-872-6757, 
Mount Pleasant Neighbourhood House,800 East Broadway,"Vancouver, British Columbia",V5T 1Y1,Canada,Telephone: 604-879-8208, 
Moyo Health & Community Services,"7700 Hurontario Street, Suite 601","Brampton, Ontario",L6Y 4M3,Canada,Telephone: 905-361-0523, 
Multicultural and Immigrant Services Association of North Vancouver Island ,407A 5th St,"Courtenay, British Columbia",V9N 1J7,Canada,Telephone: 250-338-6359 or 1-855-805-0171, 
Multicultural and Immigrant Services Association of North Vancouver Island ,200 - 1170 Shoppers Row,"Campbell River, British Columbia",V9W 2C8,Canada,Telephone: 250-830-0171 or 1-855-805-0171, 
Multicultural Association Chaleur Region Inc.,325 Main Street ,"Bathurst, New Brunswick",E2A 1B1,Canada,Telephone: 506-547-7651,info@macr-amrc.ca
Multicultural Association of Carleton County Inc. (MACC),645-647 Main Street ,"Woodstock, New Brunswick",E7M 2C7,Canada,Telephone: 506-328-4690,staff@maccnb.ca
Multicultural Association of Charlotte County,"123 Milltown Boulevard, Suite 102","St. Stephen, New Brunswick",E3L 1G5,Canada,Telephone: 506-755-9295,info@ccmanb.com
Multicultural Association of Charlotte County,"19 Main Street, Unit 1","St. George, New Brunswick",E5C 3H9,Canada,Telephone: 506-755-9295,info@ccmanb.com
Multicultural Association of Fredericton Inc. (MCAF),28 Saunders Street,"Fredericton, New Brunswick",E3B 1N1,Canada,Telephone: 506-454-8292,mcaf@mcaf.nb.ca
Multicultural Council of Windsor and Essex County,245 Janette Avenue,"Windsor, Ontario",N9A 4Z2,Canada,Telephone: 519-255-1127,contact@themcc.com
Multicultural Council of Windsor and Essex County,7651 Tecumseh Road East,"Windsor, Ontario",N8T 3H1,Canada,Telephone: 519-948-3443,contact@themcc.com
Multicultural Family Resource Society,9538 107 Ave NW,"Edmonton, Alberta",T5E 4C6,Canada,Telephone: 780-938-1771, 
Multicultural Helping House Society,4802 Fraser Street ,"Vancouver, British Columbia",V5V 4H4,Canada,Telephone: 604-879-3277, 
Muslim Community Services,"150 Central Park Drive, Suite 304","Brampton, Ontario",L6T 2T9,Canada,Telephone: 905-790-1910, 
Muslim Community Services,197 County Court Blvd,"Brampton, Ontario",L6W 4P6,Canada,Telephone: 905-790-8482,services@bmccentre.org
Muslim Community Services,4120 Ridgeway Drive,"Mississauga, Ontario",L5L 5S9,Canada,Telephone: 905-828-4008, 
Neepawa and Area Immigrant Settlement Services,"342 Mountain Avenue, 2nd Floor","Neepawa, Manitoba",R0J 1H0,Canada,Telephone: 204-476-2055,don@neepawasettlement.com
New Brunswick Multicultural Council,"10 Civic Court, Unit 1","Chipman, New Brunswick",E4A 2H9,Canada,Telephone: 506-327-0103,culture@nbmc-cmnb.ca
New Brunswick Multicultural Council,144D Canada Street,"Saint-Quentin, New Brunswick",E8A 1G7,Canada,Telephone: 506-235-1804,culture@nbmc-cmnb.ca
New Brunswick Multicultural Council,"157 Water Street, Suite 802,P.O. Box 122","Campbellton, New Brunswick",E3N 3G1,Canada,Telephone: 506-789-7747,culture@nbmc-cmnb.ca
New Brunswick Multicultural Council,1808 Water Street,"Miramichi, New Brunswick",E1N 1B6,Canada,Telephone: 506-773-5272,culture@nbmc-cmnb.ca
"Comité d’accueil, d’intégration et d’établissement des nouveaux arrivants (CAIENA)",196 Hôtel-de-Ville Avenue,"Shippagan, New Brunswick",E8S 1M1,Canada,Telephone: 506-336-8888,coordinateur@caiena.ca 
New Brunswick Multicultural Council,"494 Queen Street, Suite 200","Fredericton, New Brunswick",E3B 1B6,Canada,Telephone: 506-453-1091,culture@nbmc-cmnb.ca
New Brunswick Multicultural Council,593 Main Street,"Sussex, New Brunswick",E4E 7H5,Canada,Telephone: 506-808-0154,culture@nbmc-cmnb.ca
New Brunswick Multicultural Council,"104 Irving Boulevard, Unit 1","Bouctouche, New Brunswick",E4S 3L5,Canada,Telephone: 506-743-1490,culture@nbmc-cmnb.ca
New Brunswick Multicultural Council,"25 Cartier Boulevard, Unit 145","Richibucto, New Brunswick",E4W 3W7,Canada,Telephone: 506-523-1842,culture@nbmc-cmnb.ca
New Canadians' Centre of Excellence Inc. - Leamington Branch,24 Oak Street East Units 7 & 8,"Leamington, Ontario",N8H 2C2,Canada,Telephone: 519-326-6224, 
New Canadians' Centre of Excellence Inc. - Library Settlement Partnership (LSP) - Budimir Library ,1310 Grand Marais Road West,"Windsor, Ontario",N9E 1E4,Canada,Telephone: 519-258-4076, 
New Canadians' Centre of Excellence Inc. - Library Settlement Partnership (LSP) - Central Library,185 Ouellette Avenue,"Windsor, Ontario",N9A 4M9,Canada,Telephone: 519-258-4076, 
New Canadians' Centre of Excellence Inc. - Library Settlement Partnership (LSP) - Forest Glade Optimist Library ,3211 Forest Glade Drive,"Windsor, Ontario",N8R 1W7,Canada,Telephone: 519-258-4076, 
New Canadians' Centre of Excellence Inc. - Library Settlement Partnership (LSP) - John Muir Branch,363 Mill Street,"Windsor, Ontario",N9C 1B1,Canada,Telephone: 519-258-4076, 
New Canadians' Centre of Excellence Inc. - Main Branch,660 Ouellette Avenue,"Windsor, Ontario",N9A 1C1,Canada,Telephone: 519-258-4076, 
New Canadians' Centre of Excellence Inc. - Midtown Branch,1214 Ottawa Street,"Windsor, Ontario",N8X 2E6,Canada,Telephone: 519-419-5461, 
New Canadians' Centre of Excellence Inc. - Windsor West Branch,3235 Sandwich Street,"Windsor, Ontario",N9C 1A9,Canada,Telephone: 519-254-2001, 
New Canadians Centre Peterborough,221 Romaine Street,"Peterborough, Ontario",K9J 2C3,Canada,Telephone: 705-743-0882,info@nccpeterborough.ca
New Canadians Centre Peterborough,"50 Covert Street, 2nd Floor","Cobourg, Ontario",K9A 2L6,Canada,Telephone: 905-377-8100, 
New Directions Vocational Testing & Counselling Services Ltd. ,100 - 20436 Fraser Hwy,"Langley, British Columbia",V3A 4G2,Canada,Telephone: 604-530-0535, 
New Directions Vocational Testing & Counselling Services Ltd. ,20443 Fraser Hwy,"Langley, British Columbia",V3A 5N9,Canada,Telephone: 778-366-7640,office@newdir.ca 
Newcomer Centre of Peel,"165 Dundas Street West, Suite 116","Mississauga, Ontario",L5B 2N6,Canada,Telephone: 905-306-0577, 
Newcomer Kitchen Inc,1033 College Street,"Toronto, Ontario",M6H 1A8,Canada,Telephone: 416-464-1864,info@newcomerkitchen.ca
Newcomer Women's Services Toronto,"489 Queen Street East, Unit 100","Toronto, Ontario",M1A 1V1,Canada,Telephone: 416-469-0196,info@newcomerwomen.org
Newcomers Employment Development Services (N.E.E.D.S.) Inc.,A - 251 Notre Dame Avenue  ,"Winnipeg, Manitoba",R3R 1N8,Canada,Telephone: 204-940-1260,needsinc@mts.net
Niagara Catholic District School Board - Niagara West Adult Learning Centre,4271 Queen Street,"Beamsville, Ontario",L0R 1B2,Canada,Telephone: 905-563-1515, 
Niagara Catholic District School Board - St. Ann Adult Learning Centre,5895 North Street,"Niagara Falls, Ontario",L2G 1J7,Canada,Telephone: 905-354-3531, 
Niagara College,135 Taylor Road,"Niagara-on-the-Lake, Ontario",L0S 1J0,Canada,Telephone: 905-641-2252, 
NorQuest College - Camrose,#7 - 5000 51 Avenue,"Camrose, Alberta",T4V 0V6,Canada,Telephone: 780-644-6000, 
NorQuest College - Edmonton,10215 - 108 Street,"Edmonton, Alberta",T5J 1L6,Canada,Telephone: 780-644-6000, 
Norquest College - Edmonton,11140-131st Street,"Edmonton, Alberta",T5M 1C1,Canada,Telephone: 780-644-6000, 
NorQuest College - Grande Prairie,11449 92 Street,"Grande Prairie, Alberta",T8X 1P4,Canada,Telephone: 780-644-6000, 
NorQuest College - Lloydminster,6612 35 Street,"Lloydminster, Alberta",T9V 3H1,Canada,Telephone: 780-644-6000, 
NorQuest College - Sherwood Park,401 Festival Lane,"Sherwood Park, Alberta",T8A 5P7,Canada,Telephone: 780-644-6000, 
NorQuest College - Whitecourt,4739 50 Avenue,"Whitecourt, Alberta",T7S 1N8,Canada,Telephone: 780-644-6000, 
North Bay and District Multicultural Centre,100 Main Street East,"North Bay, Ontario",P1B 1A8,Canada,Telephone: 705-495-8931 or toll-free 1-877-495-8931, 
North Bay and District Multicultural Centre,"119 Pine Street, Suite 10","Timmins, Ontario",P4N 2K3,Canada,Telephone: 705-269-8622, 
North West College,10702 Diefenbaker Drive,"North Battleford, Saskatchewan",S9A 4A8,Canada,Telephone: 306-937-5100,shelley.platten@nwrc.sk.ca
North York Community House,255 Ranee Avenue,"Toronto, Ontario",M6A 2P4,Canada,Telephone: 416-784-0920, 
North York Community House - Albion Heights Junior Middle School          ,45 Lynmont Rd,"Toronto, Ontario",M9V 3W9,Canada,Telephone: 416-394-7520, 
North York Community House - Beaumonde Heights Junior Middle School          ,70 Monterrey Dr,"Toronto, Ontario",M9V 1T1,Canada,Telephone: 416-394-7790, 
North York Community House - Beverly Heights Middle School          ,26 Troutbrooke Dr,"Toronto, Ontario",M3M 1S5,Canada,Telephone: 416-395-3000, 
North York Community House - Brookview Middle School           ,4505 Jane St,"Toronto, Ontario",M3N 2K7,Canada,Telephone: 416-395-2120, 
North York Community House - Burnhamthorpe Collegiate Institute,500 The East Mall,"Toronto, Ontario",M9B 2C4,Canada,Telephone: 416-394-7130, 
North York Community House - C.W. Jefferys Collegiate Institute,340 Sentinel Rd,"Toronto, Ontario",M3J 1T9,Canada,Telephone: 416-395-3170, 
North York Community House - Chalkfarm Public School,100 Chalkfarm Dr,"Toronto, Ontario",M3L 1L4,Canada,Telephone: 416-395-2160, 
North York Community House - Charles E Webster Public School ,1900 Keele St,"Toronto, Ontario",M6M 3X7,Canada,Telephone: 416-394-2250, 
North York Community House - Charles H Best Middle School,285 Wilmington Ave,"Toronto, Ontario",M3H 5K8,Canada,Telephone: 416-395-2170, 
North York Community House - Dante Alighieri Academy ,60 Playfair Avenue,"Toronto, Ontario",M6B 2P9,Canada,Telephone: 416-393-5522, 
North York Community House - Davisville Junior Public School,43 Millwood Rd,"Toronto, Ontario",M4S 1J6,Canada,Telephone: 416-393-0570, 
North York Community House - Daystrom Public School ,25 Daystrom Dr,"Toronto, Ontario",M9M 2A8,Canada,Telephone: 416-395-2280, 
North York Community House - Dixon Grove Junior Middle School,315 The Westway,"Toronto, Ontario",M9R 1H1,Canada,Telephone: 416-394-7940, 
North York Community House - Downsview Public School ,2829 Keele St,"Toronto, Ontario",M3M 2G7,Canada,Telephone: 416-395-2340, 
North York Community House - Downsview Secondary School ,7 Hawksdale Rd,"Toronto, Ontario",M3K 1W3,Canada,Telephone: 416-395-3200, 
North York Community House - Driftwood Public School ,265 Driftwood Ave,"Toronto, Ontario",M3N 2N6,Canada,Telephone: 416-395-2350, 
North York Community House - Dublin Heights Elementary and Middle School,100 Bainbridge Ave,"Toronto, Ontario",M3H 2K2,Canada,Telephone: 416-395-2360, 
North York Community House - Elia Middle School  ,215 Sentinel Rd,"Toronto, Ontario",M3J 1T7,Canada,Telephone: 416-395-3020, 
North York Community House - Elmbank Junior Middle Academy ,10 Pittsboro Dr,"Toronto, Ontario",M9V 3R4,Canada,Telephone: 416-394-7560, 
North York Community House - Emery Collegiate Institute/ Emery Adult Learning Centre ,3395 Weston Rd,"Toronto, Ontario",M9M2V9,Canada,Telephone: 416-395-3220, 
North York Community House - Etobicoke Collegiate Institute ,86 Montgomery Rd,"Toronto, Ontario",M9A 3N5,Canada,Telephone: 416-394-7840, 
North York Community House - Father Henry Carr Catholic Secondary School ,1760 Martin Grove,"Toronto, Ontario",M9V 3S4,Canada,Telephone: 416-393-5521, 
North York Community House - Firgrove Public School,270 Firgrove Cres,"Toronto, Ontario",M3N 1K8,Canada,Telephone: 416-395-2420, 
North York Community House - Fisherville Senior Public Schoo,425 Patricia Ave,"Toronto, Ontario",M2R 2N1,Canada,Telephone: 416-395-3030, 
North York Community House - Flemington Public School ,10 Flemington Rd,"Toronto, Ontario",M6A 2N4,Canada,Telephone: 416-395-2430, 
North York Community House - Forest Hill Collegiate Institute,730 Eglinton Ave W,"Toronto, Ontario",M5N 1B9,Canada,Telephone: 416-393-1860, 
North York Community House - Forest Hill Junior and Senior Public School,78 Dunloe Rd,"Toronto, Ontario",M5P 2T6,Canada,Telephone: 416-393-9335, 
North York Community House - George Anderson Public School,30 Geo. Anderson Dr,"Toronto, Ontario",M6M 2Y8,Canada,Telephone: 416-395-5000, 
North York Community House - George Harvey Collegiate Institute,1700 Keele St,"Toronto, Ontario",M6M 3W5,Canada,Telephone: 416-394-3180, 
North York Community House - George Syme Community School,69 Pritchard Ave,"Toronto, Ontario",M6N 1T6,Canada,Telephone: 416-394-2340, 
North York Community House - Gracedale Public School  ,186 Gracedale Blvd,"Toronto, Ontario",M9L 2C1,Canada,Telephone: 416-395-2480, 
North York Community House - Gracefield Public School ,177 Gracefield Ave,"Toronto, Ontario",M6L 1L7,Canada,Telephone: 416-395-2490, 
North York Community House - H J Alexander Community School,30 King St,"Toronto, Ontario",M9N 1K9,Canada,Telephone: 416-394-2359, 
North York Community House - Highfield Junior School ,85 Mount Olive Dr,"Toronto, Ontario",M9V 2C9,Canada,Telephone: 416-394-7510, 
North York Community House - Humber Summit Middle School  ,60 Pearldale Ave,"Toronto, Ontario",M9L 2G9,Canada,Telephone: 416-395-2570, 
North York Community House - James Cardinal McGuigan Catholic High School,1440 Finch Avenue West ,"Toronto, Ontario",M3J 3G3,Canada,Telephone: 416-393-5527, 
North York Community House - John D Parker Junior School ,202 Mount Olive Dr,"Toronto, Ontario",M9V 3Z5,Canada,Telephone: 416-394-7530, 
North York Community House - John Polanyi Collegiate Institute,640 Lawrence Ave W,"Toronto, Ontario",M6A 1B1,Canada,Telephone: 416-395-3303, 
North York Community House - Joyce Public School,26 Joyce Pky,"Toronto, Ontario",M6B 2S9,Canada,Telephone: 416-395-2600, 
North York Community House - Kingsview Village Junior School  ,1 York Rd,"Toronto, Ontario",M9R 3C8,Canada,Telephone: 416-394-7950, 
North York Community House - Kipling Collegiate Institute ,380 The Westway,"Toronto, Ontario",M9R 1H4,Canada,Telephone: 416-394-7930, 
North York Community House - Lamberton Public School,33 Lamberton Blvd,"Toronto, Ontario",M3J 1G6,Canada,Telephone: 416-395-9570, 
North York Community House - Lawrence Allen Centre,"700 Lawrence Avenue West, Suite 350","Toronto, Ontario",M6A 3B4,Canada,Telephone: 416-784-0920, 
North York Community House - Loretto College School,151 Rosemount Avenue ,"Toronto, Ontario",M6H 2N1,Canada,Telephone: 416-393-5511, 
North York Community House - Madonna Catholic Secondary School,20 Dubray Avenue ,"Toronto, Ontario",M3K 1V5,Canada,Telephone: 416-393-5506, 
North York Community House - Marshal McLuhan Catholic Secondary ,1107 Avenue Road,"Toronto, Ontario",M5N 3B1,Canada,Telephone: 416-393-5561, 
North York Community House - Martingrove Collegiate Institute ,50 Winterton Dr,"Toronto, Ontario",M9B 3G7,Canada,Telephone: 416-394-7110, 
North York Community House - Monsignor Fraser College,45 Norfinch Ave,"Toronto, Ontario",M9L 2J7,Canada,Telephone: 416-393-5558, 
North York Community House - Monsignor Percy Johnson Catholic High School,2170 Kipling Avenue ,"Toronto, Ontario",M9W 4K9,Canada,Telephone: 416-393-5535, 
North York Community House - North Albion Collegiate Institute ,2580 Kipling Ave,"Toronto, Ontario",M9V 3B2,Canada,Telephone: 416-394-7550, 
North York Community House - North Kipling Junior Middle School  ,2 Rowntree Rd,"Toronto, Ontario",M9V 5C7,Canada,Telephone: 416-394-6340, 
North York Community House - Northview Heights Secondary School ,550 Finch Ave W,"Toronto, Ontario",M2R 1N6,Canada,Telephone: 416-395-3290, 
North York Community House - Oakdale Park Middle School,315 Grandravine Dr,"Toronto, Ontario",M3N 1J5,Canada,Telephone: 416-395-3060, 
North York Community House - Our Lady of the Assumption Catholic School,125 Glenmount Avenue ,"Toronto, Ontario",M6B 3C2,Canada,Telephone: 416-393-5265, 
North York Community House - Parkfield Junior School,31 Redgrave Dr,"Toronto, Ontario",M9R 3T9,Canada,Telephone: 416-394-7960, 
North York Community House - Rockcliffe Middle School,400 Rockcliffe Blvd,"Toronto, Ontario",M6N 4R8,Canada,Telephone: 416-394-3100, 
North York Community House - Rockford Public School,60 Rockford Rd,"Toronto, Ontario",M2R 3A7,Canada,Telephone: 416-395-2820, 
North York Community House - Scarlett Heights Entrepreneurial Academy  ,15 Trehorne Dr,"Toronto, Ontario",M9P 1N8,Canada,Telephone: 416-394-7750, 
North York Community House - Smithfield Middle School ,175 Mount Olive Dr,"Toronto, Ontario",M9V 2E3,Canada,Telephone: 416-394-7540, 
North York Community House - St. Andrew Catholic School,2533 Kipling Avenue ,"Toronto, Ontario",M9V 3A8,Canada,Telephone: 416-393-5295, 
North York Community House - St. Augustine Catholic School ,98 Shoreham Drive ,"Toronto, Ontario",M3N 1S9,Canada,Telephone: 416-393-5328, 
North York Community House - St. Bernard Catholic School ,12 Duckworth St,"Toronto, Ontario",M6M 4W3,Canada,Telephone: 416-393-5261, 
North York Community House - St. Charles Garnier Catholic School,20 Stong Court ,"Toronto, Ontario",M3N 2X9,Canada,Telephone: 416-393-5363, 
North York Community House - St. Francis de Sales Catholic School,333 Firgrove Crescent ,"Toronto, Ontario",M3N 1K9,Canada,Telephone: 416-393-5366, 
North York Community House - St. Francis Xavier Catholic School,53 Gracefield Avenue ,"Toronto, Ontario",M6L 1L3,Canada,Telephone: 416-393-5271, 
North York Community House - St. Jane Frances Catholic School,2745 Jane Street ,"Toronto, Ontario",M3L 2E8,Canada,Telephone: 416-393-5296, 
North York Community House - St. Jude Catholic School,3251 Weston Road ,"Toronto, Ontario",M9M 2T9,Canada,Telephone: 416-393-5279, 
North York Community House - St. Margaret Catholic School ,85 Carmichael Ave ,"Toronto, Ontario",M5M 2X1,Canada,Telephone: 416-393-5249, 
North York Community House - St. Robert Catholic School,70 Bainbridge Avenue ,"Toronto, Ontario",M3H 2K2,Canada,Telephone: 416-393-5297, 
North York Community House - St. Thomas Aquinas Catholic School  ,636 Glenholme Ave,"Toronto, Ontario",M6E 3G9,Canada,Telephone: 416-393-5236, 
North York Community House - St. Wilfred Catholic School ,1685 Finch Ave W,"Toronto, Ontario",M3J 2G8,Canada,Telephone: 416-939-5313, 
North York Community House - Thistletown Collegiate Institute ,20 Fordwich Cres,"Toronto, Ontario",M9W 2T4,Canada,Telephone: 416-394-7710, 
North York Community House - Topcliff Public School ,65 Topcliff Ave,"Toronto, Ontario",M3N 1L6,Canada,Telephone: 416-395-2940, 
North York Community House - Tumpane Public School ,48 Tumpane St,"Toronto, Ontario",M3M 1L8,Canada,Telephone: 416-395-2950, 
North York Community House - West Humber Collegiate Institute ,1675 Martin Grove Rd,"Toronto, Ontario",M9V 3S3,Canada,Telephone: 416-394-7570, 
North York Community House - West Humber Junior Middle School ,15 Delsing Dr,"Toronto, Ontario",M9W 4S7,Canada,Telephone: 416-394-7760, 
North York Community House - West Preparatory Junior Public School,70 Ridge Hill Dr,"Toronto, Ontario",M6C 2J6,Canada,Telephone: 416-393-1633, 
North York Community House - Weston Collegiate Institute,100 Pine St,"Toronto, Ontario",M9N 2Y9,Canada,Telephone: 416-394-3250, 
North York Community House - Westview Centennial Secondary School,755 Oakdale Rd,"Toronto, Ontario",M3N 1W7,Canada,Telephone: 416-395-3320, 
North York Community House - William Lyon Mackenzie Collegiate Institute,20 Tillplain Rd,"Toronto, Ontario",M3H 5R2,Canada,Telephone: 416-395-3330, 
North York Community House - Wilmington Elementary School,330 Wilmington Ave,"Toronto, Ontario",M3H 5L1,Canada,Telephone: 416-395-2180, 
North York Community House - Yorkdale Adult Learning Centre/ Yorkdale Secondary School,38 Orfus Rd,"Toronto, Ontario",M6A 1L6,Canada,Telephone: 416-395-3350, 
North York Community House - Yorkwoods Public Library,1785 Finch Avenue West,"Toronto, Ontario",M3N 1M6,Canada,Telephone: 416-395-5980, 
North York Community House - Yorkwoods Public School ,25 Yorkwoods Gate,"Toronto, Ontario",M3N 1K1,Canada,Telephone: 416-395-2990, 
North York Community House (Bathurst Finch HUB),"540 Finch Avenue West, Suite 138","Toronto, Ontario",M2R 1N7,Canada,Telephone: 416-636-2600, 
Northumberland County,555 Courthouse Road  ,"Cobourg, Ontario",K9A5J6,Canada,Telephone: 905-375-7047,ojedae@northumberlandcounty.ca
Northwest London Resource Centre ,27A-1225 Wonderland Road North,"London, Ontario",N6G 2V9,Canada,Telephone: 519-471-8444,info@nwlrc.ca
Northwest Resource Centre for Newcomers Inc.,59 Queen Street,"Edmundston , New Brunswick",E3V 1A4,Canada,Telephone: 506-735-0604,info@crna.ca
NWT Literacy Council,"5122 48th Street, P.O. Box 761","Yellowknife, Northwest Territories",X1A 2N6,Canada,Telephone: 867-873-9262,nwtliteracy@nwtliteracy.ca
Oakville Public Library Board,120 Navy Street  ,"Oakville, Ontario",L6J 2Z4,Canada,Telephone: 905-815-2042,oplreference@oakville.ca
OCASI - Ontario Council of Agencies Serving Immigrants,"110 Eglinton Ave W, Suite 200  ","Toronto, Ontario",M4R 1A3,Canada,Telephone: 416-322-4950,ddouglas@ocasi.org
Okanagan College,1401 1st St West,"Revelstoke, British Columbia",V0E 2S0,Canada,Telephone: 250-837-4235,mekline@okanagan.bc.ca
Okanagan College,2552 10th Avenue,"Salmon Arm, British Columbia",V1E 2S4,Canada,Telephone: 250-832-2126,mekline@okanagan.bc.ca
Opportunities for Employment Inc,300-294 Portage Avenue,"Winnipeg, Manitoba",R3C 0B9,Canada,Telephone: 204-925-3490, 
Options Community Services Society,13520 78 Avenue,"Surrey, British Columbia",V3W 8J6,Canada,Telephone: 604-572-4060, 
Options Community Services Society,9815 - 140th Street,"Surrey, British Columbia",V3W 8J6,Canada,Telephone: 604-572-4060, 
Ottawa Catholic School Board - Holy Trinity High School,180 Katimavik Road,"Ottawa, Ontario",K2L 4A7,Canada,Telephone: 613-591-9955,info@ocsb.ca
Ottawa Catholic School Board - Queen of Angels Adult School,461 Heron Road,"Ottawa, Ontario",K1V 9V1,Canada,Telephone: 613-731-3237,info@ocsb.ca
Ottawa Catholic School Board - St. Joseph's Adult School,330 Lajoie Street ,"Ottawa, Ontario",K1L 7H4,Canada,Telephone: 613-741-6808,info@ocsb.ca
Ottawa Catholic School Board - St.Patrick's Adult School,290 Nepean Street,"Ottawa, Ontario",K1R 5G3,Canada,Telephone: 613-594-5773,info@ocsb.ca
Ottawa Catholic School Board - St.Patrick's Adult School,893 Admiral ave,"Ottawa, Ontario",K1Z 6L6,Canada,Telephone: 613-741-6808, info@ocsb.ca
Ottawa Chinese Community Service Centre,"400 Cooper Street, Suite 2000","Ottawa, Ontario",K2P 2N1,Canada,Telephone: 613-235-4875, 
Ottawa Community Immigrant Services Organization,1800 Bank Street 3rd Floor,"Ottawa, Ontario",K1V 0W3,Canada,Telephone: 613-249-0006, 
Ottawa Community Immigrant Services Organization,945 Wellington Street  ,"Ottawa, Ontario",K1Y 2X5,Canada,Telephone: 613-725-5671,mentorship@ociso.org
Ottawa Community Immigrant Services Organization,959 Wellington Street West,"Ottawa, Ontario",K1Y 2X5,Canada,Telephone: 613-725-0202,info@ociso.org
Ottawa-Carleton District School Board,145 Woodridge Crescent,"Ottawa, Ontario",K2B 7T2,Canada,Telephone: 613-239-2737,communications@ocdsb.ca
Ottawa-Carleton District School Board,1645 Woodroffe Avenue,"Ottawa, Ontario",K2B 7T2,Canada,Telephone: 613-239-2737,communications@ocdsb.ca
Ottawa-Carleton District School Board,440 Albert Street,"Ottawa, Ontario",K1R 5B5,Canada,Telephone: 613-239-2737,communications@ocdsb.ca
Ottawa-Carleton District School Board,485 Donald Street,"Ottawa, Ontario",K1K 3A7,Canada,Telephone: 613-239-2737,communications@ocdsb.ca
Pacific Community Resources Society ,#114-13479 76 Ave,"Surrey, British Columbia",V3W 2W3,Canada,Telephone: 604-592-6200,ccyh@pcrs.ca
Pacific Immigrant Resource Society,1874 Kingsway,"Vancouver, British Columbia",V5N 2S7,Canada,Telephone: 604-298-5888,info@pirs.bc.ca
Parkdale Intercultural Association,1257 Queen Street West,"Toronto, Ontario",M6K 1L5,Canada,Telephone: 416-536-4420, 
Parkdale Intercultural Association,1365 Queen Street West,"Toronto, Ontario",M6K 1L5,Canada,Telephone: 416-536-1783, 
Parkdale Intercultural Association -  Parkdale Community Information Centre  ,1303 Queen Street West,"Toronto, Ontario",M6K 1L6,Canada,Telephone: 416-393-7689, 
Parkland College,200 Prystai Way,"Yorkton, Saskatchewan",S3N 4G4,Canada,Telephone: 306-786-6766,info@parklandcollege.sk.ca
Peel Career Assessment Services Inc.,975 Meyerside Drive,"Mississauga, Ontario",L5T 1P9,Canada,Telephone: 905-670-1967, 
Peel District School Board,10 North Park Drive,"Brampton, Ontario",L6S 3M1,Canada,Telephone: 905-456-1906,LearnESL@peelsb.com
Peel District School Board,510 Balmoral Drive,"Brampton, Ontario",L6T 1W4,Canada,Telephone: 905-793-2400,LearnESL@peelsb.com
Peel District School Board,7700 Hurontario Street,"Brampton, Ontario",L6Y 4M3,Canada,Telephone: 905-457-4287,LearnESL@peelsb.com
Peel District School Board (Central Board Office),5650 Hurontario Street,"Brampton, Ontario",L5R 1C6,Canada,Telephone: 905-890-1010, 
Peel District School Board (We Welcome the World Centres),100 Elm Drive ,"Mississauga, Ontario",L5B 1L9,Canada,Telephone: 905-270-6000,LearnESL@peelsb.com
Peel District School Board (We Welcome the World Centres),25 Kings Cross Road,"Brampton, Ontario",L6T 3X9,Canada,Telephone: 905-270-6000,welcomecentre@peelsb.com
Peel District School Board (We Welcome the World Centres),3131 Morning Star Drive,"Brampton, Ontario",L4T 1X3,Canada,Telephone: 905-677-0300,welcomecentre@peelsb.com
Peel Multicultural Council,6630 Turner Valley Road,"Mississauga, Ontario",L5N 2P1,Canada,Telephone: 905-819-1144,pmc@peelmc.com
Penticton & District Multicultural Society,340 Ellis Street,"Penticton, British Columbia",V2A 4L7,Canada,Telephone: 250-492-6299,cherryf@soics.ca
People of the Dawn Indigenous Friendship Centre,90 Main Street,"Stephenville, Newfoundland and Labrador",A2N 1J3,Canada,Telephone: 709-643-3902,admin@pdifc.com
Pictou County Regional Enterprise Network,112 Provost Street,"New Glasgow, Nova Scotia",B2H 2P4,Canada,Telephone: 902-755-2244,office@pcren.ca
Pinecrest-Queensway Community Health Centre,"1365 Richmond Road, 2nd Floor","Ottawa, Ontario",K2B 6R7,Canada,Telephone: 613-288-3880,employment.info@pqchc.com
Pinecrest-Queensway Community Health Centre,2525 Carling Ave,"Ottawa, Ontario",K2B 7Z2,Canada,Telephone: 613-288-3880,employment.info@pqchc.com
Pluri-elles (Manitoba) inc. ,114-420 Des Meurons Street ,"Winnipeg , Manitoba",R2H 2N9,Canada,Telephone: 204-233-1735 ext. 201,pluridg@pluri-elles.mb.ca
Polycultural Immigrant & Community Services,"17 Four Seasons Place, Unit 102","Etobicoke, Ontario",M9B 6E6,Canada,Telephone: 905-276-0008,info@polycultural.org
Polycultural Immigrant & Community Services,2225 Erin Mills Parkway,"Mississauga, Ontario",L5K 1TB,Canada,Telephone: 844-493-5839,info@polycultural.org
Polycultural Immigrant & Community Services,"27 Roncesvalles Avenue, Suite 407","Toronto, Ontario",M6R 3B2,Canada,Telephone: 416-533-9471,info@polycultural.org
Polycultural Immigrant & Community Services,"3225 Eglinton Avenue East, Suite 101/111","Toronto, Ontario",M1J 2H7,Canada,Telephone: 416-261-4901,info@polycultural.org
Polycultural Immigrant & Community Services,3363 Bloor Street West,"Toronto, Ontario",M8X 1G2,Canada,Telephone: 416-233-0055,info@polycultural.org
Polycultural Immigrant & Community Services,3660A Midland Avenue,"Toronto, Ontario",M1V 0B8,Canada,Telephone: 416-439-1293,info@polycultural.org
Portage Learning and Literacy Centre,110 Saskatchewan Avenue West   ,"Portage la Prairie, Manitoba",R1N 0M1,Canada,Telephone: 204-857-6304,info@pllc.ca
Portail de l'Immigrant Association de Calgary,830 - 840 7th Ave SW,"Calgary, Alberta",T2P 3G2,Canada,Telephone: 403-668-0299,info@pia-calgary.ca
Progress Career Planning Institute,1200 Markham Road,"Toronto, Ontario",M1E 3C3,Canada,Telephone: 416-439-8848,pcpi@careerplan.net
Progress Career Planning Institute,4410 Kingston Road,"Scarborough, Ontario",M1E 2N5,Canada, ,pcpi@careerplan.net
Progressive Inter-Cultural Community Services Society (PICS),205-12725 80th Avenue,"Surrey, British Columbia",V3W 3A6,Canada,Telephone: 604-596-7722, 
Project Abraham,64 Harnworth Drive,"Toronto, Ontario",M2H 3C2,Canada,Telephone: 416-756-9760,debbierose@projectabraham.ca
PRUDE Inc.,"165 Union Street, Suite 301","Saint John, New Brunswick",E2L 5C7,Canada,Telephone: 506-634-3088,info@prudeinc.org
PTP Adult Learning and Employment Programs,300-5353 Dundas St W.,"Toronto, Ontario",M9B 6H8,Canada,Telephone: 416-239-7309,barbaram@ptp.ca
Punjabi Community Health Services,"2980 Drew Road, Unit 241 ","Mississauga, Ontario",L4T 0A7,Canada,Telephone: 905-403-8860,info@pchs4u.com
Punjabi Community Health Services,50 Sunny Meadow Boulevard,"Brampton, Ontario",L6R 1X5,Canada,Telephone: 905-677-0889,info@pchs4u.com
Quinte United Immigrant Services,"345 College Street East, Unit 2","Belleville, Ontario",K8N 5S7,Canada,Telephone: 613-968-7723,info@quinteimmigration.ca
Rainbow Refugee Society,1170 Bute St  ,"Vancouver, British Columbia",V6E 1Z6,Canada,Telephone: 604-704-7526,operations@rainbowrefugee.ca
REACH Centre Association,505-1750 10th Ave,"Vancouver, British Columbia",V5N 5K4,Canada,Telephone: 604-254-6468, 
REACH Edmonton Council,901 - 10025 106 St NW  ,"Edmonton, Alberta",T5J 1G4,Canada,Telephone: 780-498-1231, 
Reception House Waterloo Region,101 David Street,"Kitchener, Ontario",N2G 1Y1,Canada,Telephone: 519-896-1736,info@receptionhouse.ca
Regina Immigrant Women Centre,1801 Toronto Street,"Regina, Saskatchewan",S4P1M7,Canada,Telephone: 306-359-6514, 
Regina Open Door Society,2314 11th Avenue,"Regina, Saskatchewan",S4P 0K1,Canada,Telephone: 306-352-3500, 
Regina Open Door Society Inc.,2314 11th Avenue - 1st floor  ,"Regina, Saskatchewan",S4P 0K1,Canada,Telephone: 306-352-3500,osn@rods.sk.ca
Regional Connections Inc.,2-295 Perry Street,"Winkler, Manitoba",R6W 0K9,Canada,Telephone: 204-325-4059,info@regionalconnections.ca
Regional Connections Inc.,34 Stephen Street,"Morden, Manitoba",R6M 2G3,Canada,Telephone: 204-822-4387,info@regionalconnections.ca
Regional Connections Inc.,"58 2nd Street NE, Unit B","Altona, Manitoba",R0G 0B0,Canada,Telephone: 204-324-6858,info@regionalconnections.ca
Regional Connections Inc.,30 1st Avenue NE,"Dauphin, Manitoba",R7N 1A4,Canada,Telephone: 204-647-0693,info@regionalconnections.ca
Réseau de développement économique et d'employabilité Canada (RDÉE) ,"1 Nicholas St, Suite 606  ","Ottawa, Ontario",K1N 7B7,Canada,Telephone: 613-244-7308,info@rdee.ca
Rexdale Women's Centre,1530 Albion Rd.,"Toronto, Ontario",M9V 1B4,Canada,Telephone: 416-745-0062, 
Rexdale Women's Centre,1620 Albion Road,"Toronto, Ontario",M9V 4B4,Canada,Telephone: 416-745-0062, 
Rexdale Women's Centre,"21 Panorama Court, #23","Toronto, Ontario",M9V 4E3,Canada,Telephone: 416-745-0062, 
Rexdale Women's Centre,220 Attwell Drive,"Toronto, Ontario",M9W 5B2,Canada,Telephone: 416-745-0062, 
Rexdale Women's Centre,"222 Dixon Road, Suite 303","Toronto, Ontario",M9P 3S5,Canada,Telephone: 416-645-0472, 
Rexdale Women's Centre,"2291 Kipling Avenue, Suite #123","Toronto, Ontario",M9W 4L6,Canada,Telephone: 416-745-0062, 
Rexdale Women's Centre,30 Barrhead Cres,"Toronto, Ontario",M9W 3Z7,Canada,Telephone: 416-745-0062, 
Rexdale Women's Centre,34 Kenton Dr,"Toronto, Ontario",M2R 2H8,Canada,Telephone: 416-745-0062, 
Rexdale Women's Centre,"4400 Jane St., #108","Toronto, Ontario",M3N 2K4,Canada,Telephone: 416-745-0062, 
Rexdale Women's Centre,"925 Albion Road, Suite 309","Toronto, Ontario",M9V 1A6,Canada,Telephone: 416-745-0062, 
Rexdale Women's Centre - Ahmaddiya Abode of Peace,"3001 Finch Avenue West, ","Toronto, Ontario",M9M 3A9,Canada,Telephone: 416-745-0062, 
Rexdale Women's Centre - Albion Library,1515 Albion Road,"Toronto, Ontario",M9V 1B2,Canada,Telephone: 416-745-0062, 
Rexdale Women's Centre - Brookview Middle School,4505 Jane Street,"Toronto, Ontario",M3N2K7,Canada,Telephone: 416-745-0062, 
Rexdale Women's Centre - Emery Adult Learning School,3395 Weston Road,"Toronto, Ontario",M9M 2V9,Canada,Telephone: 416-745-0062, 
Rexdale Women's Centre - Humberwood Community Centre/library ,85 Humberwood Blvd,"Toronto, Ontario",M9W 7A6,Canada,Telephone: 416-745-0062, 
Rexdale Women's Centre - Kingsview Village Junior School,1 York Road,"Toronto, Ontario",M9R 3C8,Canada,Telephone: 416-745-0062, 
Rexdale Women's Centre - Kipling Collegiate Institute,"380 The Westway, ","Toronto, Ontario",M9R 1H4,Canada,Telephone: 416-745-0062, 
Rexdale Women's Centre - North Kipling Community Centre,2 Rowntree Road,"Toronto, Ontario",M9V 5C7,Canada,Telephone: 416-745-0062, 
Rexdale Women's Centre - Rexdale Library,"2243 Kipling Avenue, ","Toronto, Ontario",M9W 4L5,Canada,Telephone: 416-745-0062, 
Rexdale Women's Centre - Richview Library,1806 Islington Avenue,"Toronto, Ontario",M9L 2K6,Canada,Telephone: 416-745-0062, 
Rexdale Women's Centre - TARIC Islamic Centre,99 Beverly Hills Drive,"Toronto, Ontario",M3L 1A2,Canada,Telephone: 416-745-0062, 
Rexdale Women's Centre - Woodview Park Library Library,"16 Bradstock Road, ","Toronto, Ontario",M9M 1N8,Canada,Telephone: 416-745-0062, 
Richmond Family Place Society,8660 Ash Street,"Richmond, British Columbia",V6Y 2S3,Canada,Telephone: 604-833-5017, 
Richmond Multicultural Community Services Society,210 – 7000 Minoru Boulevard,"Richmond, British Columbia",V6Y 3Z5,Canada,Telephone: 604-279-7160, 
Ryerson University,350 Victoria Street  ,"Toronto, Ontario",M5B2K3,Canada,Telephone: 416-979-5000, 
S.U.C.C.E.S.S,27 West Pender Street,"Vancouver, British Columbia",V6B 2T2,Canada,Telephone: 604-638-9199, 
S.U.C.C.E.S.S Richmond Language Service Centre,200-8171 Alexandra Rd,"Richmond, British Columbia",V6X 1C3,Canada,Telephone: 604-638-9981, 
S.U.C.C.E.S.S.,1163 Pinetree Way,"Coquitlam, British Columbia",V3B 8A9,Canada,Telephone: 604-468-6060, 
S.U.C.C.E.S.S.,200-5172 Kingsway,"Burnaby, British Columbia",V5H 2E6,Canada,Telephone: 604-430-1899, 
S.U.C.C.E.S.S.,206-10090 152nd Street,"Surrey, British Columbia",V3R 8X8,Canada,Telephone: 604-588-6869, 
S.U.C.C.E.S.S.,209 -  10142 101 Avenue,"Fort St. John, British Columbia",V1J 2B3,Canada,Telephone: 250-785-5323, 
S.U.C.C.E.S.S.,220-7000 Minoru Boulevard,"Richmond, British Columbia",V6Y 3Z5,Canada,Telephone: 604-279-7180, 
S.U.C.C.E.S.S.,28 West Pender Street,"Vancouver, British Columbia",V6B 1R6,Canada,Telephone: 604-408-7272, 
S.U.C.C.E.S.S. - Fraser Social Service Centre,205-5838 Fraser Street,"Vancouver, British Columbia",V5W 2Z5,Canada,Telephone: 604-324-8300, 
S.U.C.C.E.S.S. - Granville Social Service Centre,300-8268 Granville Street ,"Vancouver, British Columbia",V6P 4Z4,Canada,Telephone: 604-323-0901, 
S.U.C.C.E.S.S. at The Old Barn Community Centre,6308 Thunderbird Boulevard,"Vancouver, British Columbia",V6T 1Z4,Canada,Telephone: 604-827-4469, 
SAAMIS Immigration Services Association,659 3rd Street S.E,"Medicine Hat, Alberta",T1A 0H4,Canada,Telephone: 403-504-1188,info@saamisimmigration.ca
Saskatchewan Abilities Council - Partners in Settlement & Integration,"162 Ball Road, P.O. Box 5011","Yorkton, Saskatchewan",S3N 3Z4,Canada,Telephone: 306-782-2463,emontesclaros@abilitiescouncil.sk.ca
Saskatchewan Intercultural Association,601B 1st Ave North,"Saskatoon, Saskatchewan",S7K 1X7,Canada,Telephone: 306-978-1818, 
Saskatoon Open Door Society Inc.,100-129 3rd Ave North ,"Saskatoon, Saskatchewan",S7K 2H4,Canada,Telephone: 306-653-4464,skopendoor@sods.sk.ca
Saskatoon Open Door Society Inc.,247 1st Ave N,"Saskatoon, Saskatchewan",S7K 1X2,Canada,Telephone: 306-653-4464, 
Sault Community Information Career Centre,503 Queen Street East,"Sault Ste Marie, Ontario",P6A 2A2,Canada,Telephone: 705-759-0909, 
Scadding Court Community Centre,707 Dundas Street West,"Toronto, Ontario",M5T 2W6,Canada,Telephone: 416-392-0335,scccinfo@scaddingcourt.org
School District No. 23 - Central Okanagan,1940 Underhill Street,"Kelowna, British Columbia",V1X 5X7,Canada,Telephone: 250-470-3210, 
School District No. 35 - Langley,4875 222nd Street,"Langley, British Columbia",V3A 3Z7,Canada,Telephone: 604-534-7891, 
School District No. 36 - Surrey,120-7525 King George Boulevard,"Surrey, British Columbia",V3W 5A8,Canada,Telephone: 604-543-3060, 
School District No. 37 - Delta,4585 Harvest Drive,"Ladner, British Columbia",V4K 5B4,Canada,Telephone: 604-952-5323, 
School District No. 38 - Richmond,10300 Seacote Road,"Richmond, British Columbia",V7A 4B2,Canada,Telephone: 604-668-6000, 
School District No. 38 - Richmond,12091 Cambie Road,"Richmond, British Columbia",V6V 1G5,Canada,Telephone: 604-668-6000, 
School District No. 38 - Richmond,4151 Jacombs Road,"Richmond, British Columbia",V6V 1N7,Canada,Telephone: 604-668-6000, 
School District No. 38 - Richmond,5011 Granville Ave.,"Richmond, British Columbia",V7C 1E6,Canada,Telephone: 604-668-6000, 
School District No. 38 - Richmond,6480 Blundell Road,"Richmond, British Columbia",V7C 1H8,Canada,Telephone: 604-668-6000, 
School District No. 38 - Richmond,7360 Lombard Road,"Richmond, British Columbia",V7C 3N1,Canada,Telephone: 604-668-6000, 
School District No. 38 - Richmond,7811 Granville Avenue,"Richmond, British Columbia",V6Y 3E3,Canada,Telephone: 604-668-6000, 
School District No. 38 - Richmond,8311 Garden City Road,"Richmond, British Columbia",V6Y 2P1,Canada,Telephone: 604-668-6000, 
School District No. 38 - Richmond,9200 No. 1 Road,"Richmond, British Columbia",V7E 6L5,Canada,Telephone: 604-668-6000, 
School District No. 38 - Richmond,9331 Diamond Road,"Richmond, British Columbia",V7E 1P5,Canada,Telephone: 604-668-6000, 
School District No. 41 - Burnaby ,1075 Stratford Avenue,"Burnaby, British Columbia",V5B3X9,Canada,Telephone: 604-296-6900, 
School District No. 41 - Burnaby ,1351 South Gilmore Avenue,"Burnaby, British Columbia",V5C4S8,Canada,Telephone: 604-296-6900, 
School District No. 41 - Burnaby ,1455 Delta Avenue,"Burnaby, British Columbia",V5B3G4,Canada,Telephone: 604-296-6900, 
School District No. 41 - Burnaby ,2176 Duthie Avenue,"Burnaby, British Columbia",V5A2S2,Canada,Telephone: 604-296-6900, 
School District No. 41 - Burnaby ,2200 Sperling Avenue,"Burnaby, British Columbia",V5B 4K7,Canada,Telephone: 604-296-6900, 
School District No. 41 - Burnaby ,2740 Beaverbrook Crescent,"Burnaby, British Columbia",V3J 7B6,Canada,Telephone: 604-296-6900, 
School District No. 41 - Burnaby ,350 South Holdom Avenue,"Burnaby, British Columbia",V5B3V1,Canada,Telephone: 604-296-6900, 
School District No. 41 - Burnaby ,3883 Rumble Street,"Burnaby, British Columbia",V5J 1Z5,Canada,Telephone: 604-296-6900, 
School District No. 41 - Burnaby ,3963 Brandon Street,"Burnaby, British Columbia",V5G2P6,Canada,Telephone: 604-296-6900, 
School District No. 41 - Burnaby ,4343 Smith Avenue,"Burnaby, British Columbia",V5G 2V5,Canada,Telephone: 604-664-8645, 
School District No. 41 - Burnaby ,4375 Pandora Street,"Burnaby, British Columbia",V5C2B6,Canada,Telephone: 604-296-6900, 
School District No. 41 - Burnaby ,4404 Sardis Street,"Burnaby, British Columbia",V5H 1K7,Canada,Telephone: 604-664-8652, 
School District No. 41 - Burnaby ,4433 Moscrop Street,"Burnaby, British Columbia",V5G 2G3,Canada,Telephone: 604-664-8575, 
School District No. 41 - Burnaby ,4446 Watling Street,"Burnaby, British Columbia",V5J 5H3,Canada,Telephone: 604-296-6900, 
School District No. 41 - Burnaby ,4567 Imperial Street,"Burnaby, British Columbia",V5J 1B7,Canada,Telephone: 604-664-8344, 
School District No. 41 - Burnaby ,4600 Parker Street,"Burnaby, British Columbia",V5C 3E2,Canada,Telephone: 604-296-6900, 
School District No. 41 - Burnaby ,4715 Pandora Street,"Burnaby, British Columbia",V5C2C2,Canada,Telephone: 604-296-6900, 
School District No. 41 - Burnaby ,4750 Imperial Street,"Burnaby, British Columbia",V5J 1C2,Canada,Telephone: 604-569-0951, 
School District No. 41 - Burnaby ,4850 Irmin Street,"Burnaby, British Columbia",V5J 1Y2,Canada,Telephone: 604-664-8784, 
School District No. 41 - Burnaby ,4861 Canada Way,"Burnaby, British Columbia",V5G1L7,Canada,Telephone: 604-296-6900, 
School District No. 41 - Burnaby ,50 S.Gilmore Avenue,"Burnaby, British Columbia",V5C4P5,Canada,Telephone: 604-296-6900, 
School District No. 41 - Burnaby ,510 Duncan Avenue,"Burnaby, British Columbia",V5B4L9,Canada,Telephone: 604-296-6900, 
School District No. 41 - Burnaby ,5325 Kincaid Street,"Burnaby, British Columbia",V5G 1W2,Canada,Telephone: 604-296-6900, 
School District No. 41 - Burnaby ,5455 Rumble Street,"Burnaby, British Columbia",V5J 2B7,Canada,Telephone: 604-664-8560, 
School District No. 41 - Burnaby ,5490 Eglinton Street,"Burnaby, British Columbia",V5G2B2,Canada,Telephone: 604-296-6900, 
School District No. 41 - Burnaby ,5787 Marine Drive,"Burnaby, British Columbia",V5J3H1,Canada,Telephone: 604-296-6900, 
School District No. 41 - Burnaby ,5858 Clinton Street,"Burnaby, British Columbia",V5J2M3,Canada,Telephone: 604-296-6900, 
School District No. 41 - Burnaby ,6011 Deer Lake  Parkway,"Burnaby, British Columbia",V5G0A9,Canada,Telephone: 604-296-6900, 
School District No. 41 - Burnaby ,6055 Halifax Street,"Burnaby, British Columbia",V5B2P4,Canada,Telephone: 604-296-6900, 
School District No. 41 - Burnaby ,6060 Marlborough Avenue,"Burnaby, British Columbia",V5H 3L7,Canada,Telephone: 604-664-8758, 
School District No. 41 - Burnaby ,6066 Buckingham Avenue,"Burnaby, British Columbia",V5E 2A4,Canada,Telephone: 604-296-6900, 
School District No. 41 - Burnaby ,6098 Nelson Avenue,"Burnaby, British Columbia",V5H 2T9,Canada,Telephone: 604-664-7230, 
School District No. 41 - Burnaby ,6100 Willingdon Avenue,"Burnaby, British Columbia",V5H 4N5,Canada,Telephone: 604-436-5400, 
School District No. 41 - Burnaby ,6166 Imperial Street,"Burnaby, British Columbia",V5J 1G5,Canada,Telephone: 604-664-8886, 
School District No. 41 - Burnaby ,6512 Brantford Avenue,"Burnaby, British Columbia",V5E 2S1,Canada,Telephone: 604-296-6900, 
School District No. 41 - Burnaby ,6907 Gilley Avenue,"Burnaby, British Columbia",V5J 1G5,Canada,Telephone: 604-296-6858, 
School District No. 41 - Burnaby ,6990 Aubrey Street,"Burnaby, British Columbia",V5B 2E5,Canada,Telephone: 604-664-8743, 
School District No. 41 - Burnaby ,7014 Stride Avenue,"Burnaby, British Columbia",V3N 1T4,Canada,Telephone: 604-664-8854, 
School District No. 41 - Burnaby ,7355 Canada Way,"Burnaby, British Columbia",V3N 4Z6,Canada,Telephone: 604-257-4415, 
School District No. 41 - Burnaby ,7355 Morley Street,"Burnaby, British Columbia",V5J 1Y2,Canada,Telephone: 604-664-8774, 
School District No. 41 - Burnaby ,7502 Second Street,"Burnaby, British Columbia",V3N 3R5,Canada,Telephone: 604-296-6900, 
School District No. 41 - Burnaby ,751 Hammarskjold Drive,"Burnaby, British Columbia",V5B 4A1,Canada,Telephone: 604-664-8550, 
School District No. 41 - Burnaby ,7590 Mission Avenue,"Burnaby, British Columbia",V3N5C7,Canada,Telephone: 604-296-6900, 
School District No. 41 - Burnaby ,7622 12th Avenue,"Burnaby, British Columbia",V3N2K1,Canada,Telephone: 604-296-6900, 
School District No. 41 - Burnaby ,7651 18th Avenue,"Burnaby, British Columbia",V3N 1J1,Canada,Telephone: 604-664-8683, 
School District No. 41 - Burnaby ,7777 18th Street,"Burnaby, British Columbia",V3N 4K3,Canada,Telephone: 604-296-6885, 
School District No. 41 - Burnaby ,7777 Mayfield Street,"Burnaby, British Columbia",V5E2J5,Canada,Telephone: 604-296-6900, 
School District No. 41 - Burnaby ,7881 Government Road,"Burnaby, British Columbia",V5A2C9,Canada,Telephone: 604-296-6900, 
School District No. 41 - Burnaby ,8525 Forest Grove Drive,"Burnaby, British Columbia",V5A4H5,Canada,Telephone: 604-296-6900, 
School District No. 41 - Burnaby ,8580 16th Avenue,"Burnaby, British Columbia",V3N 1S6,Canada,Telephone: 604-664-8568, 
School District No. 41 - Burnaby ,8757 Armstrong Avenue,"Burnaby, British Columbia",V3N2H8,Canada,Telephone: 604-296-6900, 
School District No. 41 - Burnaby ,8800 Eastlake Drive,"Burnaby, British Columbia",V3J 7X5,Canada,Telephone: 604-296-6870, 
School District No. 41 - Burnaby ,9388 Tower Road,"Burnaby, British Columbia",V5A 4X6,Canada,Telephone: 604-664-2030, 
School District No. 41 - Burnaby ,9540 Erickson Drive,"Burnaby, British Columbia",V3J 1M9,Canada,Telephone: 604-664-8622, 
School District No. 41 - Burnaby ,9847 Lyndhurst Street,"Burnaby, British Columbia",V3J1E9,Canada,Telephone: 604-296-6900, 
School District No. 60 - Peace River North,10114 105 Ave,"Fort St. John, British Columbia",V1J 4S4,Canada,Telephone: 250-262-6098, 
Settlement Assistance and Family Support Services,"1154 Morningside Avenue East, Unit 206","Toronto, Ontario",M1B 3A4,Canada,Telephone: 416-286-0826,indirabasu@safss.org
Settlement Assistance and Family Support Services,1200 Markham Road,"Toronto, Ontario",M1H 3C3,Canada,Telephone: 416-431-4847,reception@safss.org
Settlement Assistance and Family Support Services,"4352 Kingston Road, 2nd Floor","Toronto, Ontario",M1E 2M8,Canada,Telephone: 416-286-3878,indirabasu@safss.org
Settlement Assistance and Family Support Services,"5637 Finch Avenue East, Unit 8","Toronto, Ontario",M1B 5K9,Canada,Telephone: 416-293-9263,indirabasu@safss.org
Settlement Services in the Bow Valley,"110 Bear Street, Box 1260","Banff, Alberta",T1L 1A1,Canada,Telephone: 403-762-1248, 
Seven Oaks School Divison,830 Powers Street   ,"Winnipeg, Manitoba",R2V 4E7,Canada,Telephone: 204-586-8061,fran.taylor@7oaks.org
Sexuality Education resource Centre,167 Sherbrook Street,"Winnipeg, Manitoba",RC3 2B7,Canada,Telephone: 204-299-8475,lcaron@serc.mb.ca 
Sexuality Education resource Centre,300-123 Main Street,"Winnipeg, Manitoba",R3C1A3,Canada,Telephone: 204-945-6151,eal@rrc.ca
Sexuality Education Resource Centre Manitoba Inc.,200-226 Osborne St N,"Winnipeg, Manitoba",R3C 1V4,Canada,Telephone: 204-982-7800,info@serc.mb.ca
SHARE Family and Community Services Society ,#204-504 Cottonwood Ave.,"Coquitlam, British Columbia",V3J 2R5,Canada,Telephone: 604-937-3830, 
Shuswap Immigrant Services Society,101-371 Hudson Avenue NE,"Salmon Arm, British Columbia",V1E 4N3,Canada,Telephone: 250-804-2726, 
Silent Voice Canada,"60 St. Clair Avenue East, Suite 400","Toronto, Ontario",M4T 1N5,Canada,Telephone: 416-463-1104,k.mackenzie@silentvoice.ca
Sir Sandford Fleming College,555 Bonacord Street,"Peterborough, Ontario",K9J 7B1,Canada,Telephone: 705-749-5530,info@flemingcollege.ca
Skeena Diversity Society,4617 Lazelle Avenue,"Terrace, British Columbia",V8G 1S3,Canada,Telephone: 250-615-6892, 
Skills for Change,791 St. Clair Avenue West,"Toronto, Ontario",M6C 1B7,Canada,Telephone: 416-658-3101,info@skillsforchange.org
Smithers Community Services Association,3815B Railway Avenue,"Smithers, British Columbia",V0J 2N0,Canada,Telephone: 250-847-9515, 
Social Enterprise for Canada,17705 Leslie Street,"Newmarket, Ontario",L3Y 3E3,Canada,Telephone: 289-231-6495,info@socialenterprise.ca
Social Enterprise for Canada - Agilec,"50 Andrew Street South, Unit 102","Orillia, Ontario",L3V 7T5,Canada,Telephone: 705-325-9299,info@socialenterprise.ca
Social Enterprise for Canada - East Ridge Evangelical Missionary Church,12485 10th Line,"Stouffville , Ontario",L4A 7X3,Canada,Telephone: 905-640-3911,info@socialenterprise.ca
Social Enterprise for Canada - Focus Community Development Corp,"46 Wellington Street West, Unit 2 ","Alliston, Ontario",L9R 2B8,Canada,Telephone: 705-435-9821,info@socialenterprise.ca
Social Enterprise for Canada - Keswick Public Library,90 Wexford Drive,"Keswick, Ontario",L4P3P7,Canada,Telephone: 905-476-5762,info@socialenterprise.ca
Social Enterprise for Canada - Orillia Public Library,36 Mississaga Street West,"Orillia, Ontario",L3V 3A6,Canada,Telephone: 705-325-2338,info@socialenterprise.ca
Social Enterprise for Canada - Tracks Employment Services,50 Hume Street,"Collingwood, Ontario",L9Y 1V2,Canada,Telephone: 705-444-1580,info@socialenterprise.ca
Social Enterprise for Canada - Welcome Centre Immigrant Services -Newmarket,"16655 Yonge St, Unit 26","Newmarket, Ontario",L3X1V6,Canada,Telephone: 1-877-761-1155,info@socialenterprise.ca
Social Enterprise for Canada - Yorkworks,20887 Dalton Road,"Sutton, Ontario",L0E 1R0,Canada,Telephone: 905-722-1480,info@socialenterprise.ca
Société de développement économique de la Colombie-Britannique,"220-1555, 7th Avenue West","Vancouver, British Columbia",V6J 1S1,Canada,Telephone: 604-732-3534,info@sdecb.com
Société du centre scolaire communautaire de Calgary,4800 Richard Road Street West,"Calgary, Alberta",T3E 6L1,Canada,Telephone: 403-249-1749, 
Société Économique de l’Ontario,"2 Carlton Street, Suite 1305-1307","Toronto, Ontario",M5B 1J3,Canada,Telephone: 416-596-0220,info@seo-ont.ca
Société franco-manitobaine (SFM) / Accueil francophone du Manitoba,"147 Provencher Blvd, Unit 106   ","Winnipeg, Manitoba",R2H 0G2,Canada,Telephone: 204-233-4915,bsacko@sfm.mb.ca
Société franco-manitobaine (SFM) / Accueil francophone du Manitoba,190 Cathédrale Avenue ,"Winnipeg, Manitoba",R2H 0H7,Canada,Telephone: 204-975-4250,accueil@sfm.mb.ca
Société Santé en français,223 Main Street,"Ottawa, Ontario",K1S 1C4,Canada,Telephone: 613-244-1889,j.gravel@santefrancais.ca
"Society for Manitobans with Disabilities, Inc.",825 Sherbrook Street   ,"Winnipeg, Manitoba",R3A 1M5,Canada,Telephone: 204-975-3010,info@manitobapossible.ca
Society of Brooks Community Adult Learning Council (BCALC),303-8th Street E,"Brooks, Alberta",TIR 1B2,Canada,Telephone: 403-362-5372,bcalc@brookslearning.ca
Solomon College,"10621 - 100th Avenue, Suite 228","Edmonton, Alberta",T5J 0B3,Canada,Telephone: 780-431-1515, 
Somali Canadian Women and Children Association,13415C Fort Rd NW,"Edmonton, Alberta",T5A 1C6,Canada,Telephone: 780-756-1175, 
Somali Centre for Family Services,"1719 Bank Street, Suite 200","Ottawa, Ontario",K1V 7Z4,Canada,Telephone: 613-526-2075,info@scfsottawa.org
Somali Immigrant Aid Organization,"1778 Weston Road, Suite 105","Toronto, Ontario",M9N 1V8,Canada,Telephone: 416-243-1988,siao@idirect.com
South Essex Community Council,215 Talbot Street East,"Leamington, Ontario",N8H 3X5,Canada,Telephone: 519-326-8629,info@secc.on.ca
South London Neighbourhood Resource Centre,1119 Jalna Boulevard,"London, Ontario",N6E 3B3,Canada,Telephone: 519-686-8600, 
South London Neighbourhood Resource Centre - Bostwick Branch Library ,501 Southdale Road West,"London, Ontario",N6K 3X4,Canada,Telephone: 519-686-8600,nneedham@slnrc.ca
South London Neighbourhood Resource Centre - Westmount Shopping Centre,785 Wonderland Road S,"London, Ontario",N6K 1M6,Canada,Telephone: 519-686-8600,nneedham@slnrc.ca
South Vancouver Neighbourhood House,6470 Victoria Drive,"Vancouver, British Columbia",V5P 3Z7,Canada,Telephone: 604-324-6212, 
South West Centre for Community Program Development - Community Employment Services,40 Metcalf Street,"Woodstock, Ontario",N4S 3E7,Canada,Telephone: 519-539-8161, 
Southeast Advocates for Employment,1108 6th Street,"Estevan, Saskatchewan",S4A 1A8,Canada,Telephone: 306-637-4920,newcomerservices@sasktel.net
Southeast College,"633 King Street, P.O. Box 1565","Weyburn , Saskatchewan",S4H 0T1,Canada,Telephone: 306-848-2500,kburham@southeastcollege.org
Southwest Newcomer Welcome Centre Inc.,237 Central Avenue North,"Swift Current, Saskatchewan",S9H 0L3,Canada,Telephone: 306-778-6262,nwc@newcomerwelcomecentre.com
Spence Neighbourhood Association Inc.,615 Ellice Avenue  ,"Winnipeg, Manitoba",R3G 0A4,Canada,Telephone: 204-783-8607,lin@spenceneighbourhood.org
St. Stephen's Community House (Peer Nutrition Program),955 Queen Street East  ,"Toronto, Ontario",M4M 3P3,Canada,Telephone: 416-925-2103, 
Steinbach Chamber of Commerce,D4 - 284 Reimer Avenue   ,"Steinbach, Manitoba",R5G 0R5,Canada,Telephone: 204-346-6600,gwen@eastmanimmigrantservices.com
Strides Support Services Toronto East Metro Youth Services,"1200 Markham Road, Suite 313","Toronto, Ontario",M1H 3C3,Canada,Telephone: 416-438-3697,contactus@stridestoronto.ca
Supporting Employment and Economic Development (SEED) Winnipeg Inc.,80 Salter Street   ,"Winnipeg, Manitoba",R2W 4J6,Canada,Telephone: 204-927-9935,info@seedwinnipeg.ca
Swan Valley Settlement & Immigrant Services,516 Main Street E,"Swan River, Manitoba",R0L 1Z0,Canada,Telephone: 204-734-9874,svsettlementservices@hotmail.com
Syrian Canadian Foundation,4308 Village Centre Court  ,"Mississauga, Ontario",L4Z 1S2,Canada,Telephone: 647-784-2136,info@syriancanadianfoundation.ca
Tesoc Multicultural Settlement and Community Services,"1160 Birchmount Road, Unit 1A","Toronto, Ontario",M1P 2B8,Canada,Telephone: 416-757-6043,info@tesoc.org
Tesoc Multicultural Settlement and Community Services,"685 Lansdowne Avenue, Unit 1A","Toronto, Ontario",M6H 3Y9,Canada,Telephone: 416-536-5678,info@tesoc.org
Thames Valley District School Board,127 Sherwood Forest Square,"London, Ontario",N6G 2C3,Canada,Telephone: 519-452-2000, 
Thames Valley District School Board,1350 Highbury Avenue,"London, Ontario",N5Y 1B5,Canada,Telephone: 519-452-2000, 
Thames Valley District School Board,391 Blossom Park Road,"Woodstock, Ontario",N4S 7J3,Canada,Telephone: 519-452-2000, 
Thames Valley District School Board,505 Village Green Avenue,"London, Ontario",N6J 4G4,Canada,Telephone: 519-452-2000, 
Thames Valley District School Board,565 Bradley Avenue,"London, Ontario",N6E 3Z8,Canada,Telephone: 519-452-2000, 
Thames Valley District School Board,70 Jacqueline Street,"London, Ontario",N5Z 3P7,Canada,Telephone: 519-452-2000, 
Thames Valley District School Board,785 Trafalgar Street,"London, Ontario",N5Z 1E6,Canada,Telephone: 519-452-2000, 
The 519 Church St. Community Centre,519 Church Street,"Toronto, Ontario",M4Y 2C9,Canada,Telephone: 416-392-6874, 
The 519 Church St. Community Centre - Phillipine Overseas Labour Office,160 Eglinton Avenue East,"Toronto, Ontario",M4P 3B5,Canada,Telephone: 416-392-6874, 
The Arab Community Centre of Toronto,"555 Burnhamthorpe Road, Suite 209","Toronto, Ontario",M9C 2Y3,Canada,Telephone: 416-231-7746, 
The Arab Community Centre of Toronto,898 Markham Road,"Scarborough, Ontario",M1H 2Y2,Canada,Telephone: 416-231-7746, 
The Bob Rumball Canadian Centre of Excellence for the Deaf,2395 Bayview Avenue,"Toronto, Ontario",M2L 1A2,Canada,Telephone: 416-449-9651, 
The Canadian Hearing Society,"2227 South Millway, Suite 300","Mississauga, Ontario",L5L 3R6,Canada,Telephone: 866-518-0000, 
The Cross-Cultural Community Services Association,"302 Spadina Avenue, Suite 206","Toronto, Ontario",M5T 2E7,Canada,Telephone: 416-977-4026, 
The Cross-Cultural Community Services Association,"310 Spadina Avenue, Suite 301","Toronto, Ontario",M5T 2E8,Canada,Telephone: 416-977-4026, 
The Cross-Cultural Community Services Association,"325 - 395 Bamburgh Circle, Unit A107","Toronto, Ontario",M1W 3Y1,Canada,Telephone: 416-502-9500, 
The Cross-Cultural Community Services Association,"720 Burnhamthorpe Road West, Unit 2","Mississauga, Ontario",L5C 3G1,Canada,Telephone: 905-615-9500, 
The Cross-Cultural Community Services Association,"Metro Square, 3636 Steeles Avenue, Unit 213","Markham, Ontario",L3R 1K9,Canada,Telephone: 905-475-9898, 
The Governing Board of South Winnipeg Technical Center,7 Fultz Boulevard,"Winnipeg, Manitoba",R3Y 1G4,Canada,Telephone: 204-989-6500,viksok@wtc.mb.ca
The Governing Council of The Salvation Army Barbara Mitchell Family Resource Centre,51 Morrow Avenue  ,"Winnipeg, Manitoba",R2M 1A5,Canada,Telephone: 204-946-9152,ganna_glibka@can.salvationarmy.org
The Housing Help Centre,"100 Consilium Place, 10th Fl","Scarborough, Ontario",M1H 3E3,Canada,Telephone: 416-285-8070, 
The Housing Help Centre,"2500 Lawrence Avenue East, Suite 205","Scarborough, Ontario",M1P 2R7,Canada,Telephone: 416-285-8070, 
The Housing Help Centre,"325 Milner Ave, 9th Fl","Scarborough, Ontario",M1B 5N1,Canada,Telephone: 416-285-8070, 
The Housing Help Centre,"8 Shadlock St, #5A","Markham, Ontario",L3S3K9,Canada,Telephone: 905-554-9033, 
The Humboldt Regional Newcomer Centre Inc.,"636 9th Street, P.O. Box 3430","Humboldt, Saskatchewan",S0K 2A0,Canada,Telephone: 306-682-4277,info@thehrnc.com
The Immigrant Education Society,311 32 Westwinds Crescent NE,"Calgary, Alberta",T3J 5L3,Canada,Telephone: 587-392-4177,reception@immigrant-education.ca
The Immigrant Educational Society,3820 32nd Street NE,"Calgary, Alberta",T1Y 7L9,Canada,Telephone: 403-291-0002,reception@immigrant-education.ca
The Learning Enrichment Foundation,116 Industry Street,"Toronto, Ontario",M6M 4L8,Canada,Telephone: 416-769-0830, 
The Learning Enrichment Foundation,1267 Weston Road,"Toronto, Ontario",M6M 4R2,Canada,Telephone: 416-244-8982, 
The Learning Enrichment Foundation,55 Emmett Avenue,"Toronto, Ontario",M6M 2E4,Canada,Telephone: 416-572-0086, 
The Multicultural Association of Greater Moncton Area (MAGMA),"22 Church Street, Suite C170","Moncton, New Brunswick",E1C 0P7,Canada,Telephone: 506-857-9430,info@magma-amgm.org
The Neighbourhood Community Services (Healthy Beginnings for Healthy Babies),48 Thorncliffe Park Drive,"Toronto, Ontario",M4H 1J7,Canada,Telephone: 416-925-2103, 
The Neighbourhood Group Community Services,219 Augusta Avenue,"Toronto, Ontario",M5T 2L9,Canada,Telephone: 416-964-8747, 
The Neighbourhood Group Community Services,340 College Street,"Toronto, Ontario",M5T 3A9,Canada,Telephone: 416-964-8747, 
The Neighbourhood Group Community Services,5231 Yonge Street,"Toronto, Ontario",M2N 5P8,Canada,Telephone: 416-964-8747, 
The Neighbourhood Group Community Services,91 Bellevue Avenue,"Toronto, Ontario",M5T 2N8,Canada,Telephone: 416-925-2103, 
The Neighbourhood Group Community Services  (Parents for Better Beginnings Perinatal Program),246 Sackville Street,"Toronto, Ontario",M5A 3S4,Canada,Telephone: 416-925-2103, 
The Neighbourhood Group Community Services (Great Start Together Perinatal Program),168 Bathurst Street,"Toronto, Ontario",M5V 2RV,Canada,Telephone: 416-925-2103, 
The Neighbourhood Group Community Services (Healthy Beginnings for Healthy Babies),3079 Danforth Avenue,"Toronto, Ontario",M1L 1A8,Canada,Telephone: 416-925-2103, 
The Neighbourhood Group Community Services (Healthy Beginnings Partnership),1884 Davenport Road,"Toronto, Ontario",M6N 4Y2,Canada,Telephone: 416-925-2103, 
The Ottawa Community Loan Fund ,80 Aberdeen Street,"Ottawa, Ontario",K1S 5R5,Canada,Telephone: 613-366-2159,info@oclf.org
The River East Transcona School Division (RETSD),589 Roch Street   ,"Winnipeg, Manitoba",R2K 2P7,Canada,Telephone: 204-667-7130,kcampbell@retsd.mb.ca
The Saint John Newcomers Centre,165 Union Street,"Saint John, New Brunswick",E2L 5C7,Canada,Telephone: 506-642-4242,welcome@sjnewcomers.ca
The SPEC Association for Children and Families,"327 - 3rd Street W., Suite 101 ","Brooks, Alberta",T1R 0E7,Canada,Telephone: 403-362-5056,home@spec.ab.ca
The University of Western Ontario,1151 Richmond St. ,"London , Ontario",N6A 5C2,Canada,Telephone: 519-661-2111 ext. 84650,vesses@uwo.ca
The Women's Centre of Halton,"1515 Rebecca Street, Suite 229","Oakville, Ontario",L6L 5G8,Canada,Telephone: 905-847-5520,support@thewomencentreofhalton.com
The Women's Centre of Halton,"225 Main Street, Unit 7","Milton, Ontario",L9T 1N9,Canada,Telephone: 289-878-1943,support@thewomencentreofhalton.com
The YMCA of Greater Vancouver,955 Burrard Street,"Vancouver, British Columbia",V6Z 1Y2,Canada,Telephone: 604-689-9622, 
Thunder Bay Multicultural Association,17 North Court Street,"Thunder Bay, Ontario",P7A 4T4,Canada,Telephone: 807-345-0551,info@tbma.ca
Timmins and District Multicultural Centre,"119 Pine Street South, Suite 10  ","Timmins, Ontario",P4N 2K3,Canada,Telephone: 705-363-7267, 
TNO - The Neighbourhood Organization,"1 Leaside Park Drive, Unit 7","Toronto, Ontario",M4H 1R1,Canada,Telephone: 416-467-0126, 
TNO - The Neighbourhood Organization,10 Gateway Blvd,"Toronto, Ontario",M3C 3A1,Canada,Telephone: 416-424-2900, 
TNO - The Neighbourhood Organization,14 Overlea Boulevard,"Toronto, Ontario",M4H 1A4,Canada,Telephone: 416-396-2930, 
TNO - The Neighbourhood Organization,"1457 McCowan Road, Unit 200","Toronto, Ontario",M1S 5K7,Canada,Telephone: 416-396-7815, 
TNO - The Neighbourhood Organization,"1470 Don Mills Road, 2nd Floor","Toronto, Ontario",M3B 2X9,Canada,Telephone: 416-395-3988, 
TNO - The Neighbourhood Organization,18 Thorncliffe Park Drive,"Toronto, Ontario",M4H 1N7,Canada,Telephone: 416-421-3054, 
TNO - The Neighbourhood Organization,200 Wellesley Street East,"Toronto, Ontario",M4X 1G3,Canada,Telephone: 416-964-6657, 
TNO - The Neighbourhood Organization,"2907 Kennedy Road, 2nd floor","Toronto, Ontario",M1V 1S8,Canada,Telephone: 416-396-6222, 
TNO - The Neighbourhood Organization,6464 Yonge Street,"Toronto, Ontario",M2M 3X4,Canada,Telephone: 416-395-4820, 
TNO - The Neighbourhood Organization,685 Sheppard Avenue East,"Toronto, Ontario",M2K 1B6,Canada,Telephone: 416-395-8214, 
TNO - The Neighbourhood Organization,"Crescent Town Club, 2A The Market Place","Toronto, Ontario",M4C 5M1,Canada,Telephone: 416-690-6385, 
TNO - The Neighbourhood Organization (at Toronto Public Library) ,269 Gerrard St East,"Toronto, Ontario",M5A 2G3,Canada,Telephone: 416-467-0126,https://tno-toronto.org/contact-tnos-swislsp-settlement-workers
TNO - The Neighbourhood Organization (at Toronto Public Library) ,29 St Dennis Drive,"Toronto, Ontario",M3C 3J3,Canada,Telephone: 416-467-0126,https://tno-toronto.org/contact-tnos-swislsp-settlement-workers
TNO - The Neighbourhood Organization (at Toronto Public Library) ,48 Thorncliffe Park Drive,"Toronto, Ontario",M4H 1J7,Canada,Telephone: 416-467-0126,https://tno-toronto.org/contact-tnos-swislsp-settlement-workers
Today Family Violence Help Centre,17724 102 Avenue NW,"Edmonton, Alberta",T5S 1H5,Canada,Telephone: 780-455-6880, 
Toronto and Region Conservation Authority,101 Exchange Avenue,"Vaughan, Ontario",L4K 5R6,Canada,Telephone: 416-661-6600,info@trca.on.ca
Toronto Catholic District School Board,"2 Lansing Square, Suite 102","Toronto, Ontario",M2J 4P8,Canada,Telephone: 416-750-2070,eregister@tcdsb.org
Toronto Catholic District School Board,"2275 Lake Shore Boulevard West, Suite 200","Toronto, Ontario",M2H 1S9,Canada,Telephone: 416-397-6959,eregister@tcdsb.org
Toronto Catholic District School Board,3430 Finch Avenue East,"Toronto, Ontario",M1W 2R5,Canada,Telephone: 416-397-6600,eregister@tcdsb.org
Toronto Catholic District School Board,44 Kelvinway Drive,"Scarborough, Ontario",M1W 1N6,Canada,Telephone: 416-397-6046,eregister@tcdsb.org
Toronto Catholic District School Board,"90 Eglinton Avenue East, suite 200","Toronto, Ontario",M4P 2Y3,Canada,Telephone: 416-397-6196,eregister@tcdsb.org
Toronto District School Board,14 Overlea Boulevard,"Toronto, Ontario",M4H 1A4,Canada,Telephone: 416-396-2930,LINC@tdsb.on.ca
Toronto District School Board,1457 McCowan Road,"Toronto, Ontario",M1S 5K7,Canada,Telephone: 416-396-7815,LINC@tdsb.on.ca
Toronto District School Board,1470 Don Mills Road,"Toronto, Ontario",M3B 2X9,Canada,Telephone: 416-395-3988,LINC@tdsb.on.ca
Toronto District School Board,1530 Albion Road,"Toronto, Ontario",M9V 1B4,Canada,Telephone: 416-394-6232,LINC@tdsb.on.ca
Toronto District School Board,2494 Danforth Avenue,"Toronto, Ontario",M4C 1K9,Canada,Telephone: 416-396-2488,LINC@tdsb.on.ca
Toronto District School Board,"2907 Kennedy Road, 2nd Floor","Toronto, Ontario",M1V 1S8,Canada,Telephone: 416-396-6222,LINC@tdsb.on.ca
Toronto District School Board,30 Barrhead Crescent,"Toronto, Ontario",M9W 3Z7,Canada,Telephone: 416-394-6225,LINC@tdsb.on.ca
Toronto District School Board,31 Tapscott Road,"Toronto, Ontario",M1B 4Y7,Canada,Telephone: 416-396-9100,nsmalvern@tdsb.on.ca
Toronto District School Board,34 Kenton Drive,"Toronto, Ontario",M2R 2H8,Canada,Telephone: 416-395-8486,LINC@tdsb.on.ca
Toronto District School Board,4505 Jane Street,"Toronto, Ontario",M3N 2K7,Canada,Telephone: 416-395-5066,LINC@tdsb.on.ca
Toronto District School Board,6464 Yonge Street,"Toronto, Ontario",M2M 3X4,Canada,Telephone: 416-395-8309,LINC@tdsb.on.ca
Toronto District School Board,"6464 Yonge Street, 2nd Floor","Toronto, Ontario",M2M 3X4,Canada,Telephone: 416-395-8270,eltemployment@tdsb.on.ca
Toronto District School Board,685 Sheppard Avenue East,"Toronto, Ontario",M2K 1B6,Canada,Telephone: 416-395-8214,LINC@tdsb.on.ca
Toronto District School Board,"74 Victoria Street, Suite 115","Toronto, Ontario",M5C 2A5,Canada,Telephone: 416-393-8268,LINC@tdsb.on.ca
Umoja Operation Compassion Society,#208 - 14888 104 Avenue  ,"Surrey, British Columbia",V3R 1M4,Canada,Telephone: 604-581-5574,info@umojaoperation.ca
Unemployed Help Centre of Windsor Inc.,6955 Cantelon Drive,"Windsor, Ontario",N8T 3J9,Canada,Telephone: 519-944-4900,uhc@uhc.ca
United Way of Bruce Grey,380 9th Street East  ,"Owen Sound, Ontario",N4K 1P1,Canada,Telephone: 519-376-1560,execdir@unitedwaybg.com
Université de Saint-Boniface,200 Cathédrale Avenue  ,"Winnipeg, Manitoba",R2H 0H7,Canada,Telephone: 204-237-1818,aclark@ustboniface.ca
Université Sainte-Anne,"1190 Barrington Street, Suite 100","Halifax, Nova Scotia",B3H 2R4,Canada,Telephone: 902-424-2630, 
University of Prince Edward Island,550 University Avenue,"Charlottetown, Prince Edward Island",C1A 4P3,Canada,Telephone: 902-628-4353, 
University of Regina,3737 Wascana Parkway,"Regina, Saskatchewan",S4S0A2,Canada,Telephone: 306-585-4384,jacqueline.spalding@uregina.ca
University of Waterloo,200 University Avenue West,"Waterloo, Ontario",N2L 3G1,Canada,Telephone: 519-888-4567, 
University Settlement,23 Grange Road,"Toronto, Ontario",M5T 1C3,Canada,Telephone: 416-598-3444, 
University Settlement,"6075 Yonge Street, 4th Floor","Toronto, Ontario",M2M 3W2,Canada,Telephone: 416-218-8990, 
University Settlement,"720 Spadina Avenue, Suite 310","Toronto, Ontario",M5S 2T9,Canada,Telephone: 416-977-8325, 
Upper Canada District School Board,129 Main Street,"Hawkesbury, Ontario",K6A 1A2,Canada,Telephone: 613-933-9626, 
Upper Canada District School Board,"163 Ormond Street, Unit LM","Brockville, Ontario",K6V 2L2,Canada,Telephone: 613-345-6781, 
Upper Canada District School Board - T.R. Leger Immigrant Services,600 McConnell Avenue,"Cornwall, Ontario",K6H 4M1,Canada,Telephone: 613-933-9626, 
Vancouver Board of Education (Vancouver School Board - District 39),1000 East 59th Avenue,"Vancouver, British Columbia",V5X 1Y7,Canada,Telephone: 604-713-5698, 
Vancouver Board of Education (Vancouver School Board - District 39),150 Drake Street,"Vancouver, British Columbia",V6Z 2X1,Canada,Telephone: 604-713-5696, 
Vancouver Board of Education (Vancouver School Board - District 39),3315 East 22nd Avenue,"Vancouver, British Columbia",V6J 5K8,Canada,Telephone: 604-713-5696, 
Vancouver Board of Education (Vancouver School Board - District 39),5488 Ortona Road,"Vancouver, British Columbia",V6J 5K8,Canada,Telephone: 604-713-5696, 
Vancouver Board of Education (Vancouver School Board - District 39),5855 Ontario Street,"Vancouver, British Columbia",V5W 2L8,Canada,Telephone: 604-713-5696, 
Vancouver Board of Education (Vancouver School Board - District 39),900 School Green,"Vancouver, British Columbia",V6H 3N7,Canada,Telephone: 604-713-5696, 
Vancouver Community College,1155 East Broadway,"Vancouver, British Columbia",V5T 1Y8,Canada,Telephone: 604-871-7000, 
Vancouver Formosa Academy ,5621 Killarney Street,"Vancouver, British Columbia",V5R 3W4,Canada,Telephone: 604-436-2332, 
Vancouver Public Library,350 West Georgia Street,"Vancouver, British Columbia",V6B 6B1,Canada,Telephone: 604-331-3624, 
Vanier Community Service Centre,290 Dupuis Street,"Vanier, Ontario",K1L 1A2,Canada,Telephone: 613-744-2892,cscv@cscvanier.com
Vernon & District Immigrant Services Society,#100 – 3003 30th Street,"Vernon, British Columbia",V1T 9J5,Canada,Telephone: 250-542-4177, 
Victoria Immigrant and Refugee Centre Society,"3rd Floor, 637 Bay Street","Victoria, British Columbia",V8T 5L2,Canada,Telephone: 250-361-9433, 
"Vietnamese Association, Toronto",11A Glen Watford Drive,"Scarborough, Ontario",M1S 2B7,Canada,Telephone: 416-636-8887,manh@vatoronto.ca
"Vietnamese Association, Toronto",1364 Dundas Street West,"Toronto, Ontario",M6J 1Y2,Canada,Telephone: 416-536-3611,manh@vatoronto.ca
"Vietnamese Association, Toronto","3585 Keele Street, Unit 13","Toronto, Ontario",M3J 3H5,Canada,Telephone: 416-636-8887,manh@vatoronto.ca
Vietnamese Community Centre of Mississauga,600 Lakeshore Road East,"Mississauga, Ontario",L5G 1J4,Canada,Telephone: 905-891-3825, 
VWAT Family Service,1756 St.Clair Avenue West,"Toronto, Ontario",M6N 1J3,Canada,Telephone: 647-343-8928 ext. 111, 
Waterloo Catholic District School Board - St. Louis Adult Learning,135 Highland Road East,"Kitchener, Ontario",N2M 3W4,Canada,Telephone: 519-745-1201, 
Waterloo Catholic District School Board - St. Louis Adult Learning,80 Young Street,"Kitchener, Ontario",L8K 2V6,Canada,Telephone: 519-745-1201, 
Waverley EAL Consulting Inc.  o/a Enhanced English Skills for Employment ,1500 - 275 Portage Avenue  ,"Winnipeg, Manitoba",R3B 2B3,Canada,Telephone: 204-927-4375,LGiesbrecht@eese.ca
Wesley Urban Ministries,52 Catharine Street North,"Hamilton, Ontario",L8R 1J1,Canada,Telephone: 905-528-5629, 
West Neighbourhood House,"1499 Queen Street West, 2nd Floor","Toronto, Ontario",M6R 1A3,Canada,Telephone: 416-504-3535, 
West Prince Ventures Ltd.,"455 Main Street, P.O. Box 368","Alberton, Prince Edward Island",C0B 1B0,Canada,Telephone: 902-853-3636,info.communitynavigator@cbdc.ca
West Prince Ventures Ltd.,544 Main Street,"Montague, Prince Edward Island",C0A 1R0,Canada,Telephone: 902-853-3636,info.communitynavigator@cbdc.ca
West Prince Ventures Ltd.,55 Victoria Street East,"Kensington, Prince Edward Island",C0B 1M0,Canada,Telephone: 902-853-3636,info.communitynavigator@cbdc.ca
Westman Immigrant Services,1001 Pacific Avenue  ,"Brandon, Manitoba",R7A 0J2,Canada,Telephone: 204-727-6031,info@westmanimmigrantservices.ca
WIL Counselling and Training for Employment,"141 Dundas Street, 4th Floor","London, Ontario",N6A 1G3,Canada,Telephone: 519-663-0774,office@wil.ca
Windmill Microlending ,"1240 Bay Street, Suite 601","Toronto, Ontario",M5R 2A7,Canada,Telephone: 416-360-4445, 
Windmill Microlending ,165 Avenue Road suite 300,"Toronto, Ontario",M5R 3S4,Canada,Telephone: 416-360-4445,loanmanagement@teamwindmill.org
Windmill Microlending ,"709, 7015 Macleod Trail SW  ","Calgary, Alberta",T2H 2K6,Canada,Telephone: 403-228-9981,info@teamwindmill.org
Windmill Microlending ,"550,1000-8th Ave SW","Edmonton, Alberta",T2P3M7,Canada,Telephone: 1-855-423-2262 ext. 306,info@teamwindmill.org
Windsor Women Working with Immigrant Women,500 Ouellette Avenue,"Windsor, Ontario",N9A 1B3,Canada,Telephone: 519-973-5588,info@wwwwiw.org
Winnipeg School Division,1577 Wall Street East,"Winnipeg, Manitoba",R3E 2S5,Canada,Telephone: 204-947-1674,wsd1@org
Women in Need Society of Calgary,"1, 3525 26 Avenue SE  ","Calgary, Alberta",T2B 2M9,Canada,Telephone: 403-255-5102,info@womeninneed.net
Women's Economic Council,,"Vancouver, British Columbia",Canada,Canada,Telephone: 1-888-800-8947,info@WomensEconomicCouncil.ca
Women's Economic Council,,"St. John's, Newfoundland and Labrador",Canada,Canada,Telephone: 1-888-800-8947,info@WomensEconomicCouncil.ca
Women's Economic Council,,"Ottawa, Ontario",Canada,Canada,Telephone: 1-888-800-8947,info@WomensEconomicCouncil.ca
Women's Enterprise Skills Training of Windsor Inc.,"647 Ouellette Avenue, Suite 201","Windsor, Ontario",N9A 4J4,Canada,Telephone: 519-256-6621, 
WoodGreen Community Services,1491 Danforth Avenue,"Toronto, Ontario",M4J 1N5,Canada,Telephone: 416-645-6000,ababcock@woodgreen.org
WoodGreen Community Services,"260 Wellesley Street East, ground floor","Toronto, Ontario",M4X 1G6,Canada,Telephone: 416-645-6000,ababcock@woodgreen.org
WoodGreen Community Services,"815 Danforth Avenue, Suite 100","Toronto, Ontario",M4J 1L2,Canada,Telephone: 416-645-6000,ababcock@woodgreen.org
Working Women Community Centre,"1527 Victoria Park Avenue East, 2nd Floor","Toronto, Ontario",M1L 2T3,Canada,Telephone: 416-750-9600,admin@workingwomencc.org
Working Women Community Centre,"2065 Finch Avenue West, Suite 106","North York, Ontario",M3N 2V7,Canada,Telephone: 647-346-3700,admin@workingwomencc.org
Working Women Community Centre,"5 Fairview Mall Drive, Suite 478","Toronto, Ontario",M2J1Z1,Canada,Telephone: 416-494-7978,admin@workingwomencc.org
Working Women Community Centre,533A Gladstone Avenue,"Toronto, Ontario",M6H 3J1,Canada,Telephone: 416-532-2824,admin@workingwomencc.org
World Skills Employment Centre,"219 Argyle Avenue, Suite 300","Ottawa, Ontario",K2P 1H4,Canada,Telephone: 613-233-0453,ws@ottawa-worldskills.org
Yes Employments Services Inc (Nipissing),149 Main Street East  ,"North Bay, Ontario",P1B1A9,Canada,Telephone: 705-476-3234, 
YMCA - Eagle Ridge Community Centre,2-301 Sparrow Hawk Drive,"Fort McMurray, Alberta",T9K 0P1,Canada,Telephone: 780-743-9600,ContactCentre@northernalberta.ymca.ca
YMCA of Greater Halifax/Dartmouth,"7071 Bayers Road, Suite 104","Halifax, Nova Scotia",B3L 2C2,Canada,Telephone: 902-457-9622,yis@halifax.ymca.ca
YMCA of Greater Halifax/Dartmouth - YMCA Centre for Immigrant Programs,283 Main Street,"Antigonish, Nova Scotia",B2G 2C3,Canada,Telephone: 902-457-9622,yis@halifax.ymca.ca
YMCA of Greater Halifax/Dartmouth - YMCA Centre for Immigrant Programs,49 Cornwallis Street,"Kentville, Nova Scotia",B4N 2E3,Canada,Telephone: 902-457-9622,yis@halifax.ymca.ca
YMCA of Greater Saint John,191 Churchill Boulevard,"Saint John, New Brunswick",E2K 3E2,Canada,Telephone: 506-693-9622,newcomerconnections@saintjohny.com
YMCA of Greater Toronto,"10 Milner Business Court, Suite 600","Toronto, Ontario",M1B 3C8,Canada,Telephone: 416-609-0218, 
YMCA of Greater Toronto,"1530 Albion Road, Suite 83","Toronto, Ontario",M9V 1B4,Canada,Telephone: 416-741-8714, 
YMCA of Greater Toronto,20 Union Street,"Brampton, Ontario",L6V 1R2,Canada,Telephone: 905-451-9622, 
YMCA of Greater Toronto,"2200 Yonge Street, Unit 300","Toronto, Ontario",M4S 2C6,Canada,Telephone: 416-928-2030,memberservices@ymcagta.org
YMCA of Greater Toronto,230 Town Centre Court,"Scarborough, Ontario",M1P 4Y7,Canada,Telephone: 416-925-5462, 
YMCA of Greater Toronto,251 Consumers Road,"Toronto, Ontario",M2J 4R3,Canada,Telephone: 416-502-2484 ext. 33401, 
YMCA of Greater Toronto,55 City Centre Drive,"Mississauga, Ontario",L5B 1M3,Canada,Telephone: 905-897-9622, 
YMCA of Greater Toronto ,"20 Grosvenor Street, 3rd floor","Toronto, Ontario",M4Y 2V5,Canada,Telephone: 416-975-9168 ext. 32400, 
YMCA of Greater Toronto ,"4580 Dufferin Street, 2nd floor","Toronto, Ontario",M3H 5Y2,Canada,Telephone: 416-630-0330, 
YMCA of Greater Toronto ,578 Finch Avenue West,"Toronto, Ontario",M2R 1N7,Canada,Telephone: 647-400-4730, 
YMCA of Greater Toronto (Toronto Reference Library),789 Yonge Street,"Toronto, Ontario",M4W 2G8,Canada,Telephone: 416-917-6717, 
YMCA of Hamilton/Burlington/Brantford,"211 Centennial Parkway North, Unit 1 & 3","Hamilton, Ontario",L8E 1H8,Canada,Telephone: 905-662-9400, 
YMCA of Hamilton/Burlington/Brantford,"25 Main Street West, Suite 105","Hamilton, Ontario",L8P 2X8,Canada,Telephone: 905-526-8452, 
YMCA of Hamilton/Burlington/Brantford,"38 Darling Street, Suite 201","Brantford, Ontario",N3T 6A8,Canada,Telephone: 905-662-9400, 
YMCA of Hamilton/Burlington/Brantford,79 James Street South,"Hamilton, Ontario",L8P 2Z1,Canada,Telephone: 905-529-7102, 
YMCA of Niagara,285 Bunting Road,"St. Catharines, Ontario",L2M 3Y2,Canada,Telephone: 905-689-3500, 
YMCA of Niagara,8123 Lundy's Lane,"Niagara Falls, Ontario",L2H 1H3,Canada,Telephone: 289-296-7369, 
YMCA of Owen Sound Grey Bruce ,"945 3rd Avenue East, Suite 23/24","Owen Sound, Ontario",N4K2K8,Canada,Telephone: 519-371-9222,settlement@osgb.ymca.ca 
YMCA of Simcoe/Muskoka,"Bayfield Mall, 320 Bayfield Street, Unit 63A","Barrie, Ontario",L4M 3C1,Canada,Telephone: 705-797-2020 ext. 21, 
YMCA of Southwestern Ontario,1119 Jalna Boulevard,"London, Ontario",N6E 3B3,Canada,Telephone: 519-645-7553 ext. 1, 
YMCA of Southwestern Ontario,165 Elmwood Ave East,"London, Ontario",N6C 0A8,Canada,Telephone: 519-645-7553 ext. 1, 
YMCA of Southwestern Ontario,382 Waterloo Street,"London, Ontario",N6B 2N8,Canada,Telephone: 519-645-7553 ext. 1, 
YMCA of Southwestern Ontario,660 Oakdale Avenue,"Sarnia, Ontario",N7V 2A9,Canada,Telephone: 519-336-5950, 
YMCA of Southwestern Ontario,"735 Wonderland Road North, Unit 207","London, Ontario",N6H 4L1,Canada,Telephone: 519-645-7553 ext. 1, 
YMCA of Southwestern Ontario,785 Wonderland Road South,"London, Ontario",N6K 1M6,Canada,Telephone: 519-645-7553 ext. 1, 
YMCA of Three Rivers,800 King Street West,"Kitchener, Ontario",N2G 1E8,Canada,Telephone: 519-579-9622,newcomers@ytr.ymca.ca
YMCA of Three Rivers,"154 Gatewood Road, Building A, unit 168","Kitchener, Ontario",N2M 4E4,Canada,Telephone: 519-742-8220 or 519-503-8251,itinerant@ytr.ymca.ca
YMCA of Three Rivers,204 Downie Street,"Stratford, Ontario",N5A 1X4,Canada,Telephone: 226-448-0637,newcomers@ytr.ymca.ca
YMCA of Three Rivers,250 Hespeler Road,"Cambridge, Ontario",N1R 3H3,Canada,Telephone: 519-621-1621,newcomers@ytr.ymca.ca
YMCA of Windsor and Essex County,500 Victoria Avenue,"Windsor, Ontario",N9A 4M8,Canada,Telephone: 519-258-9622, 
YMCA Sudbury,"10 Elm Street, Suite 112","Sudbury, Ontario",P3C 5N3,Canada,Telephone: 705-674-2324, 
YMCA-YWCA of the National Capital Region,"150 Isabella Street, Suite 201","Ottawa, Ontario",K2P 1B7,Canada,Telephone: 613-788-5001,nic.ymcaywca.ca
YMCA-YWCA of the National Capital Region,"150 Isabella Street, Suite 201","Ottawa, Ontario",K1S 1V7,Canada,Telephone: 613-680-3777 ext. 307,nyld@ymcaywca.ca
YMCA-YWCA of the National Capital Region,1642 Merivale Road,"Ottawa, Ontario",K2G 4A1,Canada,Telephone: 343-998-9659,poweroftrades@ymcaywca.ca
YMCA-YWCA of the National Capital Region,"1642 Merivale Road, 2nd Floor","Ottawa, Ontario",K2G 4A1,Canada,Telephone: 613-727-7070,larc.celo@ymcaywca.ca
YMCA-YWCA of the National Capital Region,"240 Catherine Street, Suite 308","Ottawa, Ontario",K2P 2G8,Canada,Telephone: 613-238-5462,larc.celo@ymcaywca.ca
YMCA-YWCA of Winnipeg,3550 Portage Avenue  ,"Winnipeg, Manitoba",R3K 0Z8,Canada,Telephone: 204-831-3264,semerson@ymcaywca.mb.ca
York Region District School Board,"60 Wellington Street West, Box 40","Aurora, Ontario",L4G 3H2,Canada,Telephone: 905-727-0022 ext. 2587, 
York University,2005-4700 Keele Street,"Toronto, Ontario",M3J 1P3,Canada,Telephone: 416-736-5620,makemore@yorku.ca
Young Women's Christian Association (YWCA Metro Vancouver),535 Hornby Street  ,"Vancouver, British Columbia",V6C 2E8,Canada,Telephone: 604-895-5791, 
Youth Assisting Youth,"5734 Yonge Street, Suite 401","Toronto, Ontario",M2M 4E7,Canada,Telephone: 416-932-1919, 
"Yukon Tourism Education Council, Multicultural Centre of the Yukon (a division of YTEC)",4141D 4th Avenue,"Whitehorse, Yukon",Y1A  1J1,Canada,Telephone: 867-667-6205, 
YWCA Halifax,358 Herring Cove Road,"Halifax, Nova Scotia",B3R 1V8,Canada,Telephone: 902-423-6162, 
YWCA of Calgary,320 - 5th Avenue SE ,"Calgary, Alberta",T2G 0E5,Canada,Telephone: 403-750-5357, 
YWCA Prince Albert Inc.,65 11th Street East,"Prince Albert, Saskatchewan",S6V 0Z8,Canada,Telephone: 306-763-0736,carolynhobden.ywca@sasktel.net
YWCA St. John's,"34 Harvey Road, Suite 326","St. John's, Newfoundland and Labrador",A1C 2G1,Canada,Telephone: 709-726-9922,info@ywcastjohns.ca
YWCA St. Thomas Elgin,16 Mary Street West,"St. Thomas, Ontario",N5P 2S3,Canada,Telephone: 519-631-9800,settlement@ywcaste.ca
YWCA St. Thomas Elgin,20 Talbot Street East,"Aylmer, Ontario",N5H 1H4,Canada,Telephone: 519-631-9800,settlement@ywcaste.ca
YWCA St. Thomas Elgin,6700 Springfield Road,"Aylmer, Ontario",N5H 2R2,Canada,Telephone: 519-631-9800,settlement@ywcaste.ca
YWCA Toronto,"222 Dixon Road, Suite 207","Toronto, Ontario",M9P 3S5,Canada,Telephone: 416-964-3883, 
YWCA Toronto,"3090 Kingston Road, Suite 205","Toronto, Ontario",M1M 1P2,Canada,Telephone: 416-266-0303, 
